<?xml version="1.0" encoding="UTF-8"?>
<gpx version="1.1" creator="Hikingbook" xmlns:xsi="http://www.w3.org/2001/XMLSchema-instance" xmlns="http://www.topografix.com/GPX/1/1" xsi:schemaLocation="http://www.topografix.com/GPX/1/1 https://www.topografix.com/GPX/1/1/gpx.xsd https://hikingbook.net/xmlschemas/1/5 https:/hikingbook.net/xmlschemas/1/5/gpxhb.xsd" xmlns:gpxhb="https://hikingbook.net/xmlschemas/1/5"><metadata><name>🪢七重天「AB」-（2026-07-04）-「溪降」［🇹🇼台中-谷關］</name><desc>W-waterfall (瀑布）&#xA;S-slideway (滑瀑）&#xA;L-left(左岸）&#xA;TL-TopLeft(高左岸）&#xA;BL-BottomLeft(低左岸）&#xA;R-right(右岸）&#xA;TR-TopRight(高右岸）&#xA;BR-BottomRight(低右岸）&#xA;C-center(中岸）&#xA;&#xA;WT-waterfalltop(瀑頂）&#xA;WB-waterfallbottom(瀑底）&#xA;M-middle(中繼點）&#xA;D-deep(深潭）&#xA;G-guide (滑降）&#xA;B-bolt(人工錨點）&#xA;N-nature(天然錨點）&#xA;PB-personal bolt (人力錨點）&#xA;DB-damaged bolt(損壞錨點）&#xA;RB-removal bolt(可拆錨點）&#xA;TR-Traverse(橫移）&#xA;&#xA;Ex: &#xA;W1(M1-L)-B2-18m，D-5m&#xA;「瀑布1（中繼點1-左岸）-bolt有兩顆-使用繩長18米，深潭5公尺長」&#xA;&#xA;成員（9）：&#xA;jimce、&#xA;琪儒、&#xA;丹丹、&#xA;輝哥、&#xA;詹俊榮、&#xA;柳哥、&#xA;鄔胖、&#xA;Ewa、&#xA;其鑫&#xA;&#xA;裝備：&#xA;&#xA;繩(6）- &#xA;欣達(8.5)*100、&#xA;欣達(7.5)*60、&#xA;欣達(8.5)*60、&#xA;Humna(8.0)*40、&#xA;欣達(8.5)*30、&#xA;欣達(8.5)*30、&#xA;&#xA;急救包*2-&#xA;&#xA;電鑽（Makita 183) *1&#xA;Bolt（M8)*10&#xA;可移除bolt(m8)*6&#xA;拋棄繩8m&#xA;&#xA;&#xA;無線電-&#xA;頻率：&#xA;   長距-144.4200&#xA;   短距-457.51250&#xA;&#xA;啞音：🈚️&#xA;&#xA;攝影器材：&#xA;1.)DJI mini 5 pro *1&#xA;&#xA;</desc><author><name>Hikingbook</name><link href="https://hikingbook.net"><text>Hikingbook</text></link></author><link href="https://hikingbook.net/hikes/%E4%B8%83%E9%87%8D%E5%A4%A9-ab-2026-07-04-%E6%BA%AA%E9%99%8D-%E5%8F%B0%E4%B8%AD-%E8%B0%B7%E9%97%9C-559ee4b2"><text>Hikingbook</text></link><time>2026-07-12T20:30:07.309333988+08:00</time><keywords>Hikingbook,EzLife,Taiwan,溪降,Canyoning ,台中,谷關</keywords><extensions><gpxhb:postscript>停車B點
上岸時候可以廁所、買飲料、沖裝備
蠻舒服的</gpxhb:postscript><gpxhb:loadweight>3.0</gpxhb:loadweight><gpxhb:fitnesslevel>1</gpxhb:fitnesslevel><gpxhb:activitytype>hiking</gpxhb:activitytype><gpxhb:trackimageurl>https://assets.hikingbook.net/users/60w3wu1it91y2jmwdxciziq/gfba28lerwkyrfob5zejnq/02f41bdf-6f42-409c-b1ef-95f3670b2cb3.jpg</gpxhb:trackimageurl></extensions></metadata><wpt lat="24.162075364595836" lon="120.95549213957497"><ele>730.1</ele><time>2026-07-03T22:50:08Z</time><name>00 Start</name><cmt>2026-07-04T06:50:08+08:00</cmt><desc>00 Start</desc><src>Hikingbook</src><link href="https://hikingbook.net/hikes/gFBA28leRWKyrFOB5ZEJNQ"><text>Hikingbook</text></link><extensions><gpxhb:weather>Clear</gpxhb:weather><gpxhb:speed>-1.000000</gpxhb:speed><gpxhb:course>-1.000000</gpxhb:course></extensions></wpt><wpt lat="24.158970565381292" lon="120.94455934022177"><ele>877.2</ele><time>2026-07-04T01:16:21Z</time><name>01 抵達溪谷</name><cmt>2026-07-04T09:16:21+08:00</cmt><desc>01 抵達溪谷</desc><src>Hikingbook</src><link href="https://hikingbook.net/hikes/gFBA28leRWKyrFOB5ZEJNQ"><text>Hikingbook</text></link><extensions><gpxhb:weather>Clear</gpxhb:weather><gpxhb:speed>-1.000000</gpxhb:speed><gpxhb:course>-1.000000</gpxhb:course></extensions></wpt><wpt lat="24.161684043363568" lon="120.9444753683484"><ele>840.1</ele><time>2026-07-04T01:57:35Z</time><name>02 W1(WT-L-B1-5m)</name><cmt>2026-07-04T09:57:35+08:00</cmt><desc>02 W1(WT-L-B1-5m)</desc><src>Hikingbook</src><link href="https://hikingbook.net/hikes/gFBA28leRWKyrFOB5ZEJNQ"><text>Hikingbook</text></link><extensions><gpxhb:weather>Clear</gpxhb:weather><gpxhb:speed>-1.000000</gpxhb:speed><gpxhb:course>-1.000000</gpxhb:course></extensions></wpt><wpt lat="24.16165708939963" lon="120.94470960915618"><ele>836</ele><time>2026-07-04T02:02:06Z</time><name>03 W2(WT-R-B1-5m)</name><cmt>2026-07-04T10:02:06+08:00</cmt><desc>03 W2(WT-R-B1-5m)</desc><src>Hikingbook</src><link href="https://hikingbook.net/hikes/gFBA28leRWKyrFOB5ZEJNQ"><text>Hikingbook</text></link><extensions><gpxhb:weather>Clear</gpxhb:weather><gpxhb:speed>-1.000000</gpxhb:speed><gpxhb:course>-1.000000</gpxhb:course></extensions></wpt><wpt lat="24.161764941633756" lon="120.94496279659664"><ele>832.5</ele><time>2026-07-04T02:23:41Z</time><name>04 W3(WT-R-B1-7m)</name><cmt>2026-07-04T10:23:41+08:00</cmt><desc>04 W3(WT-R-B1-7m)</desc><src>Hikingbook</src><link href="https://hikingbook.net/hikes/gFBA28leRWKyrFOB5ZEJNQ"><text>Hikingbook</text></link><extensions><gpxhb:weather>Clear</gpxhb:weather><gpxhb:speed>-1.000000</gpxhb:speed><gpxhb:course>-1.000000</gpxhb:course></extensions></wpt><wpt lat="24.16181379511201" lon="120.94505018674793"><ele>804.8</ele><time>2026-07-04T02:30:55Z</time><name>05 W3(M1-R-B2-6m)</name><cmt>2026-07-04T10:30:55+08:00</cmt><desc>05 W3(M1-R-B2-6m)</desc><src>Hikingbook</src><link href="https://hikingbook.net/hikes/gFBA28leRWKyrFOB5ZEJNQ"><text>Hikingbook</text></link><extensions><gpxhb:weather>Clear</gpxhb:weather><gpxhb:speed>-1.000000</gpxhb:speed><gpxhb:course>-1.000000</gpxhb:course></extensions></wpt><wpt lat="24.161862732158287" lon="120.94513411479399"><ele>804.8</ele><time>2026-07-04T02:33:56Z</time><name>06 W3(M2-R-B2-40m)</name><cmt>2026-07-04T10:33:56+08:00</cmt><desc>06 W3(M2-R-B2-40m)</desc><src>Hikingbook</src><link href="https://hikingbook.net/hikes/gFBA28leRWKyrFOB5ZEJNQ"><text>Hikingbook</text></link><extensions><gpxhb:weather>Clear</gpxhb:weather><gpxhb:speed>-1.000000</gpxhb:speed><gpxhb:course>-1.000000</gpxhb:course></extensions></wpt><wpt lat="24.161965340101222" lon="120.94532797974367"><ele>754.1</ele><time>2026-07-04T03:34:54Z</time><name>07 W4(WT-R-B1-3m)</name><cmt>2026-07-04T11:34:54+08:00</cmt><desc>07 W4(WT-R-B1-3m)</desc><src>Hikingbook</src><link href="https://hikingbook.net/hikes/gFBA28leRWKyrFOB5ZEJNQ"><text>Hikingbook</text></link><extensions><gpxhb:weather>Clear</gpxhb:weather><gpxhb:speed>-1.000000</gpxhb:speed><gpxhb:course>-1.000000</gpxhb:course></extensions></wpt><wpt lat="24.162306969071313" lon="120.94544053093162"><ele>772</ele><time>2026-07-04T03:41:02Z</time><name>08 W5(WT-R-B1-15m)</name><cmt>2026-07-04T11:41:02+08:00</cmt><desc>08 W5(WT-R-B1-15m)</desc><src>Hikingbook</src><link href="https://hikingbook.net/hikes/gFBA28leRWKyrFOB5ZEJNQ"><text>Hikingbook</text></link><extensions><gpxhb:weather>Clear</gpxhb:weather><gpxhb:speed>-1.000000</gpxhb:speed><gpxhb:course>-1.000000</gpxhb:course></extensions></wpt><wpt lat="24.162830530364456" lon="120.94579342081815"><ele>696.8</ele><time>2026-07-04T03:59:46Z</time><name>09 W6(WT-R-B2-8m)</name><cmt>2026-07-04T11:59:46+08:00</cmt><desc>09 W6(WT-R-B2-8m)</desc><src>Hikingbook</src><link href="https://hikingbook.net/hikes/gFBA28leRWKyrFOB5ZEJNQ"><text>Hikingbook</text></link><extensions><gpxhb:weather>Clear</gpxhb:weather><gpxhb:speed>-1.000000</gpxhb:speed><gpxhb:course>-1.000000</gpxhb:course></extensions></wpt><wpt lat="24.162721959936345" lon="120.94583984265948"><ele>696.8</ele><time>2026-07-04T04:35:24Z</time><name>10 W6(M1-R-B2-32m)</name><cmt>2026-07-04T12:35:24+08:00</cmt><desc>10 W6(M1-R-B2-32m)</desc><src>Hikingbook</src><link href="https://hikingbook.net/hikes/gFBA28leRWKyrFOB5ZEJNQ"><text>Hikingbook</text></link><extensions><gpxhb:weather>Clear</gpxhb:weather><gpxhb:speed>-1.000000</gpxhb:speed><gpxhb:course>-1.000000</gpxhb:course></extensions></wpt><wpt lat="24.16315264906758" lon="120.94552157997244"><ele>682.5</ele><time>2026-07-04T04:44:13Z</time><name>11 W7(WT-L-B1-14m)</name><cmt>2026-07-04T12:44:13+08:00</cmt><desc>11 W7(WT-L-B1-14m)</desc><src>Hikingbook</src><link href="https://hikingbook.net/hikes/gFBA28leRWKyrFOB5ZEJNQ"><text>Hikingbook</text></link><extensions><gpxhb:weather>Clear</gpxhb:weather><gpxhb:speed>-1.000000</gpxhb:speed><gpxhb:course>-1.000000</gpxhb:course></extensions></wpt><wpt lat="24.16323796315539" lon="120.94545463088862"><ele>674.8</ele><time>2026-07-04T05:52:48Z</time><name>12 W8(WT-R-B1-10m)</name><cmt>2026-07-04T13:52:48+08:00</cmt><desc>12 W8(WT-R-B1-10m)</desc><src>Hikingbook</src><link href="https://hikingbook.net/hikes/gFBA28leRWKyrFOB5ZEJNQ"><text>Hikingbook</text></link><extensions><gpxhb:weather>Clear</gpxhb:weather><gpxhb:speed>-1.000000</gpxhb:speed><gpxhb:course>-1.000000</gpxhb:course></extensions></wpt><wpt lat="24.164885861558997" lon="120.94496550198829"><ele>641.7</ele><time>2026-07-04T06:10:59Z</time><name>13 W9(WT-L-B1-3m)</name><cmt>2026-07-04T14:10:59+08:00</cmt><desc>13 W9(WT-L-B1-3m)</desc><src>Hikingbook</src><link href="https://hikingbook.net/hikes/gFBA28leRWKyrFOB5ZEJNQ"><text>Hikingbook</text></link><extensions><gpxhb:weather>Clear</gpxhb:weather><gpxhb:speed>-1.000000</gpxhb:speed><gpxhb:course>-1.000000</gpxhb:course></extensions></wpt><wpt lat="24.164842070456075" lon="120.94491514187074"><ele>653</ele><time>2026-07-04T06:12:32Z</time><name>14 W9(M1-L-B1-12m)</name><cmt>2026-07-04T14:12:32+08:00</cmt><desc>14 W9(M1-L-B1-12m)</desc><src>Hikingbook</src><link href="https://hikingbook.net/hikes/gFBA28leRWKyrFOB5ZEJNQ"><text>Hikingbook</text></link><extensions><gpxhb:weather>Clear</gpxhb:weather><gpxhb:speed>-1.000000</gpxhb:speed><gpxhb:course>-1.000000</gpxhb:course></extensions></wpt><wpt lat="24.165055349268084" lon="120.94510010958128"><ele>623.2</ele><time>2026-07-04T06:18:23Z</time><name>15 W10(WT-R-B1-7m)</name><cmt>2026-07-04T14:18:23+08:00</cmt><desc>15 W10(WT-R-B1-7m)</desc><src>Hikingbook</src><link href="https://hikingbook.net/hikes/gFBA28leRWKyrFOB5ZEJNQ"><text>Hikingbook</text></link><extensions><gpxhb:weather>Clear</gpxhb:weather><gpxhb:speed>-1.000000</gpxhb:speed><gpxhb:course>-1.000000</gpxhb:course></extensions></wpt><wpt lat="24.165311528636067" lon="120.94512708247724"><ele>604.7</ele><time>2026-07-04T06:23:42Z</time><name>16 W11(WT-L-B2-20m)</name><cmt>2026-07-04T14:23:42+08:00</cmt><desc>16 W11(WT-L-B2-20m)</desc><src>Hikingbook</src><link href="https://hikingbook.net/hikes/gFBA28leRWKyrFOB5ZEJNQ"><text>Hikingbook</text></link><extensions><gpxhb:weather>Clear</gpxhb:weather><gpxhb:speed>-1.000000</gpxhb:speed><gpxhb:course>-1.000000</gpxhb:course></extensions></wpt><wpt lat="24.16524340981294" lon="120.94783971869242"><ele>604.7</ele><time>2026-07-04T07:01:38Z</time><name>17 上切點</name><cmt>2026-07-04T15:01:38+08:00</cmt><desc>17 上切點</desc><src>Hikingbook</src><link href="https://hikingbook.net/hikes/gFBA28leRWKyrFOB5ZEJNQ"><text>Hikingbook</text></link><extensions><gpxhb:weather>Clear</gpxhb:weather><gpxhb:speed>-1.000000</gpxhb:speed><gpxhb:course>-1.000000</gpxhb:course></extensions></wpt><wpt lat="24.1667318904889" lon="120.94744004363386"><ele>615.1</ele><time>2026-07-04T07:05:03Z</time><name>18 End</name><cmt>2026-07-04T15:05:03+08:00</cmt><desc>18 End</desc><src>Hikingbook</src><link href="https://hikingbook.net/hikes/gFBA28leRWKyrFOB5ZEJNQ"><text>Hikingbook</text></link><extensions><gpxhb:weather>Clear</gpxhb:weather><gpxhb:speed>-1.000000</gpxhb:speed><gpxhb:course>-1.000000</gpxhb:course></extensions></wpt><trk><name>🪢七重天「AB」-（2026-07-04）-「溪降」［🇹🇼台中-谷關］</name><cmt>W-waterfall (瀑布）&#xA;S-slideway (滑瀑）&#xA;L-left(左岸）&#xA;TL-TopLeft(高左岸）&#xA;BL-BottomLeft(低左岸）&#xA;R-right(右岸）&#xA;TR-TopRight(高右岸）&#xA;BR-BottomRight(低右岸）&#xA;C-center(中岸）&#xA;&#xA;WT-waterfalltop(瀑頂）&#xA;WB-waterfallbottom(瀑底）&#xA;M-middle(中繼點）&#xA;D-deep(深潭）&#xA;G-guide (滑降）&#xA;B-bolt(人工錨點）&#xA;N-nature(天然錨點）&#xA;PB-personal bolt (人力錨點）&#xA;DB-damaged bolt(損壞錨點）&#xA;RB-removal bolt(可拆錨點）&#xA;TR-Traverse(橫移）&#xA;&#xA;Ex: &#xA;W1(M1-L)-B2-18m，D-5m&#xA;「瀑布1（中繼點1-左岸）-bolt有兩顆-使用繩長18米，深潭5公尺長」&#xA;&#xA;成員（9）：&#xA;jimce、&#xA;琪儒、&#xA;丹丹、&#xA;輝哥、&#xA;詹俊榮、&#xA;柳哥、&#xA;鄔胖、&#xA;Ewa、&#xA;其鑫&#xA;&#xA;裝備：&#xA;&#xA;繩(6）- &#xA;欣達(8.5)*100、&#xA;欣達(7.5)*60、&#xA;欣達(8.5)*60、&#xA;Humna(8.0)*40、&#xA;欣達(8.5)*30、&#xA;欣達(8.5)*30、&#xA;&#xA;急救包*2-&#xA;&#xA;電鑽（Makita 183) *1&#xA;Bolt（M8)*10&#xA;可移除bolt(m8)*6&#xA;拋棄繩8m&#xA;&#xA;&#xA;無線電-&#xA;頻率：&#xA;   長距-144.4200&#xA;   短距-457.51250&#xA;&#xA;啞音：🈚️&#xA;&#xA;攝影器材：&#xA;1.)DJI mini 5 pro *1&#xA;&#xA;</cmt><desc>W-waterfall (瀑布）&#xA;S-slideway (滑瀑）&#xA;L-left(左岸）&#xA;TL-TopLeft(高左岸）&#xA;BL-BottomLeft(低左岸）&#xA;R-right(右岸）&#xA;TR-TopRight(高右岸）&#xA;BR-BottomRight(低右岸）&#xA;C-center(中岸）&#xA;&#xA;WT-waterfalltop(瀑頂）&#xA;WB-waterfallbottom(瀑底）&#xA;M-middle(中繼點）&#xA;D-deep(深潭）&#xA;G-guide (滑降）&#xA;B-bolt(人工錨點）&#xA;N-nature(天然錨點）&#xA;PB-personal bolt (人力錨點）&#xA;DB-damaged bolt(損壞錨點）&#xA;RB-removal bolt(可拆錨點）&#xA;TR-Traverse(橫移）&#xA;&#xA;Ex: &#xA;W1(M1-L)-B2-18m，D-5m&#xA;「瀑布1（中繼點1-左岸）-bolt有兩顆-使用繩長18米，深潭5公尺長」&#xA;&#xA;成員（9）：&#xA;jimce、&#xA;琪儒、&#xA;丹丹、&#xA;輝哥、&#xA;詹俊榮、&#xA;柳哥、&#xA;鄔胖、&#xA;Ewa、&#xA;其鑫&#xA;&#xA;裝備：&#xA;&#xA;繩(6）- &#xA;欣達(8.5)*100、&#xA;欣達(7.5)*60、&#xA;欣達(8.5)*60、&#xA;Humna(8.0)*40、&#xA;欣達(8.5)*30、&#xA;欣達(8.5)*30、&#xA;&#xA;急救包*2-&#xA;&#xA;電鑽（Makita 183) *1&#xA;Bolt（M8)*10&#xA;可移除bolt(m8)*6&#xA;拋棄繩8m&#xA;&#xA;&#xA;無線電-&#xA;頻率：&#xA;   長距-144.4200&#xA;   短距-457.51250&#xA;&#xA;啞音：🈚️&#xA;&#xA;攝影器材：&#xA;1.)DJI mini 5 pro *1&#xA;&#xA;</desc><src>Hikingbook</src><link href="https://hikingbook.net/hikes/%E4%B8%83%E9%87%8D%E5%A4%A9-ab-2026-07-04-%E6%BA%AA%E9%99%8D-%E5%8F%B0%E4%B8%AD-%E8%B0%B7%E9%97%9C-559ee4b2"><text>Hikingbook</text></link><trkseg><trkpt lat="24.162078310050003" lon="120.9554928160488"><ele>730.1</ele><time>2026-07-03T22:50:09Z</time><src>Hikingbook</src><extensions><gpxhb:speed>-1.000000</gpxhb:speed><gpxhb:course>-1.000000</gpxhb:course></extensions></trkpt><trkpt lat="24.16221542678819" lon="120.95507452625587"><ele>745.4</ele><time>2026-07-03T22:52:25Z</time><src>Hikingbook</src><extensions><gpxhb:speed>-1.000000</gpxhb:speed><gpxhb:course>-1.000000</gpxhb:course></extensions></trkpt><trkpt lat="24.162445376235876" lon="120.95493880278711"><ele>745.4</ele><time>2026-07-03T22:53:39Z</time><src>Hikingbook</src><extensions><gpxhb:speed>-1.000000</gpxhb:speed><gpxhb:course>-1.000000</gpxhb:course></extensions></trkpt><trkpt lat="24.16195527360183" lon="120.95478265793487"><ele>761.5</ele><time>2026-07-03T22:56:11Z</time><src>Hikingbook</src><extensions><gpxhb:speed>-1.000000</gpxhb:speed><gpxhb:course>-1.000000</gpxhb:course></extensions></trkpt><trkpt lat="24.161401868448525" lon="120.95472158897824"><ele>777.5</ele><time>2026-07-03T23:01:09Z</time><src>Hikingbook</src><extensions><gpxhb:speed>-1.000000</gpxhb:speed><gpxhb:course>-1.000000</gpxhb:course></extensions></trkpt><trkpt lat="24.161349425173064" lon="120.95451173517137"><ele>797.2</ele><time>2026-07-03T23:03:40Z</time><src>Hikingbook</src><extensions><gpxhb:speed>-1.000000</gpxhb:speed><gpxhb:course>-1.000000</gpxhb:course></extensions></trkpt><trkpt lat="24.161681619562085" lon="120.95385999058176"><ele>827.9</ele><time>2026-07-03T23:04:50Z</time><src>Hikingbook</src><extensions><gpxhb:speed>-1.000000</gpxhb:speed><gpxhb:course>-1.000000</gpxhb:course></extensions></trkpt><trkpt lat="24.161886915164814" lon="120.95408560948471"><ele>819.4</ele><time>2026-07-03T23:05:12Z</time><src>Hikingbook</src><extensions><gpxhb:speed>-1.000000</gpxhb:speed><gpxhb:course>-1.000000</gpxhb:course></extensions></trkpt><trkpt lat="24.162067457506637" lon="120.95371874402838"><ele>807.1</ele><time>2026-07-03T23:05:55Z</time><src>Hikingbook</src><extensions><gpxhb:speed>-1.000000</gpxhb:speed><gpxhb:course>-1.000000</gpxhb:course></extensions></trkpt><trkpt lat="24.162041302757142" lon="120.95361855684855"><ele>803</ele><time>2026-07-03T23:06:15Z</time><src>Hikingbook</src><extensions><gpxhb:speed>-1.000000</gpxhb:speed><gpxhb:course>-1.000000</gpxhb:course></extensions></trkpt><trkpt lat="24.161730834336176" lon="120.95357651038758"><ele>819.8</ele><time>2026-07-03T23:08:08Z</time><src>Hikingbook</src><extensions><gpxhb:speed>-1.000000</gpxhb:speed><gpxhb:course>-1.000000</gpxhb:course></extensions></trkpt><trkpt lat="24.1614436067698" lon="120.95366275070654"><ele>835</ele><time>2026-07-03T23:09:51Z</time><src>Hikingbook</src><extensions><gpxhb:speed>-1.000000</gpxhb:speed><gpxhb:course>-1.000000</gpxhb:course></extensions></trkpt><trkpt lat="24.161409897312257" lon="120.95360239651411"><ele>835</ele><time>2026-07-03T23:09:51Z</time><src>Hikingbook</src><extensions><gpxhb:speed>-1.000000</gpxhb:speed><gpxhb:course>-1.000000</gpxhb:course></extensions></trkpt><trkpt lat="24.16151559408283" lon="120.95336157665588"><ele>829.6</ele><time>2026-07-03T23:10:43Z</time><src>Hikingbook</src><extensions><gpxhb:speed>-1.000000</gpxhb:speed><gpxhb:course>-1.000000</gpxhb:course></extensions></trkpt><trkpt lat="24.161461693279445" lon="120.95334671934312"><ele>830.7</ele><time>2026-07-03T23:10:53Z</time><src>Hikingbook</src><extensions><gpxhb:speed>-1.000000</gpxhb:speed><gpxhb:course>-1.000000</gpxhb:course></extensions></trkpt><trkpt lat="24.161389052340258" lon="120.95343002924645"><ele>833.8</ele><time>2026-07-03T23:11:21Z</time><src>Hikingbook</src><extensions><gpxhb:speed>-1.000000</gpxhb:speed><gpxhb:course>-1.000000</gpxhb:course></extensions></trkpt><trkpt lat="24.16139226451039" lon="120.95332925056108"><ele>835.4</ele><time>2026-07-03T23:11:36Z</time><src>Hikingbook</src><extensions><gpxhb:speed>-1.000000</gpxhb:speed><gpxhb:course>-1.000000</gpxhb:course></extensions></trkpt><trkpt lat="24.161263213176287" lon="120.9532570494016"><ele>839.9</ele><time>2026-07-03T23:12:16Z</time><src>Hikingbook</src><extensions><gpxhb:speed>-1.000000</gpxhb:speed><gpxhb:course>-1.000000</gpxhb:course></extensions></trkpt><trkpt lat="24.16121002552657" lon="120.95340432267174"><ele>843.6</ele><time>2026-07-03T23:13:02Z</time><src>Hikingbook</src><extensions><gpxhb:speed>-1.000000</gpxhb:speed><gpxhb:course>-1.000000</gpxhb:course></extensions></trkpt><trkpt lat="24.161098547735513" lon="120.95326526968472"><ele>853.1</ele><time>2026-07-03T23:15:00Z</time><src>Hikingbook</src><extensions><gpxhb:speed>-1.000000</gpxhb:speed><gpxhb:course>-1.000000</gpxhb:course></extensions></trkpt><trkpt lat="24.160665793487325" lon="120.95352762790019"><ele>873.8</ele><time>2026-07-03T23:19:28Z</time><src>Hikingbook</src><extensions><gpxhb:speed>-1.000000</gpxhb:speed><gpxhb:course>-1.000000</gpxhb:course></extensions></trkpt><trkpt lat="24.160498398453438" lon="120.95266091168119"><ele>914</ele><time>2026-07-03T23:22:25Z</time><src>Hikingbook</src><extensions><gpxhb:speed>-1.000000</gpxhb:speed><gpxhb:course>-1.000000</gpxhb:course></extensions></trkpt><trkpt lat="24.160760826869367" lon="120.95270182778592"><ele>878</ele><time>2026-07-03T23:23:46Z</time><src>Hikingbook</src><extensions><gpxhb:speed>-1.000000</gpxhb:speed><gpxhb:course>-1.000000</gpxhb:course></extensions></trkpt><trkpt lat="24.160522857780293" lon="120.95205223728699"><ele>936.8</ele><time>2026-07-03T23:35:51Z</time><src>Hikingbook</src><extensions><gpxhb:speed>-1.000000</gpxhb:speed><gpxhb:course>-1.000000</gpxhb:course></extensions></trkpt><trkpt lat="24.16031950635211" lon="120.95187741386633"><ele>941.5</ele><time>2026-07-03T23:36:34Z</time><src>Hikingbook</src><extensions><gpxhb:speed>-1.000000</gpxhb:speed><gpxhb:course>-1.000000</gpxhb:course></extensions></trkpt><trkpt lat="24.160424493846293" lon="120.95167100649306"><ele>950.2</ele><time>2026-07-03T23:37:32Z</time><src>Hikingbook</src><extensions><gpxhb:speed>-1.000000</gpxhb:speed><gpxhb:course>-1.000000</gpxhb:course></extensions></trkpt><trkpt lat="24.160634410019014" lon="120.95160331182011"><ele>936.9</ele><time>2026-07-03T23:38:07Z</time><src>Hikingbook</src><extensions><gpxhb:speed>-1.000000</gpxhb:speed><gpxhb:course>-1.000000</gpxhb:course></extensions></trkpt><trkpt lat="24.160489189935788" lon="120.95104246405124"><ele>975.4</ele><time>2026-07-03T23:41:52Z</time><src>Hikingbook</src><extensions><gpxhb:speed>-1.000000</gpxhb:speed><gpxhb:course>-1.000000</gpxhb:course></extensions></trkpt><trkpt lat="24.160532239741524" lon="120.95067172346243"><ele>981</ele><time>2026-07-03T23:44:31Z</time><src>Hikingbook</src><extensions><gpxhb:speed>-1.000000</gpxhb:speed><gpxhb:course>-1.000000</gpxhb:course></extensions></trkpt><trkpt lat="24.160434066323013" lon="120.95021980842577"><ele>996.2</ele><time>2026-07-03T23:58:57Z</time><src>Hikingbook</src><extensions><gpxhb:speed>-1.000000</gpxhb:speed><gpxhb:course>-1.000000</gpxhb:course></extensions></trkpt><trkpt lat="24.160270409400404" lon="120.95004468408028"><ele>1016.5</ele><time>2026-07-04T00:01:59Z</time><src>Hikingbook</src><extensions><gpxhb:speed>-1.000000</gpxhb:speed><gpxhb:course>-1.000000</gpxhb:course></extensions></trkpt><trkpt lat="24.16024185334549" lon="120.94970752101037"><ele>1019.9</ele><time>2026-07-04T00:03:23Z</time><src>Hikingbook</src><extensions><gpxhb:speed>-1.000000</gpxhb:speed><gpxhb:course>-1.000000</gpxhb:course></extensions></trkpt><trkpt lat="24.15999003599945" lon="120.94944912248941"><ele>1032.3</ele><time>2026-07-04T00:06:15Z</time><src>Hikingbook</src><extensions><gpxhb:speed>-1.000000</gpxhb:speed><gpxhb:course>-1.000000</gpxhb:course></extensions></trkpt><trkpt lat="24.159779741711272" lon="120.94942206681307"><ele>1065.4</ele><time>2026-07-04T00:07:47Z</time><src>Hikingbook</src><extensions><gpxhb:speed>-1.000000</gpxhb:speed><gpxhb:course>-1.000000</gpxhb:course></extensions></trkpt><trkpt lat="24.159670158202978" lon="120.94925974089321"><ele>1082.8</ele><time>2026-07-04T00:09:20Z</time><src>Hikingbook</src><extensions><gpxhb:speed>-1.000000</gpxhb:speed><gpxhb:course>-1.000000</gpxhb:course></extensions></trkpt><trkpt lat="24.15939631425245" lon="120.94913221739596"><ele>1087</ele><time>2026-07-04T00:12:50Z</time><src>Hikingbook</src><extensions><gpxhb:speed>-1.000000</gpxhb:speed><gpxhb:course>-1.000000</gpxhb:course></extensions></trkpt><trkpt lat="24.159286023050747" lon="120.9488928707464"><ele>1102.1</ele><time>2026-07-04T00:14:26Z</time><src>Hikingbook</src><extensions><gpxhb:speed>-1.000000</gpxhb:speed><gpxhb:course>-1.000000</gpxhb:course></extensions></trkpt><trkpt lat="24.159298404435606" lon="120.94811937125284"><ele>1111.3</ele><time>2026-07-04T00:30:42Z</time><src>Hikingbook</src><extensions><gpxhb:speed>-1.000000</gpxhb:speed><gpxhb:course>-1.000000</gpxhb:course></extensions></trkpt><trkpt lat="24.15953734323142" lon="120.94781797802463"><ele>1090.3</ele><time>2026-07-04T00:35:43Z</time><src>Hikingbook</src><extensions><gpxhb:speed>-1.000000</gpxhb:speed><gpxhb:course>-1.000000</gpxhb:course></extensions></trkpt><trkpt lat="24.159400914077068" lon="120.9476176646374"><ele>1072.6</ele><time>2026-07-04T00:37:15Z</time><src>Hikingbook</src><extensions><gpxhb:speed>-1.000000</gpxhb:speed><gpxhb:course>-1.000000</gpxhb:course></extensions></trkpt><trkpt lat="24.159278351060422" lon="120.94635411959638"><ele>989.3</ele><time>2026-07-04T00:51:42Z</time><src>Hikingbook</src><extensions><gpxhb:speed>-1.000000</gpxhb:speed><gpxhb:course>-1.000000</gpxhb:course></extensions></trkpt><trkpt lat="24.15911017754412" lon="120.94573729707018"><ele>935.2</ele><time>2026-07-04T00:57:50Z</time><src>Hikingbook</src><extensions><gpxhb:speed>-1.000000</gpxhb:speed><gpxhb:course>-1.000000</gpxhb:course></extensions></trkpt><trkpt lat="24.158998008460806" lon="120.94555482078957"><ele>924.6</ele><time>2026-07-04T00:59:06Z</time><src>Hikingbook</src><extensions><gpxhb:speed>-1.000000</gpxhb:speed><gpxhb:course>-1.000000</gpxhb:course></extensions></trkpt><trkpt lat="24.15896922477819" lon="120.94457447084312"><ele>877.2</ele><time>2026-07-04T01:32:32Z</time><src>Hikingbook</src><extensions><gpxhb:speed>-1.000000</gpxhb:speed><gpxhb:course>-1.000000</gpxhb:course></extensions></trkpt><trkpt lat="24.160098049134753" lon="120.94410893001731"><ele>859.2</ele><time>2026-07-04T01:39:52Z</time><src>Hikingbook</src><extensions><gpxhb:speed>-1.000000</gpxhb:speed><gpxhb:course>-1.000000</gpxhb:course></extensions></trkpt><trkpt lat="24.160557602525966" lon="120.94414971085044"><ele>842.7</ele><time>2026-07-04T01:41:53Z</time><src>Hikingbook</src><extensions><gpxhb:speed>-1.000000</gpxhb:speed><gpxhb:course>-1.000000</gpxhb:course></extensions></trkpt><trkpt lat="24.160713256030746" lon="120.94402918423705"><ele>835.9</ele><time>2026-07-04T01:42:34Z</time><src>Hikingbook</src><extensions><gpxhb:speed>-1.000000</gpxhb:speed><gpxhb:course>-1.000000</gpxhb:course></extensions></trkpt><trkpt lat="24.160987276735074" lon="120.94400128662608"><ele>831.8</ele><time>2026-07-04T01:43:50Z</time><src>Hikingbook</src><extensions><gpxhb:speed>-1.000000</gpxhb:speed><gpxhb:course>-1.000000</gpxhb:course></extensions></trkpt><trkpt lat="24.161144288320454" lon="120.94388611282213"><ele>845.3</ele><time>2026-07-04T01:44:34Z</time><src>Hikingbook</src><extensions><gpxhb:speed>-1.000000</gpxhb:speed><gpxhb:course>-1.000000</gpxhb:course></extensions></trkpt><trkpt lat="24.161441911542145" lon="120.94389844888724"><ele>856.8</ele><time>2026-07-04T01:45:44Z</time><src>Hikingbook</src><extensions><gpxhb:speed>-1.000000</gpxhb:speed><gpxhb:course>-1.000000</gpxhb:course></extensions></trkpt><trkpt lat="24.161723415473663" lon="120.94441949696012"><ele>840.1</ele><time>2026-07-04T01:55:58Z</time><src>Hikingbook</src><extensions><gpxhb:speed>-1.000000</gpxhb:speed><gpxhb:course>-1.000000</gpxhb:course></extensions></trkpt><trkpt lat="24.16165477885807" lon="120.94470826093334"><ele>836</ele><time>2026-07-04T02:02:11Z</time><src>Hikingbook</src><extensions><gpxhb:speed>-1.000000</gpxhb:speed><gpxhb:course>-1.000000</gpxhb:course></extensions></trkpt><trkpt lat="24.161728886082994" lon="120.94493924897697"><ele>832.5</ele><time>2026-07-04T02:21:40Z</time><src>Hikingbook</src><extensions><gpxhb:speed>-1.000000</gpxhb:speed><gpxhb:course>-1.000000</gpxhb:course></extensions></trkpt><trkpt lat="24.16196188713126" lon="120.94531807070038"><ele>754.1</ele><time>2026-07-04T03:38:20Z</time><src>Hikingbook</src><extensions><gpxhb:speed>-1.000000</gpxhb:speed><gpxhb:course>-1.000000</gpxhb:course></extensions></trkpt><trkpt lat="24.16226141882458" lon="120.9452384486197"><ele>779.5</ele><time>2026-07-04T03:38:51Z</time><src>Hikingbook</src><extensions><gpxhb:speed>-1.000000</gpxhb:speed><gpxhb:course>-1.000000</gpxhb:course></extensions></trkpt><trkpt lat="24.16232381767497" lon="120.94547823623328"><ele>772</ele><time>2026-07-04T03:51:16Z</time><src>Hikingbook</src><extensions><gpxhb:speed>-1.000000</gpxhb:speed><gpxhb:course>-1.000000</gpxhb:course></extensions></trkpt><trkpt lat="24.162498970712303" lon="120.9457474208358"><ele>701.9</ele><time>2026-07-04T03:56:21Z</time><src>Hikingbook</src><extensions><gpxhb:speed>-1.000000</gpxhb:speed><gpxhb:course>-1.000000</gpxhb:course></extensions></trkpt><trkpt lat="24.162769978293323" lon="120.9458280016816"><ele>696.8</ele><time>2026-07-04T03:57:14Z</time><src>Hikingbook</src><extensions><gpxhb:speed>-1.000000</gpxhb:speed><gpxhb:course>-1.000000</gpxhb:course></extensions></trkpt><trkpt lat="24.163264233077996" lon="120.94542733248662"><ele>674.8</ele><time>2026-07-04T06:01:57Z</time><src>Hikingbook</src><extensions><gpxhb:speed>-1.000000</gpxhb:speed><gpxhb:course>-1.000000</gpxhb:course></extensions></trkpt><trkpt lat="24.16350709764718" lon="120.9454623099529"><ele>666.9</ele><time>2026-07-04T06:02:22Z</time><src>Hikingbook</src><extensions><gpxhb:speed>-1.000000</gpxhb:speed><gpxhb:course>-1.000000</gpxhb:course></extensions></trkpt><trkpt lat="24.164307377715758" lon="120.94514259855696"><ele>646.6</ele><time>2026-07-04T06:08:09Z</time><src>Hikingbook</src><extensions><gpxhb:speed>-1.000000</gpxhb:speed><gpxhb:course>-1.000000</gpxhb:course></extensions></trkpt><trkpt lat="24.164775436593253" lon="120.94488584498518"><ele>653</ele><time>2026-07-04T06:10:36Z</time><src>Hikingbook</src><extensions><gpxhb:speed>-1.000000</gpxhb:speed><gpxhb:course>-1.000000</gpxhb:course></extensions></trkpt><trkpt lat="24.165065743101056" lon="120.94513778890439"><ele>623.2</ele><time>2026-07-04T06:18:20Z</time><src>Hikingbook</src><extensions><gpxhb:speed>-1.000000</gpxhb:speed><gpxhb:course>-1.000000</gpxhb:course></extensions></trkpt><trkpt lat="24.16539800574666" lon="120.94507408119121"><ele>600.3</ele><time>2026-07-04T06:29:59Z</time><src>Hikingbook</src><extensions><gpxhb:speed>-1.000000</gpxhb:speed><gpxhb:course>-1.000000</gpxhb:course></extensions></trkpt><trkpt lat="24.165398954919567" lon="120.94660205274032"><ele>599.4</ele><time>2026-07-04T06:54:21Z</time><src>Hikingbook</src><extensions><gpxhb:speed>-1.000000</gpxhb:speed><gpxhb:course>-1.000000</gpxhb:course></extensions></trkpt><trkpt lat="24.165511154120185" lon="120.94781174676325"><ele>601.1</ele><time>2026-07-04T06:57:28Z</time><src>Hikingbook</src><extensions><gpxhb:speed>-1.000000</gpxhb:speed><gpxhb:course>-1.000000</gpxhb:course></extensions></trkpt><trkpt lat="24.165207756849007" lon="120.94783745210445"><ele>606.1</ele><time>2026-07-04T06:58:25Z</time><src>Hikingbook</src><extensions><gpxhb:speed>-1.000000</gpxhb:speed><gpxhb:course>-1.000000</gpxhb:course></extensions></trkpt><trkpt lat="24.16528770047465" lon="120.9479047582747"><ele>606.4</ele><time>2026-07-04T06:58:39Z</time><src>Hikingbook</src><extensions><gpxhb:speed>-1.000000</gpxhb:speed><gpxhb:course>-1.000000</gpxhb:course></extensions></trkpt><trkpt lat="24.166764105317913" lon="120.9478703394046"><ele>614.8</ele><time>2026-07-04T07:04:32Z</time><src>Hikingbook</src><extensions><gpxhb:speed>-1.000000</gpxhb:speed><gpxhb:course>-1.000000</gpxhb:course></extensions></trkpt><trkpt lat="24.166753755556662" lon="120.94747112355478"><ele>615.1</ele><time>2026-07-04T07:04:58Z</time><src>Hikingbook</src><extensions><gpxhb:speed>-1.000000</gpxhb:speed><gpxhb:course>-1.000000</gpxhb:course></extensions></trkpt></trkseg></trk></gpx>