<?xml version="1.0" encoding="UTF-8"?>
<gpx version="1.1" creator="Hikingbook" xmlns:xsi="http://www.w3.org/2001/XMLSchema-instance" xmlns="http://www.topografix.com/GPX/1/1" xsi:schemaLocation="http://www.topografix.com/GPX/1/1 https://www.topografix.com/GPX/1/1/gpx.xsd https://hikingbook.net/xmlschemas/1/5 https:/hikingbook.net/xmlschemas/1/5/gpxhb.xsd" xmlns:gpxhb="https://hikingbook.net/xmlschemas/1/5"><metadata><name>🪢💦上坪溪(2024-07-13）-「溪降」［🇹🇼新竹-五峰］</name><desc>使用 Hikingbook App 記錄，介面最好用，功能最完整，分享最方便！現已支援 iOS 與 Android 雙平臺。</desc><author><name>Hikingbook</name><link href="https://hikingbook.net"><text>Hikingbook</text></link></author><link href="https://hikingbook.net/hikes/2024-7-13-%E6%99%A8%E9%96%93%E9%87%8D%E8%A3%9D%E7%99%BB%E5%B1%B1-0d36a661"><text>Hikingbook</text></link><time>2026-07-14T23:05:22.405039524+08:00</time><keywords>Hikingbook,EzLife,Canyonning,Taiwan,新竹,五峰,溪降</keywords><extensions><gpxhb:loadweight>10.0</gpxhb:loadweight><gpxhb:fitnesslevel>1</gpxhb:fitnesslevel><gpxhb:activitytype>others</gpxhb:activitytype><gpxhb:trackimageurl>https://assets.hikingbook.net/users/60w3wu1it91y2jmwdxciziq/j4zlk90sysy90uyn992jfn91lw/9518a1ef-63ed-4413-a190-2c6b6b350ce8.jpg</gpxhb:trackimageurl><gpxhb:device>Apple iPhone 13 Pro</gpxhb:device><gpxhb:source>Hikingbook</gpxhb:source></extensions></metadata><wpt lat="24.60144878766664" lon="121.09375157721841"><ele>994</ele><time>2024-07-13T01:21:49Z</time><name>00 A點-停車點</name><cmt>2024-07-13T09:21:49+08:00</cmt><desc>00 A點-停車點</desc><src>Hikingbook</src><link href="https://hikingbook.net/hikes/J4zLK90sySy90uYN992jfn91lw"><text>Hikingbook</text></link><extensions><gpxhb:weather>Clear</gpxhb:weather><gpxhb:speed>0.172421</gpxhb:speed><gpxhb:course>-1.000000</gpxhb:course></extensions></wpt><wpt lat="24.601851801144196" lon="121.09478480079557"><ele>977</ele><time>2024-07-13T01:24:57Z</time><name>01 路口-下切點</name><cmt>2024-07-13T09:24:57+08:00</cmt><desc>01 路口-下切點</desc><src>Hikingbook</src><link href="https://hikingbook.net/hikes/J4zLK90sySy90uYN992jfn91lw"><text>Hikingbook</text></link><extensions><gpxhb:weather>Clear</gpxhb:weather><gpxhb:speed>0.969576</gpxhb:speed><gpxhb:course>332.955328</gpxhb:course></extensions></wpt><wpt lat="24.601005732727902" lon="121.09569455105631"><ele>953</ele><time>2024-07-13T01:35:01Z</time><name>02 路徑-1</name><cmt>2024-07-13T09:35:01+08:00</cmt><desc>02 路徑-1</desc><src>Hikingbook</src><link href="https://hikingbook.net/hikes/J4zLK90sySy90uYN992jfn91lw"><text>Hikingbook</text></link><extensions><gpxhb:weather>Clear</gpxhb:weather><gpxhb:speed>0.339923</gpxhb:speed><gpxhb:course>251.206556</gpxhb:course></extensions></wpt><wpt lat="24.60083737441422" lon="121.09596853753833"><ele>944</ele><time>2024-07-13T01:41:52Z</time><name>03 路徑-2</name><cmt>2024-07-13T09:41:52+08:00</cmt><desc>03 路徑-2</desc><src>Hikingbook</src><link href="https://hikingbook.net/hikes/J4zLK90sySy90uYN992jfn91lw"><text>Hikingbook</text></link><extensions><gpxhb:weather>Clear</gpxhb:weather><gpxhb:speed>0.000000</gpxhb:speed><gpxhb:course>-1.000000</gpxhb:course></extensions></wpt><wpt lat="24.600456200357943" lon="121.0957080959398"><ele>940</ele><time>2024-07-13T01:44:57Z</time><name>04 路徑-3（建議直走920 等高線，不要下切比較好走）</name><cmt>2024-07-13T09:44:57+08:00</cmt><desc>04 路徑-3（建議直走920 等高線，不要下切比較好走）</desc><src>Hikingbook</src><link href="https://hikingbook.net/hikes/J4zLK90sySy90uYN992jfn91lw"><text>Hikingbook</text></link><extensions><gpxhb:weather>Clear</gpxhb:weather><gpxhb:speed>0.030859</gpxhb:speed><gpxhb:course>288.690218</gpxhb:course></extensions></wpt><wpt lat="24.600344417688472" lon="121.09584312828594"><ele>935</ele><time>2024-07-13T01:47:48Z</time><name>05 路徑-4</name><cmt>2024-07-13T09:47:48+08:00</cmt><desc>05 路徑-4</desc><src>Hikingbook</src><link href="https://hikingbook.net/hikes/J4zLK90sySy90uYN992jfn91lw"><text>Hikingbook</text></link><extensions><gpxhb:weather>Clear</gpxhb:weather><gpxhb:speed>0.104551</gpxhb:speed><gpxhb:course>90.866764</gpxhb:course></extensions></wpt><wpt lat="24.600238028436287" lon="121.09582952117434"><ele>932</ele><time>2024-07-13T01:49:11Z</time><name>06 路徑-5</name><cmt>2024-07-13T09:49:11+08:00</cmt><desc>06 路徑-5</desc><src>Hikingbook</src><link href="https://hikingbook.net/hikes/J4zLK90sySy90uYN992jfn91lw"><text>Hikingbook</text></link><extensions><gpxhb:weather>Clear</gpxhb:weather><gpxhb:speed>0.000000</gpxhb:speed><gpxhb:course>111.945842</gpxhb:course></extensions></wpt><wpt lat="24.600164379849456" lon="121.09581617641676"><ele>926</ele><time>2024-07-13T01:51:36Z</time><name>07 路徑-6</name><cmt>2024-07-13T09:51:36+08:00</cmt><desc>07 路徑-6</desc><src>Hikingbook</src><link href="https://hikingbook.net/hikes/J4zLK90sySy90uYN992jfn91lw"><text>Hikingbook</text></link><extensions><gpxhb:weather>Clear</gpxhb:weather><gpxhb:speed>0.000000</gpxhb:speed><gpxhb:course>24.998661</gpxhb:course></extensions></wpt><wpt lat="24.60008484138782" lon="121.09582859377423"><ele>921</ele><time>2024-07-13T01:53:58Z</time><name>08 路徑-7</name><cmt>2024-07-13T09:53:58+08:00</cmt><desc>08 路徑-7</desc><src>Hikingbook</src><link href="https://hikingbook.net/hikes/J4zLK90sySy90uYN992jfn91lw"><text>Hikingbook</text></link><extensions><gpxhb:weather>Clear</gpxhb:weather><gpxhb:speed>0.000000</gpxhb:speed><gpxhb:course>281.701642</gpxhb:course></extensions></wpt><wpt lat="24.60003325378703" lon="121.09586787845976"><ele>918</ele><time>2024-07-13T02:05:10Z</time><name>09 路徑-8</name><cmt>2024-07-13T10:05:10+08:00</cmt><desc>09 路徑-8</desc><src>Hikingbook</src><link href="https://hikingbook.net/hikes/J4zLK90sySy90uYN992jfn91lw"><text>Hikingbook</text></link><extensions><gpxhb:weather>Clear</gpxhb:weather><gpxhb:speed>0.000000</gpxhb:speed><gpxhb:course>-1.000000</gpxhb:course></extensions></wpt><wpt lat="24.599780450409455" lon="121.09583928344583"><ele>896</ele><time>2024-07-13T02:28:03Z</time><name>10 第1瀑-15m-瀑頂</name><cmt>2024-07-13T10:28:03+08:00</cmt><desc>10 第1瀑-15m-瀑頂</desc><src>Hikingbook</src><link href="https://hikingbook.net/hikes/J4zLK90sySy90uYN992jfn91lw"><text>Hikingbook</text></link><extensions><gpxhb:weather>Clear</gpxhb:weather><gpxhb:speed>0.000000</gpxhb:speed><gpxhb:course>143.431110</gpxhb:course></extensions></wpt><wpt lat="24.59978899455126" lon="121.09590891759944"><ele>989</ele><time>2024-07-13T02:34:48Z</time><name>11 第1瀑-15m-瀑底</name><cmt>2024-07-13T10:34:48+08:00</cmt><desc>11 第1瀑-15m-瀑底</desc><src>Hikingbook</src><link href="https://hikingbook.net/hikes/J4zLK90sySy90uYN992jfn91lw"><text>Hikingbook</text></link><extensions><gpxhb:weather>Clear</gpxhb:weather><gpxhb:speed>1.210000</gpxhb:speed><gpxhb:course>101.953125</gpxhb:course></extensions></wpt><wpt lat="24.599871286962866" lon="121.09633080839366"><ele>887</ele><time>2024-07-13T02:37:47Z</time><name>12 景色-1</name><cmt>2024-07-13T10:37:47+08:00</cmt><desc>12 景色-1</desc><src>Hikingbook</src><link href="https://hikingbook.net/hikes/J4zLK90sySy90uYN992jfn91lw"><text>Hikingbook</text></link><extensions><gpxhb:weather>Clear</gpxhb:weather><gpxhb:speed>0.000000</gpxhb:speed><gpxhb:course>242.552624</gpxhb:course></extensions></wpt><wpt lat="24.600106291495823" lon="121.09703410428119"><ele>869</ele><time>2024-07-13T02:42:15Z</time><name>13 第2瀑-5m-瀑頂</name><cmt>2024-07-13T10:42:15+08:00</cmt><desc>13 第2瀑-5m-瀑頂</desc><src>Hikingbook</src><link href="https://hikingbook.net/hikes/J4zLK90sySy90uYN992jfn91lw"><text>Hikingbook</text></link><extensions><gpxhb:weather>Clear</gpxhb:weather><gpxhb:speed>0.000000</gpxhb:speed><gpxhb:course>184.218750</gpxhb:course></extensions></wpt><wpt lat="24.600069453023696" lon="121.09694927942108"><ele>859</ele><time>2024-07-13T02:46:32Z</time><name>14 第2瀑-5m-瀑底</name><cmt>2024-07-13T10:46:32+08:00</cmt><desc>14 第2瀑-5m-瀑底</desc><src>Hikingbook</src><link href="https://hikingbook.net/hikes/J4zLK90sySy90uYN992jfn91lw"><text>Hikingbook</text></link><extensions><gpxhb:weather>Clear</gpxhb:weather><gpxhb:speed>0.000000</gpxhb:speed><gpxhb:course>-1.000000</gpxhb:course></extensions></wpt><wpt lat="24.600113970564145" lon="121.09699082834888"><ele>865</ele><time>2024-07-13T02:58:29Z</time><name>15 第3瀑-25m-瀑頂</name><cmt>2024-07-13T10:58:29+08:00</cmt><desc>15 第3瀑-25m-瀑頂</desc><src>Hikingbook</src><link href="https://hikingbook.net/hikes/J4zLK90sySy90uYN992jfn91lw"><text>Hikingbook</text></link><extensions><gpxhb:weather>Clear</gpxhb:weather><gpxhb:speed>0.241604</gpxhb:speed><gpxhb:course>-1.000000</gpxhb:course></extensions></wpt><wpt lat="24.60013567006644" lon="121.09698674652827"><ele>873</ele><time>2024-07-13T03:11:29Z</time><name>16 第3瀑-25m-中繼點</name><cmt>2024-07-13T11:11:29+08:00</cmt><desc>16 第3瀑-25m-中繼點</desc><src>Hikingbook</src><link href="https://hikingbook.net/hikes/J4zLK90sySy90uYN992jfn91lw"><text>Hikingbook</text></link><extensions><gpxhb:weather>Clear</gpxhb:weather><gpxhb:speed>0.000000</gpxhb:speed><gpxhb:course>-1.000000</gpxhb:course></extensions></wpt><wpt lat="24.600006965943237" lon="121.09717139985514"><ele>849</ele><time>2024-07-13T03:15:58Z</time><name>17 第3瀑-25m-瀑底</name><cmt>2024-07-13T11:15:58+08:00</cmt><desc>17 第3瀑-25m-瀑底</desc><src>Hikingbook</src><link href="https://hikingbook.net/hikes/J4zLK90sySy90uYN992jfn91lw"><text>Hikingbook</text></link><extensions><gpxhb:weather>Clear</gpxhb:weather><gpxhb:speed>0.170000</gpxhb:speed><gpxhb:course>-1.000000</gpxhb:course></extensions></wpt><wpt lat="24.600642578221937" lon="121.09822374762629"><ele>835</ele><time>2024-07-13T03:24:12Z</time><name>18 第4瀑-35m-瀑頂</name><cmt>2024-07-13T11:24:12+08:00</cmt><desc>18 第4瀑-35m-瀑頂</desc><src>Hikingbook</src><link href="https://hikingbook.net/hikes/J4zLK90sySy90uYN992jfn91lw"><text>Hikingbook</text></link><extensions><gpxhb:weather>Clear</gpxhb:weather><gpxhb:speed>0.000000</gpxhb:speed><gpxhb:course>-1.000000</gpxhb:course></extensions></wpt><wpt lat="24.600755053729202" lon="121.09817398836765"><ele>830</ele><time>2024-07-13T03:47:47Z</time><name>19 第4瀑-35m-中繼點</name><cmt>2024-07-13T11:47:47+08:00</cmt><desc>19 第4瀑-35m-中繼點</desc><src>Hikingbook</src><link href="https://hikingbook.net/hikes/J4zLK90sySy90uYN992jfn91lw"><text>Hikingbook</text></link><extensions><gpxhb:weather>Clear</gpxhb:weather><gpxhb:speed>0.000000</gpxhb:speed><gpxhb:course>-1.000000</gpxhb:course></extensions></wpt><wpt lat="24.60078627338294" lon="121.09820715163005"><ele>831</ele><time>2024-07-13T04:45:44Z</time><name>20 第4瀑-35m-瀑底</name><cmt>2024-07-13T12:45:44+08:00</cmt><desc>20 第4瀑-35m-瀑底</desc><src>Hikingbook</src><link href="https://hikingbook.net/hikes/J4zLK90sySy90uYN992jfn91lw"><text>Hikingbook</text></link><extensions><gpxhb:weather>Clear</gpxhb:weather><gpxhb:speed>0.000000</gpxhb:speed><gpxhb:course>-1.000000</gpxhb:course></extensions></wpt><wpt lat="24.601713555897202" lon="121.09975464520303"><ele>751</ele><time>2024-07-13T05:10:34Z</time><name>21 第5瀑-16m-瀑頂</name><cmt>2024-07-13T13:10:34+08:00</cmt><desc>21 第5瀑-16m-瀑頂</desc><src>Hikingbook</src><link href="https://hikingbook.net/hikes/J4zLK90sySy90uYN992jfn91lw"><text>Hikingbook</text></link><extensions><gpxhb:weather>Clear</gpxhb:weather><gpxhb:speed>0.000000</gpxhb:speed><gpxhb:course>351.104170</gpxhb:course></extensions></wpt><wpt lat="24.601865235627287" lon="121.09992235160736"><ele>748</ele><time>2024-07-13T05:14:34Z</time><name>22 第5瀑-16m-瀑底</name><cmt>2024-07-13T13:14:34+08:00</cmt><desc>22 第5瀑-16m-瀑底</desc><src>Hikingbook</src><link href="https://hikingbook.net/hikes/J4zLK90sySy90uYN992jfn91lw"><text>Hikingbook</text></link><extensions><gpxhb:weather>Clear</gpxhb:weather><gpxhb:speed>0.000000</gpxhb:speed><gpxhb:course>-1.000000</gpxhb:course></extensions></wpt><wpt lat="24.60232573188231" lon="121.10104863106166"><ele>703</ele><time>2024-07-13T05:31:34Z</time><name>23 第6瀑-25m-瀑頂</name><cmt>2024-07-13T13:31:34+08:00</cmt><desc>23 第6瀑-25m-瀑頂</desc><src>Hikingbook</src><link href="https://hikingbook.net/hikes/J4zLK90sySy90uYN992jfn91lw"><text>Hikingbook</text></link><extensions><gpxhb:weather>Clear</gpxhb:weather><gpxhb:speed>0.000000</gpxhb:speed><gpxhb:course>282.994862</gpxhb:course></extensions></wpt><wpt lat="24.602400627933836" lon="121.10113168146565"><ele>681</ele><time>2024-07-13T05:44:33Z</time><name>24 第6瀑-25m-瀑底</name><cmt>2024-07-13T13:44:33+08:00</cmt><desc>24 第6瀑-25m-瀑底</desc><src>Hikingbook</src><link href="https://hikingbook.net/hikes/J4zLK90sySy90uYN992jfn91lw"><text>Hikingbook</text></link><extensions><gpxhb:weather>Clear</gpxhb:weather><gpxhb:speed>0.000000</gpxhb:speed><gpxhb:course>-1.000000</gpxhb:course></extensions></wpt><wpt lat="24.602478904173665" lon="121.10128129543496"><ele>690</ele><time>2024-07-13T05:47:28Z</time><name>25 第7瀑-5m-瀑頂</name><cmt>2024-07-13T13:47:28+08:00</cmt><desc>25 第7瀑-5m-瀑頂</desc><src>Hikingbook</src><link href="https://hikingbook.net/hikes/J4zLK90sySy90uYN992jfn91lw"><text>Hikingbook</text></link><extensions><gpxhb:weather>Clear</gpxhb:weather><gpxhb:speed>0.000000</gpxhb:speed><gpxhb:course>-1.000000</gpxhb:course></extensions></wpt><wpt lat="24.60239911944208" lon="121.10126786529125"><ele>700</ele><time>2024-07-13T05:53:01Z</time><name>26 第7瀑-5m-瀑底</name><cmt>2024-07-13T13:53:01+08:00</cmt><desc>26 第7瀑-5m-瀑底</desc><src>Hikingbook</src><link href="https://hikingbook.net/hikes/J4zLK90sySy90uYN992jfn91lw"><text>Hikingbook</text></link><extensions><gpxhb:weather>Clear</gpxhb:weather><gpxhb:speed>0.142788</gpxhb:speed><gpxhb:course>-1.000000</gpxhb:course></extensions></wpt><wpt lat="24.60231317236072" lon="121.10132408157395"><ele>700</ele><time>2024-07-13T05:57:21Z</time><name>27 第8瀑-38m-瀑頂</name><cmt>2024-07-13T13:57:21+08:00</cmt><desc>27 第8瀑-38m-瀑頂</desc><src>Hikingbook</src><link href="https://hikingbook.net/hikes/J4zLK90sySy90uYN992jfn91lw"><text>Hikingbook</text></link><extensions><gpxhb:weather>Clear</gpxhb:weather><gpxhb:speed>0.000000</gpxhb:speed><gpxhb:course>-1.000000</gpxhb:course></extensions></wpt><wpt lat="24.60244454911407" lon="121.10125003393841"><ele>678</ele><time>2024-07-13T06:20:47Z</time><name>28 第8瀑-38m-中繼點</name><cmt>2024-07-13T14:20:47+08:00</cmt><desc>28 第8瀑-38m-中繼點</desc><src>Hikingbook</src><link href="https://hikingbook.net/hikes/J4zLK90sySy90uYN992jfn91lw"><text>Hikingbook</text></link><extensions><gpxhb:weather>Clear</gpxhb:weather><gpxhb:speed>0.000000</gpxhb:speed><gpxhb:course>-1.000000</gpxhb:course></extensions></wpt><wpt lat="24.602471748389863" lon="121.10136805113507"><ele>685</ele><time>2024-07-13T07:08:57Z</time><name>29 第8瀑-38m-瀑底</name><cmt>2024-07-13T15:08:57+08:00</cmt><desc>29 第8瀑-38m-瀑底</desc><src>Hikingbook</src><link href="https://hikingbook.net/hikes/J4zLK90sySy90uYN992jfn91lw"><text>Hikingbook</text></link><extensions><gpxhb:weather>Clear</gpxhb:weather><gpxhb:speed>0.000000</gpxhb:speed><gpxhb:course>-1.000000</gpxhb:course></extensions></wpt><wpt lat="24.602471748389863" lon="121.10136805113507"><ele>685</ele><time>2024-07-13T07:45:45Z</time><name>30 第9瀑-20m-瀑頂 </name><cmt>2024-07-13T15:45:45+08:00</cmt><desc>30 第9瀑-20m-瀑頂 </desc><src>Hikingbook</src><link href="https://hikingbook.net/hikes/J4zLK90sySy90uYN992jfn91lw"><text>Hikingbook</text></link><extensions><gpxhb:weather>Clear</gpxhb:weather><gpxhb:speed>0.000000</gpxhb:speed><gpxhb:course>-1.000000</gpxhb:course></extensions></wpt><wpt lat="24.602471748389863" lon="121.10136805113507"><ele>685</ele><time>2024-07-13T07:48:28Z</time><name>31 第9瀑-20m-瀑中繼點</name><cmt>2024-07-13T15:48:28+08:00</cmt><desc>31 第9瀑-20m-瀑中繼點</desc><src>Hikingbook</src><link href="https://hikingbook.net/hikes/J4zLK90sySy90uYN992jfn91lw"><text>Hikingbook</text></link><extensions><gpxhb:weather>Clear</gpxhb:weather><gpxhb:speed>0.000000</gpxhb:speed><gpxhb:course>-1.000000</gpxhb:course></extensions></wpt><wpt lat="24.602471748389863" lon="121.10136805113507"><ele>685</ele><time>2024-07-13T07:53:50Z</time><name>32 第9瀑-20m-瀑底</name><cmt>2024-07-13T15:53:50+08:00</cmt><desc>32 第9瀑-20m-瀑底</desc><src>Hikingbook</src><link href="https://hikingbook.net/hikes/J4zLK90sySy90uYN992jfn91lw"><text>Hikingbook</text></link><extensions><gpxhb:weather>Clear</gpxhb:weather><gpxhb:speed>0.000000</gpxhb:speed><gpxhb:course>-1.000000</gpxhb:course></extensions></wpt><wpt lat="24.60238158029631" lon="121.10183175282664"><ele>616</ele><time>2024-07-13T08:04:41Z</time><name>33 第10瀑-12m-瀑頂</name><cmt>2024-07-13T16:04:41+08:00</cmt><desc>33 第10瀑-12m-瀑頂</desc><src>Hikingbook</src><link href="https://hikingbook.net/hikes/J4zLK90sySy90uYN992jfn91lw"><text>Hikingbook</text></link><extensions><gpxhb:weather>Clear</gpxhb:weather><gpxhb:speed>0.086641</gpxhb:speed><gpxhb:course>-1.000000</gpxhb:course></extensions></wpt><wpt lat="24.602271211356484" lon="121.10190683987094"><ele>666</ele><time>2024-07-13T08:20:01Z</time><name>34 第10瀑-12m-中繼點</name><cmt>2024-07-13T16:20:01+08:00</cmt><desc>34 第10瀑-12m-中繼點</desc><src>Hikingbook</src><link href="https://hikingbook.net/hikes/J4zLK90sySy90uYN992jfn91lw"><text>Hikingbook</text></link><extensions><gpxhb:weather>Clear</gpxhb:weather><gpxhb:speed>0.230000</gpxhb:speed><gpxhb:course>-1.000000</gpxhb:course></extensions></wpt><wpt lat="24.602420157768236" lon="121.10208227310432"><ele>643</ele><time>2024-07-13T08:23:41Z</time><name>35 第10瀑-12m-瀑底</name><cmt>2024-07-13T16:23:41+08:00</cmt><desc>35 第10瀑-12m-瀑底</desc><src>Hikingbook</src><link href="https://hikingbook.net/hikes/J4zLK90sySy90uYN992jfn91lw"><text>Hikingbook</text></link><extensions><gpxhb:weather>Clear</gpxhb:weather><gpxhb:speed>0.000000</gpxhb:speed><gpxhb:course>-1.000000</gpxhb:course></extensions></wpt><wpt lat="24.602744285971486" lon="121.10201831918312"><ele>636</ele><time>2024-07-13T08:29:20Z</time><name>36 右下切，不用垂</name><cmt>2024-07-13T16:29:20+08:00</cmt><desc>36 右下切，不用垂</desc><src>Hikingbook</src><link href="https://hikingbook.net/hikes/J4zLK90sySy90uYN992jfn91lw"><text>Hikingbook</text></link><extensions><gpxhb:weather>Clear</gpxhb:weather><gpxhb:speed>0.000000</gpxhb:speed><gpxhb:course>246.796875</gpxhb:course></extensions></wpt><wpt lat="24.602764444441025" lon="121.10208076436174"><ele>600</ele><time>2024-07-13T08:34:41Z</time><name>37 第11瀑-4m-瀑頂</name><cmt>2024-07-13T16:34:41+08:00</cmt><desc>37 第11瀑-4m-瀑頂</desc><src>Hikingbook</src><link href="https://hikingbook.net/hikes/J4zLK90sySy90uYN992jfn91lw"><text>Hikingbook</text></link><extensions><gpxhb:weather>Clear</gpxhb:weather><gpxhb:speed>0.000000</gpxhb:speed><gpxhb:course>-1.000000</gpxhb:course></extensions></wpt><wpt lat="24.602981745288336" lon="121.10198822815073"><ele>624</ele><time>2024-07-13T08:40:34Z</time><name>38 第11瀑-4m-瀑底</name><cmt>2024-07-13T16:40:34+08:00</cmt><desc>38 第11瀑-4m-瀑底</desc><src>Hikingbook</src><link href="https://hikingbook.net/hikes/J4zLK90sySy90uYN992jfn91lw"><text>Hikingbook</text></link><extensions><gpxhb:weather>Clear</gpxhb:weather><gpxhb:speed>0.000000</gpxhb:speed><gpxhb:course>-1.000000</gpxhb:course></extensions></wpt><wpt lat="24.603395054214346" lon="121.10227916816469"><ele>606</ele><time>2024-07-13T08:45:36Z</time><name>39 景色-2</name><cmt>2024-07-13T16:45:36+08:00</cmt><desc>39 景色-2</desc><src>Hikingbook</src><link href="https://hikingbook.net/hikes/J4zLK90sySy90uYN992jfn91lw"><text>Hikingbook</text></link><extensions><gpxhb:weather>Clear</gpxhb:weather><gpxhb:speed>0.000000</gpxhb:speed><gpxhb:course>337.915472</gpxhb:course></extensions></wpt><wpt lat="24.603661183469153" lon="121.1024031678677"><ele>588</ele><time>2024-07-13T08:49:10Z</time><name>40 出口點-橋邊</name><cmt>2024-07-13T16:49:10+08:00</cmt><desc>40 出口點-橋邊</desc><src>Hikingbook</src><link href="https://hikingbook.net/hikes/J4zLK90sySy90uYN992jfn91lw"><text>Hikingbook</text></link><extensions><gpxhb:weather>Clear</gpxhb:weather><gpxhb:speed>0.000000</gpxhb:speed><gpxhb:course>-1.000000</gpxhb:course></extensions></wpt><wpt lat="24.603740017333198" lon="121.10255234266513"><ele>583</ele><time>2024-07-13T08:49:57Z</time><name>41 B點-停車點 </name><cmt>2024-07-13T16:49:57+08:00</cmt><desc>41 B點-停車點 </desc><src>Hikingbook</src><link href="https://hikingbook.net/hikes/J4zLK90sySy90uYN992jfn91lw"><text>Hikingbook</text></link><extensions><gpxhb:weather>Clear</gpxhb:weather><gpxhb:speed>0.000000</gpxhb:speed><gpxhb:course>49.166787</gpxhb:course></extensions></wpt><trk><name>🪢💦上坪溪(2024-07-13）-「溪降」［🇹🇼新竹-五峰］</name><cmt>使用 Hikingbook App 記錄，介面最好用，功能最完整，分享最方便！現已支援 iOS 與 Android 雙平臺。</cmt><desc>使用 Hikingbook App 記錄，介面最好用，功能最完整，分享最方便！現已支援 iOS 與 Android 雙平臺。</desc><src>Hikingbook</src><link href="https://hikingbook.net/hikes/2024-7-13-%E6%99%A8%E9%96%93%E9%87%8D%E8%A3%9D%E7%99%BB%E5%B1%B1-0d36a661"><text>Hikingbook</text></link><trkseg><trkpt lat="24.601447708190175" lon="121.09375416325622"><ele>993.7574028821806</ele><time>2024-07-13T01:21:50Z</time><src>Hikingbook</src><extensions><gpxhb:speed>0.172421</gpxhb:speed><gpxhb:course>-1.000000</gpxhb:course></extensions></trkpt><trkpt lat="24.601430878431042" lon="121.0939733645593"><ele>992.4739371774386</ele><time>2024-07-13T01:22:32Z</time><src>Hikingbook</src><extensions><gpxhb:speed>1.220387</gpxhb:speed><gpxhb:course>97.159150</gpxhb:course></extensions></trkpt><trkpt lat="24.60114430223894" lon="121.09469651614998"><ele>982.5168564048058</ele><time>2024-07-13T01:23:45Z</time><src>Hikingbook</src><extensions><gpxhb:speed>1.264593</gpxhb:speed><gpxhb:course>89.852111</gpxhb:course></extensions></trkpt><trkpt lat="24.601145386733716" lon="121.09470526732724"><ele>982.2982503559865</ele><time>2024-07-13T01:23:46Z</time><src>Hikingbook</src><extensions><gpxhb:speed>1.214617</gpxhb:speed><gpxhb:course>86.161835</gpxhb:course></extensions></trkpt><trkpt lat="24.601311402403365" lon="121.09492055542512"><ele>977.6524148071759</ele><time>2024-07-13T01:24:10Z</time><src>Hikingbook</src><extensions><gpxhb:speed>1.343749</gpxhb:speed><gpxhb:course>22.364831</gpxhb:course></extensions></trkpt><trkpt lat="24.601878765821603" lon="121.09482497032403"><ele>976.9726578911907</ele><time>2024-07-13T01:25:15Z</time><src>Hikingbook</src><extensions><gpxhb:speed>0.169924</gpxhb:speed><gpxhb:course>40.381929</gpxhb:course></extensions></trkpt><trkpt lat="24.60171438239841" lon="121.09503122681228"><ele>972.0056607157267</ele><time>2024-07-13T01:25:57Z</time><src>Hikingbook</src><extensions><gpxhb:speed>0.778843</gpxhb:speed><gpxhb:course>150.101816</gpxhb:course></extensions></trkpt><trkpt lat="24.601665027240013" lon="121.09521459740016"><ele>964.6056377954178</ele><time>2024-07-13T01:27:52Z</time><src>Hikingbook</src><extensions><gpxhb:speed>0.551834</gpxhb:speed><gpxhb:course>129.696054</gpxhb:course></extensions></trkpt><trkpt lat="24.601570681555334" lon="121.09521945549386"><ele>965.498175730665</ele><time>2024-07-13T01:28:52Z</time><src>Hikingbook</src><extensions><gpxhb:speed>0.084741</gpxhb:speed><gpxhb:course>177.323988</gpxhb:course></extensions></trkpt></trkseg><trkseg><trkpt lat="24.601570681555334" lon="121.09521945549386"><ele>965.498175730665</ele><time>2024-07-13T01:29:56Z</time><src>Hikingbook</src><extensions><gpxhb:speed>0.084741</gpxhb:speed><gpxhb:course>177.323988</gpxhb:course></extensions></trkpt><trkpt lat="24.601616704940543" lon="121.09520425686544"><ele>965.5456947253163</ele><time>2024-07-13T01:29:58Z</time><src>Hikingbook</src><extensions><gpxhb:speed>0.027393</gpxhb:speed><gpxhb:course>144.378822</gpxhb:course></extensions></trkpt><trkpt lat="24.601598391742407" lon="121.09533433320264"><ele>954.241754193629</ele><time>2024-07-13T01:31:55Z</time><src>Hikingbook</src><extensions><gpxhb:speed>0.268727</gpxhb:speed><gpxhb:course>120.648548</gpxhb:course></extensions></trkpt><trkpt lat="24.60113941973542" lon="121.09544249771965"><ele>955.9657345203717</ele><time>2024-07-13T01:33:39Z</time><src>Hikingbook</src><extensions><gpxhb:speed>0.271752</gpxhb:speed><gpxhb:course>167.410336</gpxhb:course></extensions></trkpt><trkpt lat="24.600938116144665" lon="121.09588901749375"><ele>945.3735046761611</ele><time>2024-07-13T01:36:49Z</time><src>Hikingbook</src><extensions><gpxhb:speed>0.155519</gpxhb:speed><gpxhb:course>132.694773</gpxhb:course></extensions></trkpt></trkseg><trkseg><trkpt lat="24.600938116144665" lon="121.09588901749375"><ele>945.3735046761611</ele><time>2024-07-13T01:38:43Z</time><src>Hikingbook</src><extensions><gpxhb:speed>0.155519</gpxhb:speed><gpxhb:course>132.694773</gpxhb:course></extensions></trkpt><trkpt lat="24.60097684554232" lon="121.09587352998628"><ele>945.0656294808451</ele><time>2024-07-13T01:38:45Z</time><src>Hikingbook</src><extensions><gpxhb:speed>0.000000</gpxhb:speed><gpxhb:course>-1.000000</gpxhb:course></extensions></trkpt><trkpt lat="24.60085053076579" lon="121.09591167797667"><ele>947.2617823070401</ele><time>2024-07-13T01:40:10Z</time><src>Hikingbook</src><extensions><gpxhb:speed>0.207545</gpxhb:speed><gpxhb:course>-1.000000</gpxhb:course></extensions></trkpt></trkseg><trkseg><trkpt lat="24.60085053076579" lon="121.09591167797667"><ele>947.2617823070401</ele><time>2024-07-13T01:41:15Z</time><src>Hikingbook</src><extensions><gpxhb:speed>0.207545</gpxhb:speed><gpxhb:course>-1.000000</gpxhb:course></extensions></trkpt><trkpt lat="24.600860664432744" lon="121.09599509023867"><ele>941.8428111466366</ele><time>2024-07-13T01:41:32Z</time><src>Hikingbook</src><extensions><gpxhb:speed>0.591332</gpxhb:speed><gpxhb:course>116.565468</gpxhb:course></extensions></trkpt></trkseg><trkseg><trkpt lat="24.600860664432744" lon="121.09599509023867"><ele>941.8428111466366</ele><time>2024-07-13T01:42:44Z</time><src>Hikingbook</src><extensions><gpxhb:speed>0.591332</gpxhb:speed><gpxhb:course>116.565468</gpxhb:course></extensions></trkpt><trkpt lat="24.600586870450535" lon="121.09600874254895"><ele>938.5927675046119</ele><time>2024-07-13T01:43:19Z</time><src>Hikingbook</src><extensions><gpxhb:speed>0.404112</gpxhb:speed><gpxhb:course>-1.000000</gpxhb:course></extensions></trkpt><trkpt lat="24.600404102099308" lon="121.0956840127121"><ele>939.4065396773703</ele><time>2024-07-13T01:45:29Z</time><src>Hikingbook</src><extensions><gpxhb:speed>0.575886</gpxhb:speed><gpxhb:course>218.106152</gpxhb:course></extensions></trkpt><trkpt lat="24.600371915982237" lon="121.09586683492924"><ele>935.7366796724499</ele><time>2024-07-13T01:46:57Z</time><src>Hikingbook</src><extensions><gpxhb:speed>0.179705</gpxhb:speed><gpxhb:course>86.375464</gpxhb:course></extensions></trkpt><trkpt lat="24.60017130921388" lon="121.09589636194322"><ele>927.2461018903294</ele><time>2024-07-13T01:50:50Z</time><src>Hikingbook</src><extensions><gpxhb:speed>0.026705</gpxhb:speed><gpxhb:course>34.475818</gpxhb:course></extensions></trkpt><trkpt lat="24.600169017589312" lon="121.0957978977653"><ele>920.7867691147519</ele><time>2024-07-13T01:52:24Z</time><src>Hikingbook</src><extensions><gpxhb:speed>0.235722</gpxhb:speed><gpxhb:course>267.583429</gpxhb:course></extensions></trkpt><trkpt lat="24.60007035773717" lon="121.09583850844928"><ele>922.1020263349484</ele><time>2024-07-13T01:54:12Z</time><src>Hikingbook</src><extensions><gpxhb:speed>0.143514</gpxhb:speed><gpxhb:course>281.701646</gpxhb:course></extensions></trkpt></trkseg><trkseg><trkpt lat="24.60007035773717" lon="121.09583850844928"><ele>922.1020263349484</ele><time>2024-07-13T01:56:19Z</time><src>Hikingbook</src><extensions><gpxhb:speed>0.143514</gpxhb:speed><gpxhb:course>281.701646</gpxhb:course></extensions></trkpt><trkpt lat="24.600068187404336" lon="121.09583219570439"><ele>917.9626350933686</ele><time>2024-07-13T01:56:21Z</time><src>Hikingbook</src><extensions><gpxhb:speed>0.000000</gpxhb:speed><gpxhb:course>254.147054</gpxhb:course></extensions></trkpt></trkseg><trkseg><trkpt lat="24.600068187404336" lon="121.09583219570439"><ele>917.9626350933686</ele><time>2024-07-13T02:05:10Z</time><src>Hikingbook</src><extensions><gpxhb:speed>0.000000</gpxhb:speed><gpxhb:course>254.147054</gpxhb:course></extensions></trkpt></trkseg><trkseg><trkpt lat="24.600068187404336" lon="121.09583219570439"><ele>917.9626350933686</ele><time>2024-07-13T02:13:10Z</time><src>Hikingbook</src><extensions><gpxhb:speed>0.000000</gpxhb:speed><gpxhb:course>254.147054</gpxhb:course></extensions></trkpt><trkpt lat="24.600078382590837" lon="121.09587983417063"><ele>918.5782707100486</ele><time>2024-07-13T02:13:12Z</time><src>Hikingbook</src><extensions><gpxhb:speed>0.000000</gpxhb:speed><gpxhb:course>-1.000000</gpxhb:course></extensions></trkpt></trkseg><trkseg><trkpt lat="24.600078382590837" lon="121.09587983417063"><ele>918.5782707100486</ele><time>2024-07-13T02:23:00Z</time><src>Hikingbook</src><extensions><gpxhb:speed>0.000000</gpxhb:speed><gpxhb:course>-1.000000</gpxhb:course></extensions></trkpt><trkpt lat="24.600067194954114" lon="121.09590721186214"><ele>914.6821739754542</ele><time>2024-07-13T02:23:24Z</time><src>Hikingbook</src><extensions><gpxhb:speed>0.000000</gpxhb:speed><gpxhb:course>-1.000000</gpxhb:course></extensions></trkpt><trkpt lat="24.599849313710095" lon="121.09588684557939"><ele>905.4619951400314</ele><time>2024-07-13T02:23:50Z</time><src>Hikingbook</src><extensions><gpxhb:speed>0.338202</gpxhb:speed><gpxhb:course>-1.000000</gpxhb:course></extensions></trkpt><trkpt lat="24.59996604735178" lon="121.09589999311792"><ele>897.6161684385595</ele><time>2024-07-13T02:24:25Z</time><src>Hikingbook</src><extensions><gpxhb:speed>0.000000</gpxhb:speed><gpxhb:course>-1.000000</gpxhb:course></extensions></trkpt><trkpt lat="24.599899759167776" lon="121.0959083077091"><ele>901.2373023133574</ele><time>2024-07-13T02:24:41Z</time><src>Hikingbook</src><extensions><gpxhb:speed>0.000000</gpxhb:speed><gpxhb:course>-1.000000</gpxhb:course></extensions></trkpt><trkpt lat="24.59990982164762" lon="121.09574320415803"><ele>908.7526891737357</ele><time>2024-07-13T02:25:18Z</time><src>Hikingbook</src><extensions><gpxhb:speed>0.599855</gpxhb:speed><gpxhb:course>-1.000000</gpxhb:course></extensions></trkpt></trkseg><trkseg><trkpt lat="24.59977879357643" lon="121.09589796364614"><ele>901.593247582598</ele><time>2024-07-13T02:28:03Z</time><src>Hikingbook</src><extensions><gpxhb:speed>0.000000</gpxhb:speed><gpxhb:course>143.431124</gpxhb:course></extensions></trkpt><trkpt lat="24.599772554688812" lon="121.09588255556669"><ele>895.9452515925865</ele><time>2024-07-13T02:28:23Z</time><src>Hikingbook</src><extensions><gpxhb:speed>0.000000</gpxhb:speed><gpxhb:course>177.577979</gpxhb:course></extensions></trkpt></trkseg><trkseg><trkpt lat="24.599772554688812" lon="121.09588255556669"><ele>895.9452515925865</ele><time>2024-07-13T02:31:37Z</time><src>Hikingbook</src><extensions><gpxhb:speed>0.000000</gpxhb:speed><gpxhb:course>177.577979</gpxhb:course></extensions></trkpt><trkpt lat="24.599842165905525" lon="121.09579795413818"><ele>892.7664437763895</ele><time>2024-07-13T02:31:39Z</time><src>Hikingbook</src><extensions><gpxhb:speed>0.170000</gpxhb:speed><gpxhb:course>-1.000000</gpxhb:course></extensions></trkpt></trkseg><trkseg><trkpt lat="24.599831096226872" lon="121.0959856285787"><ele>892.7344659795272</ele><time>2024-07-13T02:35:25Z</time><src>Hikingbook</src><extensions><gpxhb:speed>0.242508</gpxhb:speed><gpxhb:course>-1.000000</gpxhb:course></extensions></trkpt><trkpt lat="24.59977603546521" lon="121.09597369092319"><ele>886.8915479423474</ele><time>2024-07-13T02:35:46Z</time><src>Hikingbook</src><extensions><gpxhb:speed>0.375572</gpxhb:speed><gpxhb:course>-1.000000</gpxhb:course></extensions></trkpt><trkpt lat="24.599769115568208" lon="121.09623587966988"><ele>885.8233298045805</ele><time>2024-07-13T02:37:06Z</time><src>Hikingbook</src><extensions><gpxhb:speed>0.105881</gpxhb:speed><gpxhb:course>-1.000000</gpxhb:course></extensions></trkpt><trkpt lat="24.599930970087787" lon="121.09632204239661"><ele>886.4584174708243</ele><time>2024-07-13T02:37:50Z</time><src>Hikingbook</src><extensions><gpxhb:speed>0.062739</gpxhb:speed><gpxhb:course>242.552625</gpxhb:course></extensions></trkpt><trkpt lat="24.599868349112988" lon="121.09643181444567"><ele>884.1609038220294</ele><time>2024-07-13T02:38:30Z</time><src>Hikingbook</src><extensions><gpxhb:speed>0.316168</gpxhb:speed><gpxhb:course>78.333318</gpxhb:course></extensions></trkpt><trkpt lat="24.600044839758493" lon="121.09693097017102"><ele>866.7431666848322</ele><time>2024-07-13T02:41:08Z</time><src>Hikingbook</src><extensions><gpxhb:speed>0.408533</gpxhb:speed><gpxhb:course>102.513459</gpxhb:course></extensions></trkpt></trkseg><trkseg><trkpt lat="24.600044839758493" lon="121.09693097017102"><ele>866.7431666848322</ele><time>2024-07-13T02:42:15Z</time><src>Hikingbook</src><extensions><gpxhb:speed>0.408533</gpxhb:speed><gpxhb:course>102.513459</gpxhb:course></extensions></trkpt><trkpt lat="24.600106291495823" lon="121.09703410428119"><ele>868.5608613635336</ele><time>2024-07-13T02:42:17Z</time><src>Hikingbook</src><extensions><gpxhb:speed>0.000000</gpxhb:speed><gpxhb:course>184.218750</gpxhb:course></extensions></trkpt><trkpt lat="24.600064903823103" lon="121.09693296049451"><ele>869.5173129327228</ele><time>2024-07-13T02:42:55Z</time><src>Hikingbook</src><extensions><gpxhb:speed>0.042146</gpxhb:speed><gpxhb:course>-1.000000</gpxhb:course></extensions></trkpt></trkseg><trkseg><trkpt lat="24.600064903823103" lon="121.09693296049451"><ele>869.5173129327228</ele><time>2024-07-13T02:46:32Z</time><src>Hikingbook</src><extensions><gpxhb:speed>0.042146</gpxhb:speed><gpxhb:course>-1.000000</gpxhb:course></extensions></trkpt><trkpt lat="24.600064743476327" lon="121.09705056876234"><ele>867.4169908784406</ele><time>2024-07-13T02:46:54Z</time><src>Hikingbook</src><extensions><gpxhb:speed>0.298325</gpxhb:speed><gpxhb:course>-1.000000</gpxhb:course></extensions></trkpt><trkpt lat="24.600151471870337" lon="121.09709078593727"><ele>865.205104302305</ele><time>2024-07-13T02:47:10Z</time><src>Hikingbook</src><extensions><gpxhb:speed>0.056089</gpxhb:speed><gpxhb:course>-1.000000</gpxhb:course></extensions></trkpt><trkpt lat="24.60009598341341" lon="121.09693022400015"><ele>872.5396393692783</ele><time>2024-07-13T02:47:26Z</time><src>Hikingbook</src><extensions><gpxhb:speed>0.476754</gpxhb:speed><gpxhb:course>198.064557</gpxhb:course></extensions></trkpt><trkpt lat="24.60012299457711" lon="121.0969870915834"><ele>866.6680128772235</ele><time>2024-07-13T02:47:44Z</time><src>Hikingbook</src><extensions><gpxhb:speed>0.507188</gpxhb:speed><gpxhb:course>-1.000000</gpxhb:course></extensions></trkpt><trkpt lat="24.600031544446463" lon="121.09695684655968"><ele>869.8462624263801</ele><time>2024-07-13T02:48:03Z</time><src>Hikingbook</src><extensions><gpxhb:speed>0.147688</gpxhb:speed><gpxhb:course>-1.000000</gpxhb:course></extensions></trkpt></trkseg><trkseg><trkpt lat="24.600031544446463" lon="121.09695684655968"><ele>869.8462624263801</ele><time>2024-07-13T03:15:58Z</time><src>Hikingbook</src><extensions><gpxhb:speed>0.147688</gpxhb:speed><gpxhb:course>-1.000000</gpxhb:course></extensions></trkpt><trkpt lat="24.600007103716607" lon="121.09716716545108"><ele>849.1121521915497</ele><time>2024-07-13T03:16:00Z</time><src>Hikingbook</src><extensions><gpxhb:speed>0.000000</gpxhb:speed><gpxhb:course>-1.000000</gpxhb:course></extensions></trkpt><trkpt lat="24.600244533793084" lon="121.09720202914276"><ele>864.4096601743958</ele><time>2024-07-13T03:16:34Z</time><src>Hikingbook</src><extensions><gpxhb:speed>1.857383</gpxhb:speed><gpxhb:course>345.686913</gpxhb:course></extensions></trkpt><trkpt lat="24.600244805905582" lon="121.09745196035429"><ele>865.1582333778164</ele><time>2024-07-13T03:17:17Z</time><src>Hikingbook</src><extensions><gpxhb:speed>0.593839</gpxhb:speed><gpxhb:course>106.238600</gpxhb:course></extensions></trkpt><trkpt lat="24.6004237242721" lon="121.09761592432535"><ele>860.3999489585392</ele><time>2024-07-13T03:18:13Z</time><src>Hikingbook</src><extensions><gpxhb:speed>1.250685</gpxhb:speed><gpxhb:course>84.762826</gpxhb:course></extensions></trkpt><trkpt lat="24.600504695750413" lon="121.09752601203857"><ele>849.4329873557247</ele><time>2024-07-13T03:18:29Z</time><src>Hikingbook</src><extensions><gpxhb:speed>0.868158</gpxhb:speed><gpxhb:course>283.218255</gpxhb:course></extensions></trkpt><trkpt lat="24.60052239613384" lon="121.09770023204801"><ele>872.1690291217134</ele><time>2024-07-13T03:18:52Z</time><src>Hikingbook</src><extensions><gpxhb:speed>2.022746</gpxhb:speed><gpxhb:course>83.970322</gpxhb:course></extensions></trkpt><trkpt lat="24.600465872865673" lon="121.09759226117421"><ele>854.1257837719919</ele><time>2024-07-13T03:19:10Z</time><src>Hikingbook</src><extensions><gpxhb:speed>0.059494</gpxhb:speed><gpxhb:course>-1.000000</gpxhb:course></extensions></trkpt><trkpt lat="24.600552728201368" lon="121.09757552713175"><ele>840.5225518203368</ele><time>2024-07-13T03:19:50Z</time><src>Hikingbook</src><extensions><gpxhb:speed>1.835400</gpxhb:speed><gpxhb:course>-1.000000</gpxhb:course></extensions></trkpt><trkpt lat="24.6005984107461" lon="121.09772765801014"><ele>849.8534952608188</ele><time>2024-07-13T03:20:08Z</time><src>Hikingbook</src><extensions><gpxhb:speed>0.138336</gpxhb:speed><gpxhb:course>272.125616</gpxhb:course></extensions></trkpt><trkpt lat="24.600619126760826" lon="121.09770744120237"><ele>847.5850468474223</ele><time>2024-07-13T03:20:24Z</time><src>Hikingbook</src><extensions><gpxhb:speed>0.000000</gpxhb:speed><gpxhb:course>336.571586</gpxhb:course></extensions></trkpt><trkpt lat="24.60072027359862" lon="121.09779038862004"><ele>849.2744256181026</ele><time>2024-07-13T03:21:09Z</time><src>Hikingbook</src><extensions><gpxhb:speed>0.172156</gpxhb:speed><gpxhb:course>45.428068</gpxhb:course></extensions></trkpt><trkpt lat="24.600737476294885" lon="121.0980405193262"><ele>837.7427211136007</ele><time>2024-07-13T03:22:22Z</time><src>Hikingbook</src><extensions><gpxhb:speed>0.000000</gpxhb:speed><gpxhb:course>87.877080</gpxhb:course></extensions></trkpt><trkpt lat="24.60079692595731" lon="121.0980539997367"><ele>837.3670037192161</ele><time>2024-07-13T03:23:01Z</time><src>Hikingbook</src><extensions><gpxhb:speed>0.987605</gpxhb:speed><gpxhb:course>53.358041</gpxhb:course></extensions></trkpt><trkpt lat="24.600657457735444" lon="121.09820235934905"><ele>830.9390399493174</ele><time>2024-07-13T03:23:38Z</time><src>Hikingbook</src><extensions><gpxhb:speed>0.509246</gpxhb:speed><gpxhb:course>100.432704</gpxhb:course></extensions></trkpt><trkpt lat="24.6006990973986" lon="121.09808951091783"><ele>816.6129770967751</ele><time>2024-07-13T03:23:56Z</time><src>Hikingbook</src><extensions><gpxhb:speed>0.000000</gpxhb:speed><gpxhb:course>265.049320</gpxhb:course></extensions></trkpt><trkpt lat="24.600646921596447" lon="121.09821168390609"><ele>833.6009889041511</ele><time>2024-07-13T03:24:13Z</time><src>Hikingbook</src><extensions><gpxhb:speed>0.000000</gpxhb:speed><gpxhb:course>-1.000000</gpxhb:course></extensions></trkpt><trkpt lat="24.6007494044915" lon="121.09812391695367"><ele>828.1406419254525</ele><time>2024-07-13T03:25:07Z</time><src>Hikingbook</src><extensions><gpxhb:speed>0.000000</gpxhb:speed><gpxhb:course>-1.000000</gpxhb:course></extensions></trkpt></trkseg><trkseg><trkpt lat="24.6007494044915" lon="121.09812391695367"><ele>828.1406419254525</ele><time>2024-07-13T04:45:44Z</time><src>Hikingbook</src><extensions><gpxhb:speed>0.000000</gpxhb:speed><gpxhb:course>-1.000000</gpxhb:course></extensions></trkpt><trkpt lat="24.600834393087187" lon="121.09825794125477"><ele>829.1475914246795</ele><time>2024-07-13T04:45:55Z</time><src>Hikingbook</src><extensions><gpxhb:speed>0.000000</gpxhb:speed><gpxhb:course>-1.000000</gpxhb:course></extensions></trkpt></trkseg><trkseg><trkpt lat="24.600834393087187" lon="121.09825794125477"><ele>829.1475914246795</ele><time>2024-07-13T04:48:40Z</time><src>Hikingbook</src><extensions><gpxhb:speed>0.000000</gpxhb:speed><gpxhb:course>-1.000000</gpxhb:course></extensions></trkpt><trkpt lat="24.600888380242278" lon="121.09833138812512"><ele>829.1304496703499</ele><time>2024-07-13T04:48:42Z</time><src>Hikingbook</src><extensions><gpxhb:speed>0.000000</gpxhb:speed><gpxhb:course>148.710938</gpxhb:course></extensions></trkpt><trkpt lat="24.600880346273506" lon="121.09825206843551"><ele>829.951939859841</ele><time>2024-07-13T04:48:57Z</time><src>Hikingbook</src><extensions><gpxhb:speed>0.150000</gpxhb:speed><gpxhb:course>-1.000000</gpxhb:course></extensions></trkpt><trkpt lat="24.600929599587147" lon="121.09843192377714"><ele>820.4659804415295</ele><time>2024-07-13T04:49:12Z</time><src>Hikingbook</src><extensions><gpxhb:speed>0.441855</gpxhb:speed><gpxhb:course>-1.000000</gpxhb:course></extensions></trkpt><trkpt lat="24.600929822271652" lon="121.09834915288445"><ele>817.6363973871006</ele><time>2024-07-13T04:49:28Z</time><src>Hikingbook</src><extensions><gpxhb:speed>0.353424</gpxhb:speed><gpxhb:course>-1.000000</gpxhb:course></extensions></trkpt><trkpt lat="24.600956219354963" lon="121.09839039945821"><ele>818.4390962687901</ele><time>2024-07-13T04:49:51Z</time><src>Hikingbook</src><extensions><gpxhb:speed>0.436026</gpxhb:speed><gpxhb:course>-1.000000</gpxhb:course></extensions></trkpt><trkpt lat="24.600923739381933" lon="121.09845855279609"><ele>817.426382133507</ele><time>2024-07-13T04:50:07Z</time><src>Hikingbook</src><extensions><gpxhb:speed>1.134559</gpxhb:speed><gpxhb:course>103.567827</gpxhb:course></extensions></trkpt><trkpt lat="24.600903361851245" lon="121.09832610193203"><ele>813.7325622834346</ele><time>2024-07-13T04:50:30Z</time><src>Hikingbook</src><extensions><gpxhb:speed>0.960375</gpxhb:speed><gpxhb:course>304.788116</gpxhb:course></extensions></trkpt><trkpt lat="24.600917274733344" lon="121.0983067098958"><ele>814.1095936717245</ele><time>2024-07-13T04:50:52Z</time><src>Hikingbook</src><extensions><gpxhb:speed>0.000000</gpxhb:speed><gpxhb:course>325.633450</gpxhb:course></extensions></trkpt><trkpt lat="24.6010704316561" lon="121.09849446527409"><ele>812.7027835716366</ele><time>2024-07-13T04:51:51Z</time><src>Hikingbook</src><extensions><gpxhb:speed>0.393795</gpxhb:speed><gpxhb:course>114.018697</gpxhb:course></extensions></trkpt><trkpt lat="24.60110639714738" lon="121.09845246261527"><ele>807.0862983031182</ele><time>2024-07-13T04:52:12Z</time><src>Hikingbook</src><extensions><gpxhb:speed>0.000000</gpxhb:speed><gpxhb:course>97.458499</gpxhb:course></extensions></trkpt><trkpt lat="24.601212268304497" lon="121.09858690432928"><ele>805.791075506237</ele><time>2024-07-13T04:53:02Z</time><src>Hikingbook</src><extensions><gpxhb:speed>0.000000</gpxhb:speed><gpxhb:course>36.139312</gpxhb:course></extensions></trkpt><trkpt lat="24.6011656215376" lon="121.0985710387867"><ele>801.1459279584179</ele><time>2024-07-13T04:53:25Z</time><src>Hikingbook</src><extensions><gpxhb:speed>0.011172</gpxhb:speed><gpxhb:course>36.139307</gpxhb:course></extensions></trkpt><trkpt lat="24.60121824248812" lon="121.09856272282055"><ele>800.2748605192062</ele><time>2024-07-13T04:53:41Z</time><src>Hikingbook</src><extensions><gpxhb:speed>1.036292</gpxhb:speed><gpxhb:course>355.521019</gpxhb:course></extensions></trkpt><trkpt lat="24.601170553030954" lon="121.09856286344491"><ele>800.6906305126561</ele><time>2024-07-13T04:53:57Z</time><src>Hikingbook</src><extensions><gpxhb:speed>0.866731</gpxhb:speed><gpxhb:course>85.319559</gpxhb:course></extensions></trkpt><trkpt lat="24.6012505516011" lon="121.09865224917199"><ele>792.7036145793803</ele><time>2024-07-13T04:55:00Z</time><src>Hikingbook</src><extensions><gpxhb:speed>0.025188</gpxhb:speed><gpxhb:course>13.531937</gpxhb:course></extensions></trkpt><trkpt lat="24.601182247834956" lon="121.09873624919922"><ele>784.5101950449113</ele><time>2024-07-13T04:55:28Z</time><src>Hikingbook</src><extensions><gpxhb:speed>0.709037</gpxhb:speed><gpxhb:course>52.400487</gpxhb:course></extensions></trkpt><trkpt lat="24.60127217295497" lon="121.09867986721487"><ele>784.9288995226194</ele><time>2024-07-13T04:55:44Z</time><src>Hikingbook</src><extensions><gpxhb:speed>0.709156</gpxhb:speed><gpxhb:course>62.064916</gpxhb:course></extensions></trkpt><trkpt lat="24.601237130025687" lon="121.09881758580059"><ele>782.0378161946574</ele><time>2024-07-13T04:56:26Z</time><src>Hikingbook</src><extensions><gpxhb:speed>0.956171</gpxhb:speed><gpxhb:course>134.359389</gpxhb:course></extensions></trkpt><trkpt lat="24.60128770340364" lon="121.09882537459326"><ele>780.0612692258977</ele><time>2024-07-13T04:56:42Z</time><src>Hikingbook</src><extensions><gpxhb:speed>0.067646</gpxhb:speed><gpxhb:course>297.644787</gpxhb:course></extensions></trkpt><trkpt lat="24.60123299087748" lon="121.09887084293514"><ele>781.7112020777017</ele><time>2024-07-13T04:56:58Z</time><src>Hikingbook</src><extensions><gpxhb:speed>0.000000</gpxhb:speed><gpxhb:course>302.890846</gpxhb:course></extensions></trkpt><trkpt lat="24.601295622066004" lon="121.09889070580086"><ele>781.5991318427456</ele><time>2024-07-13T04:57:16Z</time><src>Hikingbook</src><extensions><gpxhb:speed>0.066345</gpxhb:speed><gpxhb:course>302.890836</gpxhb:course></extensions></trkpt><trkpt lat="24.601230510662912" lon="121.09891506478904"><ele>781.0064443601076</ele><time>2024-07-13T04:57:32Z</time><src>Hikingbook</src><extensions><gpxhb:speed>0.770411</gpxhb:speed><gpxhb:course>132.704034</gpxhb:course></extensions></trkpt><trkpt lat="24.60130385368578" lon="121.09887399200213"><ele>774.0211396476236</ele><time>2024-07-13T04:57:48Z</time><src>Hikingbook</src><extensions><gpxhb:speed>0.218444</gpxhb:speed><gpxhb:course>77.560390</gpxhb:course></extensions></trkpt><trkpt lat="24.60124369397888" lon="121.09894376821805"><ele>772.2733584300269</ele><time>2024-07-13T04:58:16Z</time><src>Hikingbook</src><extensions><gpxhb:speed>0.168945</gpxhb:speed><gpxhb:course>168.541779</gpxhb:course></extensions></trkpt><trkpt lat="24.601312430022126" lon="121.09900992376693"><ele>771.0811953797868</ele><time>2024-07-13T04:58:32Z</time><src>Hikingbook</src><extensions><gpxhb:speed>0.042112</gpxhb:speed><gpxhb:course>168.541886</gpxhb:course></extensions></trkpt><trkpt lat="24.601268273869813" lon="121.09904108271952"><ele>771.3241509663463</ele><time>2024-07-13T04:59:04Z</time><src>Hikingbook</src><extensions><gpxhb:speed>0.397480</gpxhb:speed><gpxhb:course>102.403997</gpxhb:course></extensions></trkpt><trkpt lat="24.601368285713708" lon="121.09902770217403"><ele>767.3252240786425</ele><time>2024-07-13T04:59:19Z</time><src>Hikingbook</src><extensions><gpxhb:speed>0.099713</gpxhb:speed><gpxhb:course>102.404059</gpxhb:course></extensions></trkpt><trkpt lat="24.601321472777354" lon="121.09897004202415"><ele>761.7175355331904</ele><time>2024-07-13T04:59:49Z</time><src>Hikingbook</src><extensions><gpxhb:speed>0.214835</gpxhb:speed><gpxhb:course>41.846472</gpxhb:course></extensions></trkpt><trkpt lat="24.60123140421372" lon="121.09907637937135"><ele>769.3825889523474</ele><time>2024-07-13T05:00:22Z</time><src>Hikingbook</src><extensions><gpxhb:speed>0.000000</gpxhb:speed><gpxhb:course>109.381542</gpxhb:course></extensions></trkpt><trkpt lat="24.60137782499255" lon="121.09917582224021"><ele>765.9809373501712</ele><time>2024-07-13T05:01:31Z</time><src>Hikingbook</src><extensions><gpxhb:speed>0.495177</gpxhb:speed><gpxhb:course>85.975663</gpxhb:course></extensions></trkpt><trkpt lat="24.60149209445787" lon="121.09915472751969"><ele>765.0021753543546</ele><time>2024-07-13T05:01:47Z</time><src>Hikingbook</src><extensions><gpxhb:speed>0.000000</gpxhb:speed><gpxhb:course>61.926596</gpxhb:course></extensions></trkpt><trkpt lat="24.60137217922392" lon="121.09908281676911"><ele>769.9087242582058</ele><time>2024-07-13T05:02:46Z</time><src>Hikingbook</src><extensions><gpxhb:speed>0.049451</gpxhb:speed><gpxhb:course>-1.000000</gpxhb:course></extensions></trkpt><trkpt lat="24.60140389526517" lon="121.09916542448636"><ele>768.3615202170187</ele><time>2024-07-13T05:03:02Z</time><src>Hikingbook</src><extensions><gpxhb:speed>0.584219</gpxhb:speed><gpxhb:course>122.482839</gpxhb:course></extensions></trkpt><trkpt lat="24.601333564077645" lon="121.09914434202274"><ele>768.3482522547483</ele><time>2024-07-13T05:03:18Z</time><src>Hikingbook</src><extensions><gpxhb:speed>1.932520</gpxhb:speed><gpxhb:course>211.286509</gpxhb:course></extensions></trkpt><trkpt lat="24.601357127412943" lon="121.09922471139663"><ele>764.3591578826112</ele><time>2024-07-13T05:03:34Z</time><src>Hikingbook</src><extensions><gpxhb:speed>0.473107</gpxhb:speed><gpxhb:course>57.774249</gpxhb:course></extensions></trkpt><trkpt lat="24.60146604043838" lon="121.09929466497059"><ele>757.4859417719714</ele><time>2024-07-13T05:03:54Z</time><src>Hikingbook</src><extensions><gpxhb:speed>0.389348</gpxhb:speed><gpxhb:course>121.192602</gpxhb:course></extensions></trkpt><trkpt lat="24.60132027366581" lon="121.09933926342859"><ele>751.5473866879017</ele><time>2024-07-13T05:04:50Z</time><src>Hikingbook</src><extensions><gpxhb:speed>0.438863</gpxhb:speed><gpxhb:course>175.218084</gpxhb:course></extensions></trkpt><trkpt lat="24.60150023077295" lon="121.09934678531518"><ele>750.2466944809422</ele><time>2024-07-13T05:05:22Z</time><src>Hikingbook</src><extensions><gpxhb:speed>0.540642</gpxhb:speed><gpxhb:course>137.208940</gpxhb:course></extensions></trkpt><trkpt lat="24.601333176944184" lon="121.09939668836695"><ele>751.0996511697199</ele><time>2024-07-13T05:05:50Z</time><src>Hikingbook</src><extensions><gpxhb:speed>0.484348</gpxhb:speed><gpxhb:course>165.703526</gpxhb:course></extensions></trkpt><trkpt lat="24.601560502984928" lon="121.09951626346705"><ele>746.2715563092584</ele><time>2024-07-13T05:07:07Z</time><src>Hikingbook</src><extensions><gpxhb:speed>0.637823</gpxhb:speed><gpxhb:course>10.234745</gpxhb:course></extensions></trkpt><trkpt lat="24.601508328552143" lon="121.09959276347172"><ele>746.8445606781434</ele><time>2024-07-13T05:07:22Z</time><src>Hikingbook</src><extensions><gpxhb:speed>0.000000</gpxhb:speed><gpxhb:course>95.517963</gpxhb:course></extensions></trkpt><trkpt lat="24.60185696952294" lon="121.09982118690813"><ele>756.113934443434</ele><time>2024-07-13T05:12:13Z</time><src>Hikingbook</src><extensions><gpxhb:speed>0.499112</gpxhb:speed><gpxhb:course>-1.000000</gpxhb:course></extensions></trkpt><trkpt lat="24.601846838239602" lon="121.09987480019278"><ele>750.86370449601</ele><time>2024-07-13T05:12:31Z</time><src>Hikingbook</src><extensions><gpxhb:speed>0.394372</gpxhb:speed><gpxhb:course>-1.000000</gpxhb:course></extensions></trkpt><trkpt lat="24.60171522480672" lon="121.09989415699162"><ele>756.6173519900688</ele><time>2024-07-13T05:12:58Z</time><src>Hikingbook</src><extensions><gpxhb:speed>0.117340</gpxhb:speed><gpxhb:course>122.015152</gpxhb:course></extensions></trkpt><trkpt lat="24.601900910799507" lon="121.09991453319317"><ele>750.5359504430729</ele><time>2024-07-13T05:14:26Z</time><src>Hikingbook</src><extensions><gpxhb:speed>0.062879</gpxhb:speed><gpxhb:course>100.720292</gpxhb:course></extensions></trkpt><trkpt lat="24.60184514838338" lon="121.09993805167032"><ele>744.400716087913</ele><time>2024-07-13T05:14:46Z</time><src>Hikingbook</src><extensions><gpxhb:speed>0.198276</gpxhb:speed><gpxhb:course>318.598703</gpxhb:course></extensions></trkpt><trkpt lat="24.601899476544094" lon="121.09993045247279"><ele>743.4512330896655</ele><time>2024-07-13T05:15:16Z</time><src>Hikingbook</src><extensions><gpxhb:speed>0.229684</gpxhb:speed><gpxhb:course>323.407372</gpxhb:course></extensions></trkpt><trkpt lat="24.60190333499298" lon="121.10004682787503"><ele>742.5256133551129</ele><time>2024-07-13T05:15:32Z</time><src>Hikingbook</src><extensions><gpxhb:speed>1.432872</gpxhb:speed><gpxhb:course>283.540676</gpxhb:course></extensions></trkpt><trkpt lat="24.601900640333547" lon="121.10005906678117"><ele>742.4494412204791</ele><time>2024-07-13T05:15:34Z</time><src>Hikingbook</src><extensions><gpxhb:speed>0.677136</gpxhb:speed><gpxhb:course>264.972730</gpxhb:course></extensions></trkpt><trkpt lat="24.60189801885305" lon="121.10027261711046"><ele>743.3630568452604</ele><time>2024-07-13T05:16:11Z</time><src>Hikingbook</src><extensions><gpxhb:speed>0.213959</gpxhb:speed><gpxhb:course>127.425931</gpxhb:course></extensions></trkpt><trkpt lat="24.602032486343276" lon="121.10023932271058"><ele>736.5504094158218</ele><time>2024-07-13T05:16:29Z</time><src>Hikingbook</src><extensions><gpxhb:speed>0.740313</gpxhb:speed><gpxhb:course>22.550050</gpxhb:course></extensions></trkpt><trkpt lat="24.6021472487883" lon="121.10037146337578"><ele>731.9627097289</ele><time>2024-07-13T05:17:14Z</time><src>Hikingbook</src><extensions><gpxhb:speed>0.352669</gpxhb:speed><gpxhb:course>149.952413</gpxhb:course></extensions></trkpt><trkpt lat="24.602035277655496" lon="121.10045926669112"><ele>738.7455305051832</ele><time>2024-07-13T05:18:26Z</time><src>Hikingbook</src><extensions><gpxhb:speed>0.315880</gpxhb:speed><gpxhb:course>121.067884</gpxhb:course></extensions></trkpt><trkpt lat="24.602024057961827" lon="121.1006076957082"><ele>731.5691885930746</ele><time>2024-07-13T05:18:59Z</time><src>Hikingbook</src><extensions><gpxhb:speed>0.060719</gpxhb:speed><gpxhb:course>75.128914</gpxhb:course></extensions></trkpt><trkpt lat="24.60198035286934" lon="121.10056502275089"><ele>730.3728742242166</ele><time>2024-07-13T05:19:15Z</time><src>Hikingbook</src><extensions><gpxhb:speed>0.000000</gpxhb:speed><gpxhb:course>156.711725</gpxhb:course></extensions></trkpt><trkpt lat="24.60205973465376" lon="121.10064403840605"><ele>723.7703749777211</ele><time>2024-07-13T05:19:39Z</time><src>Hikingbook</src><extensions><gpxhb:speed>0.888977</gpxhb:speed><gpxhb:course>18.954586</gpxhb:course></extensions></trkpt><trkpt lat="24.60194569261531" lon="121.10069667716978"><ele>721.9468047295875</ele><time>2024-07-13T05:19:55Z</time><src>Hikingbook</src><extensions><gpxhb:speed>0.040350</gpxhb:speed><gpxhb:course>44.748867</gpxhb:course></extensions></trkpt><trkpt lat="24.60202269353283" lon="121.10076990180706"><ele>719.2839624800293</ele><time>2024-07-13T05:20:26Z</time><src>Hikingbook</src><extensions><gpxhb:speed>0.000000</gpxhb:speed><gpxhb:course>37.458910</gpxhb:course></extensions></trkpt></trkseg><trkseg><trkpt lat="24.60202269353283" lon="121.10076990180706"><ele>719.2839624800293</ele><time>2024-07-13T05:27:43Z</time><src>Hikingbook</src><extensions><gpxhb:speed>0.000000</gpxhb:speed><gpxhb:course>37.458910</gpxhb:course></extensions></trkpt><trkpt lat="24.601897134450894" lon="121.10081793473938"><ele>721.0611415326516</ele><time>2024-07-13T05:27:45Z</time><src>Hikingbook</src><extensions><gpxhb:speed>0.000000</gpxhb:speed><gpxhb:course>-1.000000</gpxhb:course></extensions></trkpt><trkpt lat="24.60197532197671" lon="121.10076501313374"><ele>704.6808170716049</ele><time>2024-07-13T05:28:01Z</time><src>Hikingbook</src><extensions><gpxhb:speed>0.270000</gpxhb:speed><gpxhb:course>-1.000000</gpxhb:course></extensions></trkpt><trkpt lat="24.60205048708606" lon="121.10087270924129"><ele>713.1976254928348</ele><time>2024-07-13T05:28:25Z</time><src>Hikingbook</src><extensions><gpxhb:speed>0.658192</gpxhb:speed><gpxhb:course>146.685773</gpxhb:course></extensions></trkpt><trkpt lat="24.602188637822746" lon="121.1008833520077"><ele>712.6606660592741</ele><time>2024-07-13T05:29:57Z</time><src>Hikingbook</src><extensions><gpxhb:speed>0.128156</gpxhb:speed><gpxhb:course>287.918469</gpxhb:course></extensions></trkpt><trkpt lat="24.602299638433756" lon="121.10110479603932"><ele>704.5454203753227</ele><time>2024-07-13T05:31:21Z</time><src>Hikingbook</src><extensions><gpxhb:speed>0.300080</gpxhb:speed><gpxhb:course>109.641560</gpxhb:course></extensions></trkpt></trkseg><trkseg><trkpt lat="24.602299638433756" lon="121.10110479603932"><ele>704.5454203753227</ele><time>2024-07-13T05:44:33Z</time><src>Hikingbook</src><extensions><gpxhb:speed>0.300080</gpxhb:speed><gpxhb:course>109.641560</gpxhb:course></extensions></trkpt><trkpt lat="24.602458772866417" lon="121.10121758791695"><ele>696.9735355679445</ele><time>2024-07-13T05:44:53Z</time><src>Hikingbook</src><extensions><gpxhb:speed>0.204698</gpxhb:speed><gpxhb:course>-1.000000</gpxhb:course></extensions></trkpt></trkseg><trkseg><trkpt lat="24.602458772866417" lon="121.10121758791695"><ele>696.9735355679445</ele><time>2024-07-13T05:46:23Z</time><src>Hikingbook</src><extensions><gpxhb:speed>0.204698</gpxhb:speed><gpxhb:course>-1.000000</gpxhb:course></extensions></trkpt><trkpt lat="24.602559605784883" lon="121.10122429890748"><ele>693.656285037875</ele><time>2024-07-13T05:46:25Z</time><src>Hikingbook</src><extensions><gpxhb:speed>0.202356</gpxhb:speed><gpxhb:course>-1.000000</gpxhb:course></extensions></trkpt><trkpt lat="24.602507674063418" lon="121.10128683211617"><ele>692.4124483413771</ele><time>2024-07-13T05:47:01Z</time><src>Hikingbook</src><extensions><gpxhb:speed>1.022499</gpxhb:speed><gpxhb:course>321.736162</gpxhb:course></extensions></trkpt></trkseg><trkseg><trkpt lat="24.602507674063418" lon="121.10128683211617"><ele>692.4124483413771</ele><time>2024-07-13T05:52:45Z</time><src>Hikingbook</src><extensions><gpxhb:speed>1.022499</gpxhb:speed><gpxhb:course>321.736162</gpxhb:course></extensions></trkpt><trkpt lat="24.602369137090133" lon="121.10129746591488"><ele>700.2230086567176</ele><time>2024-07-13T05:52:47Z</time><src>Hikingbook</src><extensions><gpxhb:speed>0.000000</gpxhb:speed><gpxhb:course>-1.000000</gpxhb:course></extensions></trkpt></trkseg><trkseg><trkpt lat="24.602369137090133" lon="121.10129746591488"><ele>700.2230086567176</ele><time>2024-07-13T07:44:23Z</time><src>Hikingbook</src><extensions><gpxhb:speed>0.000000</gpxhb:speed><gpxhb:course>-1.000000</gpxhb:course></extensions></trkpt></trkseg><trkseg><trkpt lat="24.602369137090133" lon="121.10129746591488"><ele>700.2230086567176</ele><time>2024-07-13T07:50:47Z</time><src>Hikingbook</src><extensions><gpxhb:speed>0.000000</gpxhb:speed><gpxhb:course>-1.000000</gpxhb:course></extensions></trkpt></trkseg><trkseg><trkpt lat="24.602369137090133" lon="121.10129746591488"><ele>700.2230086567176</ele><time>2024-07-13T07:53:46Z</time><src>Hikingbook</src><extensions><gpxhb:speed>0.000000</gpxhb:speed><gpxhb:course>-1.000000</gpxhb:course></extensions></trkpt></trkseg><trkseg><trkpt lat="24.602369137090133" lon="121.10129746591488"><ele>700.2230086567176</ele><time>2024-07-13T07:58:45Z</time><src>Hikingbook</src><extensions><gpxhb:speed>0.000000</gpxhb:speed><gpxhb:course>-1.000000</gpxhb:course></extensions></trkpt><trkpt lat="24.60241752745346" lon="121.10189588083787"><ele>620.3121490464833</ele><time>2024-07-13T08:01:12Z</time><src>Hikingbook</src><extensions><gpxhb:speed>0.603872</gpxhb:speed><gpxhb:course>94.864570</gpxhb:course></extensions></trkpt></trkseg><trkseg><trkpt lat="24.60241752745346" lon="121.10189588083787"><ele>620.3121490464833</ele><time>2024-07-13T08:03:05Z</time><src>Hikingbook</src><extensions><gpxhb:speed>0.603872</gpxhb:speed><gpxhb:course>94.864570</gpxhb:course></extensions></trkpt><trkpt lat="24.6023994099173" lon="121.10200817085251"><ele>662.9003242623388</ele><time>2024-07-13T08:03:06Z</time><src>Hikingbook</src><extensions><gpxhb:speed>0.650000</gpxhb:speed><gpxhb:course>248.906250</gpxhb:course></extensions></trkpt></trkseg><trkseg><trkpt lat="24.6023994099173" lon="121.10200817085251"><ele>662.9003242623388</ele><time>2024-07-13T08:23:41Z</time><src>Hikingbook</src><extensions><gpxhb:speed>0.650000</gpxhb:speed><gpxhb:course>248.906250</gpxhb:course></extensions></trkpt><trkpt lat="24.602417916496297" lon="121.10208792769404"><ele>643.234830438594</ele><time>2024-07-13T08:23:43Z</time><src>Hikingbook</src><extensions><gpxhb:speed>0.000000</gpxhb:speed><gpxhb:course>-1.000000</gpxhb:course></extensions></trkpt></trkseg><trkseg><trkpt lat="24.602417916496297" lon="121.10208792769404"><ele>643.234830438594</ele><time>2024-07-13T08:24:46Z</time><src>Hikingbook</src><extensions><gpxhb:speed>0.000000</gpxhb:speed><gpxhb:course>-1.000000</gpxhb:course></extensions></trkpt><trkpt lat="24.60249534594858" lon="121.10199342423913"><ele>660.8313522854935</ele><time>2024-07-13T08:24:55Z</time><src>Hikingbook</src><extensions><gpxhb:speed>0.630020</gpxhb:speed><gpxhb:course>-1.000000</gpxhb:course></extensions></trkpt><trkpt lat="24.602402046539655" lon="121.10193246578521"><ele>668.2070479143683</ele><time>2024-07-13T08:25:11Z</time><src>Hikingbook</src><extensions><gpxhb:speed>0.806046</gpxhb:speed><gpxhb:course>-1.000000</gpxhb:course></extensions></trkpt><trkpt lat="24.60256675421839" lon="121.10212961463829"><ele>649.6154498009819</ele><time>2024-07-13T08:26:12Z</time><src>Hikingbook</src><extensions><gpxhb:speed>0.037527</gpxhb:speed><gpxhb:course>72.775119</gpxhb:course></extensions></trkpt><trkpt lat="24.602590751900514" lon="121.10224881648749"><ele>645.6668002718083</ele><time>2024-07-13T08:26:42Z</time><src>Hikingbook</src><extensions><gpxhb:speed>0.350377</gpxhb:speed><gpxhb:course>105.906778</gpxhb:course></extensions></trkpt><trkpt lat="24.60271427123502" lon="121.10202202828938"><ele>650.1356581808986</ele><time>2024-07-13T08:27:08Z</time><src>Hikingbook</src><extensions><gpxhb:speed>0.345816</gpxhb:speed><gpxhb:course>314.080199</gpxhb:course></extensions></trkpt><trkpt lat="24.602692646191212" lon="121.10224280180762"><ele>640.0845262154329</ele><time>2024-07-13T08:27:40Z</time><src>Hikingbook</src><extensions><gpxhb:speed>0.590692</gpxhb:speed><gpxhb:course>140.521728</gpxhb:course></extensions></trkpt><trkpt lat="24.6027585480844" lon="121.10216052739271"><ele>639.7261857335137</ele><time>2024-07-13T08:28:05Z</time><src>Hikingbook</src><extensions><gpxhb:speed>0.002332</gpxhb:speed><gpxhb:course>171.802587</gpxhb:course></extensions></trkpt></trkseg><trkseg><trkpt lat="24.6027585480844" lon="121.10216052739271"><ele>639.7261857335137</ele><time>2024-07-13T08:29:20Z</time><src>Hikingbook</src><extensions><gpxhb:speed>0.002332</gpxhb:speed><gpxhb:course>171.802587</gpxhb:course></extensions></trkpt><trkpt lat="24.60274127628046" lon="121.10200632426093"><ele>636.0547608214545</ele><time>2024-07-13T08:29:22Z</time><src>Hikingbook</src><extensions><gpxhb:speed>0.000000</gpxhb:speed><gpxhb:course>246.796875</gpxhb:course></extensions></trkpt><trkpt lat="24.60268638508738" lon="121.10206253150064"><ele>620.0920494024879</ele><time>2024-07-13T08:29:38Z</time><src>Hikingbook</src><extensions><gpxhb:speed>0.000000</gpxhb:speed><gpxhb:course>-1.000000</gpxhb:course></extensions></trkpt><trkpt lat="24.602755067778613" lon="121.10230960568445"><ele>640.0703846142283</ele><time>2024-07-13T08:30:14Z</time><src>Hikingbook</src><extensions><gpxhb:speed>0.147262</gpxhb:speed><gpxhb:course>-1.000000</gpxhb:course></extensions></trkpt><trkpt lat="24.602900995706552" lon="121.1019827926248"><ele>642.9006730439415</ele><time>2024-07-13T08:30:52Z</time><src>Hikingbook</src><extensions><gpxhb:speed>0.863799</gpxhb:speed><gpxhb:course>-1.000000</gpxhb:course></extensions></trkpt><trkpt lat="24.60285320874609" lon="121.10201483018672"><ele>643.0296828105143</ele><time>2024-07-13T08:31:30Z</time><src>Hikingbook</src><extensions><gpxhb:speed>0.000000</gpxhb:speed><gpxhb:course>-1.000000</gpxhb:course></extensions></trkpt></trkseg><trkseg><trkpt lat="24.60285320874609" lon="121.10201483018672"><ele>643.0296828105143</ele><time>2024-07-13T08:34:41Z</time><src>Hikingbook</src><extensions><gpxhb:speed>0.000000</gpxhb:speed><gpxhb:course>-1.000000</gpxhb:course></extensions></trkpt><trkpt lat="24.602765205382806" lon="121.10208026535433"><ele>599.7640760221243</ele><time>2024-07-13T08:34:43Z</time><src>Hikingbook</src><extensions><gpxhb:speed>0.000000</gpxhb:speed><gpxhb:course>-1.000000</gpxhb:course></extensions></trkpt></trkseg><trkseg><trkpt lat="24.602765205382806" lon="121.10208026535433"><ele>599.7640760221243</ele><time>2024-07-13T08:40:34Z</time><src>Hikingbook</src><extensions><gpxhb:speed>0.000000</gpxhb:speed><gpxhb:course>-1.000000</gpxhb:course></extensions></trkpt><trkpt lat="24.602967396106585" lon="121.10199983754529"><ele>624.2452943717509</ele><time>2024-07-13T08:40:36Z</time><src>Hikingbook</src><extensions><gpxhb:speed>0.750000</gpxhb:speed><gpxhb:course>105.820312</gpxhb:course></extensions></trkpt><trkpt lat="24.602915006613788" lon="121.10207981345117"><ele>621.8045189994396</ele><time>2024-07-13T08:40:52Z</time><src>Hikingbook</src><extensions><gpxhb:speed>0.260000</gpxhb:speed><gpxhb:course>-1.000000</gpxhb:course></extensions></trkpt><trkpt lat="24.602971881904917" lon="121.1021908479081"><ele>631.4449147343038</ele><time>2024-07-13T08:41:24Z</time><src>Hikingbook</src><extensions><gpxhb:speed>0.536495</gpxhb:speed><gpxhb:course>-1.000000</gpxhb:course></extensions></trkpt><trkpt lat="24.603062031160476" lon="121.10202007674141"><ele>620.847177634228</ele><time>2024-07-13T08:41:48Z</time><src>Hikingbook</src><extensions><gpxhb:speed>0.956963</gpxhb:speed><gpxhb:course>-1.000000</gpxhb:course></extensions></trkpt><trkpt lat="24.602993255365828" lon="121.10238313399998"><ele>620.1012839704989</ele><time>2024-07-13T08:42:13Z</time><src>Hikingbook</src><extensions><gpxhb:speed>2.086466</gpxhb:speed><gpxhb:course>184.606087</gpxhb:course></extensions></trkpt><trkpt lat="24.603083333789858" lon="121.10222990157638"><ele>619.2260488916751</ele><time>2024-07-13T08:42:45Z</time><src>Hikingbook</src><extensions><gpxhb:speed>1.355224</gpxhb:speed><gpxhb:course>292.389180</gpxhb:course></extensions></trkpt><trkpt lat="24.60319740852303" lon="121.10219262397771"><ele>619.3177432400914</ele><time>2024-07-13T08:43:54Z</time><src>Hikingbook</src><extensions><gpxhb:speed>0.331777</gpxhb:speed><gpxhb:course>38.444491</gpxhb:course></extensions></trkpt><trkpt lat="24.603285804323285" lon="121.10229869554992"><ele>611.4802928062747</ele><time>2024-07-13T08:44:54Z</time><src>Hikingbook</src><extensions><gpxhb:speed>0.194840</gpxhb:speed><gpxhb:course>-1.000000</gpxhb:course></extensions></trkpt><trkpt lat="24.603563897175395" lon="121.10230208296365"><ele>598.7428852443296</ele><time>2024-07-13T08:47:51Z</time><src>Hikingbook</src><extensions><gpxhb:speed>0.839307</gpxhb:speed><gpxhb:course>332.891516</gpxhb:course></extensions></trkpt><trkpt lat="24.603644591662242" lon="121.1023821555003"><ele>591.7407055156963</ele><time>2024-07-13T08:48:44Z</time><src>Hikingbook</src><extensions><gpxhb:speed>0.080175</gpxhb:speed><gpxhb:course>352.755089</gpxhb:course></extensions></trkpt><trkpt lat="24.603652193354378" lon="121.10238122672472"><ele>592.4079575685848</ele><time>2024-07-13T08:48:46Z</time><src>Hikingbook</src><extensions><gpxhb:speed>0.021766</gpxhb:speed><gpxhb:course>352.755087</gpxhb:course></extensions></trkpt><trkpt lat="24.603696411218145" lon="121.10246057339891"><ele>584.7300981638205</ele><time>2024-07-13T08:49:41Z</time><src>Hikingbook</src><extensions><gpxhb:speed>0.940895</gpxhb:speed><gpxhb:course>1.635592</gpxhb:course></extensions></trkpt></trkseg></trk></gpx>