<?xml version="1.0" encoding="UTF-8"?>
<gpx version="1.1" creator="Hikingbook" xmlns:xsi="http://www.w3.org/2001/XMLSchema-instance" xmlns="http://www.topografix.com/GPX/1/1" xsi:schemaLocation="http://www.topografix.com/GPX/1/1 https://www.topografix.com/GPX/1/1/gpx.xsd https://hikingbook.net/xmlschemas/1/5 https:/hikingbook.net/xmlschemas/1/5/gpxhb.xsd" xmlns:gpxhb="https://hikingbook.net/xmlschemas/1/5"><metadata><name>2025-6-29 五重溪溪降</name><desc>使用 Hikingbook App 記錄，介面最好用，功能最完整，分享最方便！現已支援 iOS 與 Android 雙平臺。</desc><author><name>Hikingbook</name><link href="https://hikingbook.net"><text>Hikingbook</text></link></author><link href="https://hikingbook.net/hikes/2025-6-29-%E4%BA%94%E9%87%8D%E6%BA%AA%E6%BA%AA%E9%99%8D-8ad8ec4a"><text>Hikingbook</text></link><time>2026-07-12T20:39:15.897886452+08:00</time><keywords>Hikingbook</keywords><extensions><gpxhb:loadweight>3.0</gpxhb:loadweight><gpxhb:fitnesslevel>1</gpxhb:fitnesslevel><gpxhb:activitytype>hiking</gpxhb:activitytype><gpxhb:trackimageurl>https://assets.hikingbook.net/users/s12gft7osa64tvyavsfwna/rl8hnfgxr890nhc4vmztfdg/4562542e-4622-40b3-bf33-2299d3ae800e.jpg</gpxhb:trackimageurl><gpxhb:device>Apple iPhone 15 Pro Max</gpxhb:device><gpxhb:source>Hikingbook</gpxhb:source></extensions></metadata><wpt lat="24.821070990618047" lon="121.50919644036925"><ele>638</ele><time>2025-06-29T03:15:38Z</time><name>00 第一瀑布</name><cmt>2025-06-29T11:15:38+08:00</cmt><desc>00 第一瀑布</desc><src>Hikingbook</src><link href="https://hikingbook.net/hikes/RL8HNFGxR890nHC4VmZtfDg"><text>Hikingbook</text></link><extensions><gpxhb:weather>Clear</gpxhb:weather><gpxhb:speed>0.018869</gpxhb:speed><gpxhb:course>156.813193</gpxhb:course></extensions></wpt><wpt lat="24.82060205443012" lon="121.50933995799012"><ele>603</ele><time>2025-06-29T03:43:05Z</time><name>01 第二瀑布</name><cmt>2025-06-29T11:43:05+08:00</cmt><desc>01 第二瀑布</desc><src>Hikingbook</src><link href="https://hikingbook.net/hikes/RL8HNFGxR890nHC4VmZtfDg"><text>Hikingbook</text></link><extensions><gpxhb:weather>Clear</gpxhb:weather><gpxhb:speed>0.023034</gpxhb:speed><gpxhb:course>-1.000000</gpxhb:course></extensions></wpt><wpt lat="24.819397748724004" lon="121.51081828577607"><ele>583</ele><time>2025-06-29T05:13:27Z</time><name>02 第三瀑布</name><cmt>2025-06-29T13:13:27+08:00</cmt><desc>02 第三瀑布</desc><src>Hikingbook</src><link href="https://hikingbook.net/hikes/RL8HNFGxR890nHC4VmZtfDg"><text>Hikingbook</text></link><extensions><gpxhb:weather>Clear</gpxhb:weather><gpxhb:speed>0.032268</gpxhb:speed><gpxhb:course>289.216115</gpxhb:course></extensions></wpt><wpt lat="24.81942150452344" lon="121.51225736877643"><ele>1132</ele><time>2025-06-29T05:37:00Z</time><name>03 第五瀑布</name><cmt>2025-06-29T13:37:00+08:00</cmt><desc>03 第五瀑布</desc><src>Hikingbook</src><link href="https://hikingbook.net/hikes/RL8HNFGxR890nHC4VmZtfDg"><text>Hikingbook</text></link><extensions><gpxhb:weather>Clear</gpxhb:weather><gpxhb:speed>0.242929</gpxhb:speed><gpxhb:course>240.683535</gpxhb:course></extensions></wpt><wpt lat="24.819713150082173" lon="121.51355337776782"><ele>523</ele><time>2025-06-29T07:18:17Z</time><name>04 第六不瀑布</name><cmt>2025-06-29T15:18:17+08:00</cmt><desc>04 第六不瀑布</desc><src>Hikingbook</src><link href="https://hikingbook.net/hikes/RL8HNFGxR890nHC4VmZtfDg"><text>Hikingbook</text></link><extensions><gpxhb:weather>Clear</gpxhb:weather><gpxhb:speed>0.073231</gpxhb:speed><gpxhb:course>14.487983</gpxhb:course></extensions></wpt><wpt lat="24.81973620444045" lon="121.51375268445858"><ele>498</ele><time>2025-06-29T08:36:55Z</time><name>05 第七瀑布</name><cmt>2025-06-29T16:36:55+08:00</cmt><desc>05 第七瀑布</desc><src>Hikingbook</src><link href="https://hikingbook.net/hikes/RL8HNFGxR890nHC4VmZtfDg"><text>Hikingbook</text></link><extensions><gpxhb:weather>Clear</gpxhb:weather><gpxhb:speed>0.045677</gpxhb:speed><gpxhb:course>-1.000000</gpxhb:course></extensions></wpt><wpt lat="24.81997168908218" lon="121.51388882202505"><ele>444</ele><time>2025-06-29T09:29:46Z</time><name>06 第八瀑布</name><cmt>2025-06-29T17:29:46+08:00</cmt><desc>06 第八瀑布</desc><src>Hikingbook</src><link href="https://hikingbook.net/hikes/RL8HNFGxR890nHC4VmZtfDg"><text>Hikingbook</text></link><extensions><gpxhb:weather>Clear</gpxhb:weather><gpxhb:speed>0.429915</gpxhb:speed><gpxhb:course>141.393461</gpxhb:course></extensions></wpt><wpt lat="24.819979194341165" lon="121.51392607059266"><ele>458</ele><time>2025-06-29T09:40:47Z</time><name>07 第九瀑布</name><cmt>2025-06-29T17:40:47+08:00</cmt><desc>07 第九瀑布</desc><src>Hikingbook</src><link href="https://hikingbook.net/hikes/RL8HNFGxR890nHC4VmZtfDg"><text>Hikingbook</text></link><extensions><gpxhb:weather>Clear</gpxhb:weather><gpxhb:speed>0.000000</gpxhb:speed><gpxhb:course>66.566532</gpxhb:course></extensions></wpt><wpt lat="24.82012029101568" lon="121.51603955728118"><ele>423</ele><time>2025-06-29T11:37:47Z</time><name>08 暫停記錄</name><cmt>2025-06-29T19:37:47+08:00</cmt><desc>08 暫停記錄</desc><src>Hikingbook</src><link href="https://hikingbook.net/hikes/RL8HNFGxR890nHC4VmZtfDg"><text>Hikingbook</text></link><extensions><gpxhb:weather>Clear</gpxhb:weather><gpxhb:speed>6.293662</gpxhb:speed><gpxhb:course>75.854944</gpxhb:course></extensions></wpt><trk><name>2025-6-29 五重溪溪降</name><cmt>使用 Hikingbook App 記錄，介面最好用，功能最完整，分享最方便！現已支援 iOS 與 Android 雙平臺。</cmt><desc>使用 Hikingbook App 記錄，介面最好用，功能最完整，分享最方便！現已支援 iOS 與 Android 雙平臺。</desc><src>Hikingbook</src><link href="https://hikingbook.net/hikes/2025-6-29-%E4%BA%94%E9%87%8D%E6%BA%AA%E6%BA%AA%E9%99%8D-8ad8ec4a"><text>Hikingbook</text></link><trkseg><trkpt lat="24.82280990641023" lon="121.50805835497428"><ele>705.6882897690533</ele><time>2025-06-29T02:37:11Z</time><src>Hikingbook</src><extensions><gpxhb:speed>0.000000</gpxhb:speed><gpxhb:course>-1.000000</gpxhb:course></extensions></trkpt><trkpt lat="24.822583650564827" lon="121.50763541809351"><ele>699.0986246173774</ele><time>2025-06-29T02:38:06Z</time><src>Hikingbook</src><extensions><gpxhb:speed>1.053430</gpxhb:speed><gpxhb:course>225.204288</gpxhb:course></extensions></trkpt><trkpt lat="24.822375160441844" lon="121.50755176009656"><ele>696.7760735365092</ele><time>2025-06-29T02:38:33Z</time><src>Hikingbook</src><extensions><gpxhb:speed>1.729535</gpxhb:speed><gpxhb:course>195.369933</gpxhb:course></extensions></trkpt><trkpt lat="24.822109983348028" lon="121.50868404690272"><ele>674.3061481109518</ele><time>2025-06-29T02:40:29Z</time><src>Hikingbook</src><extensions><gpxhb:speed>1.004753</gpxhb:speed><gpxhb:course>110.047640</gpxhb:course></extensions></trkpt><trkpt lat="24.82210535660601" lon="121.50869269390728"><ele>674.2149997973021</ele><time>2025-06-29T02:40:30Z</time><src>Hikingbook</src><extensions><gpxhb:speed>0.674601</gpxhb:speed><gpxhb:course>111.762138</gpxhb:course></extensions></trkpt><trkpt lat="24.821780342434092" lon="121.50943774575835"><ele>648.7675774328583</ele><time>2025-06-29T02:42:13Z</time><src>Hikingbook</src><extensions><gpxhb:speed>0.799871</gpxhb:speed><gpxhb:course>120.635015</gpxhb:course></extensions></trkpt><trkpt lat="24.821647522745838" lon="121.50955193824545"><ele>651.8832355469973</ele><time>2025-06-29T02:42:30Z</time><src>Hikingbook</src><extensions><gpxhb:speed>0.628465</gpxhb:speed><gpxhb:course>137.880776</gpxhb:course></extensions></trkpt><trkpt lat="24.821638766631903" lon="121.509558222858"><ele>651.7427248588016</ele><time>2025-06-29T02:42:31Z</time><src>Hikingbook</src><extensions><gpxhb:speed>0.710589</gpxhb:speed><gpxhb:course>137.329920</gpxhb:course></extensions></trkpt><trkpt lat="24.821574200341253" lon="121.50958133274634"><ele>654.2535422836708</ele><time>2025-06-29T02:42:41Z</time><src>Hikingbook</src><extensions><gpxhb:speed>0.100765</gpxhb:speed><gpxhb:course>-1.000000</gpxhb:course></extensions></trkpt><trkpt lat="24.821612556991024" lon="121.5095950430579"><ele>648.5330899561934</ele><time>2025-06-29T02:43:30Z</time><src>Hikingbook</src><extensions><gpxhb:speed>0.275502</gpxhb:speed><gpxhb:course>30.621240</gpxhb:course></extensions></trkpt><trkpt lat="24.821651163092366" lon="121.50918972702893"><ele>644.4084733922822</ele><time>2025-06-29T02:44:51Z</time><src>Hikingbook</src><extensions><gpxhb:speed>0.940341</gpxhb:speed><gpxhb:course>291.994077</gpxhb:course></extensions></trkpt><trkpt lat="24.821573091030423" lon="121.50853622897232"><ele>627.2771443004376</ele><time>2025-06-29T02:46:46Z</time><src>Hikingbook</src><extensions><gpxhb:speed>0.294138</gpxhb:speed><gpxhb:course>285.124398</gpxhb:course></extensions></trkpt><trkpt lat="24.821574763175832" lon="121.50853046393979"><ele>626.8712549698599</ele><time>2025-06-29T02:46:47Z</time><src>Hikingbook</src><extensions><gpxhb:speed>0.375793</gpxhb:speed><gpxhb:course>293.421792</gpxhb:course></extensions></trkpt><trkpt lat="24.821371117531495" lon="121.50844482695273"><ele>628.5289120717315</ele><time>2025-06-29T02:47:39Z</time><src>Hikingbook</src><extensions><gpxhb:speed>0.468337</gpxhb:speed><gpxhb:course>171.264919</gpxhb:course></extensions></trkpt><trkpt lat="24.821408168724176" lon="121.50837283160551"><ele>627.8239017500774</ele><time>2025-06-29T02:48:08Z</time><src>Hikingbook</src><extensions><gpxhb:speed>0.951003</gpxhb:speed><gpxhb:course>266.563457</gpxhb:course></extensions></trkpt><trkpt lat="24.82128515182071" lon="121.5084012857785"><ele>626.9752727300454</ele><time>2025-06-29T02:48:49Z</time><src>Hikingbook</src><extensions><gpxhb:speed>0.385957</gpxhb:speed><gpxhb:course>-1.000000</gpxhb:course></extensions></trkpt><trkpt lat="24.821429585489547" lon="121.50887988535534"><ele>621.2841153913062</ele><time>2025-06-29T02:53:59Z</time><src>Hikingbook</src><extensions><gpxhb:speed>0.904489</gpxhb:speed><gpxhb:course>85.300069</gpxhb:course></extensions></trkpt><trkpt lat="24.821347940765953" lon="121.50894098380691"><ele>617.5976197089071</ele><time>2025-06-29T02:54:22Z</time><src>Hikingbook</src><extensions><gpxhb:speed>1.629970</gpxhb:speed><gpxhb:course>-1.000000</gpxhb:course></extensions></trkpt><trkpt lat="24.82137948009178" lon="121.50900624149921"><ele>634.4181656173114</ele><time>2025-06-29T02:54:38Z</time><src>Hikingbook</src><extensions><gpxhb:speed>0.577099</gpxhb:speed><gpxhb:course>185.302098</gpxhb:course></extensions></trkpt><trkpt lat="24.821300802816996" lon="121.50912576742469"><ele>621.5610443675869</ele><time>2025-06-29T02:55:17Z</time><src>Hikingbook</src><extensions><gpxhb:speed>0.000000</gpxhb:speed><gpxhb:course>85.283423</gpxhb:course></extensions></trkpt><trkpt lat="24.82106877940451" lon="121.50936272155533"><ele>619.5234215834906</ele><time>2025-06-29T02:58:49Z</time><src>Hikingbook</src><extensions><gpxhb:speed>0.209038</gpxhb:speed><gpxhb:course>-1.000000</gpxhb:course></extensions></trkpt><trkpt lat="24.821062498543917" lon="121.50936467476429"><ele>618.4920060831682</ele><time>2025-06-29T02:58:51Z</time><src>Hikingbook</src><extensions><gpxhb:speed>0.100185</gpxhb:speed><gpxhb:course>-1.000000</gpxhb:course></extensions></trkpt><trkpt lat="24.821050032042486" lon="121.50930191243295"><ele>617.3417985208214</ele><time>2025-06-29T03:00:27Z</time><src>Hikingbook</src><extensions><gpxhb:speed>0.077888</gpxhb:speed><gpxhb:course>-1.000000</gpxhb:course></extensions></trkpt><trkpt lat="24.82116487479466" lon="121.50938574013948"><ele>624.7207113577904</ele><time>2025-06-29T03:04:57Z</time><src>Hikingbook</src><extensions><gpxhb:speed>0.000000</gpxhb:speed><gpxhb:course>217.932395</gpxhb:course></extensions></trkpt><trkpt lat="24.820985869440133" lon="121.50930681991659"><ele>623.6363677614902</ele><time>2025-06-29T03:12:26Z</time><src>Hikingbook</src><extensions><gpxhb:speed>0.000000</gpxhb:speed><gpxhb:course>-1.000000</gpxhb:course></extensions></trkpt><trkpt lat="24.821011561738562" lon="121.50926695279624"><ele>626.718998251646</ele><time>2025-06-29T03:13:16Z</time><src>Hikingbook</src><extensions><gpxhb:speed>0.000000</gpxhb:speed><gpxhb:course>-1.000000</gpxhb:course></extensions></trkpt><trkpt lat="24.821077404855334" lon="121.50934203169176"><ele>628.9341009032681</ele><time>2025-06-29T03:15:22Z</time><src>Hikingbook</src><extensions><gpxhb:speed>0.000000</gpxhb:speed><gpxhb:course>-1.000000</gpxhb:course></extensions></trkpt><trkpt lat="24.821047879044325" lon="121.5092201225599"><ele>627.9597124621846</ele><time>2025-06-29T03:16:10Z</time><src>Hikingbook</src><extensions><gpxhb:speed>0.000000</gpxhb:speed><gpxhb:course>156.813208</gpxhb:course></extensions></trkpt><trkpt lat="24.821078012307726" lon="121.50936794075785"><ele>625.6800863869648</ele><time>2025-06-29T03:16:54Z</time><src>Hikingbook</src><extensions><gpxhb:speed>0.346462</gpxhb:speed><gpxhb:course>-1.000000</gpxhb:course></extensions></trkpt><trkpt lat="24.821068855763585" lon="121.50928705976025"><ele>632.7742235068857</ele><time>2025-06-29T03:17:28Z</time><src>Hikingbook</src><extensions><gpxhb:speed>0.104536</gpxhb:speed><gpxhb:course>267.900865</gpxhb:course></extensions></trkpt><trkpt lat="24.820960541559916" lon="121.50928750907913"><ele>614.6951846237579</ele><time>2025-06-29T03:27:28Z</time><src>Hikingbook</src><extensions><gpxhb:speed>0.646013</gpxhb:speed><gpxhb:course>235.635202</gpxhb:course></extensions></trkpt><trkpt lat="24.82090266525475" lon="121.50940231929995"><ele>611.225966023479</ele><time>2025-06-29T03:27:44Z</time><src>Hikingbook</src><extensions><gpxhb:speed>0.283545</gpxhb:speed><gpxhb:course>-1.000000</gpxhb:course></extensions></trkpt><trkpt lat="24.82085988286514" lon="121.509371543962"><ele>605.8449130833937</ele><time>2025-06-29T03:28:02Z</time><src>Hikingbook</src><extensions><gpxhb:speed>0.344209</gpxhb:speed><gpxhb:course>221.167146</gpxhb:course></extensions></trkpt><trkpt lat="24.8207101133058" lon="121.50948242261808"><ele>622.6279913311342</ele><time>2025-06-29T03:28:26Z</time><src>Hikingbook</src><extensions><gpxhb:speed>1.397737</gpxhb:speed><gpxhb:course>74.567599</gpxhb:course></extensions></trkpt><trkpt lat="24.820760775158277" lon="121.50966510008246"><ele>627.0472693838427</ele><time>2025-06-29T03:28:52Z</time><src>Hikingbook</src><extensions><gpxhb:speed>0.936672</gpxhb:speed><gpxhb:course>76.210991</gpxhb:course></extensions></trkpt><trkpt lat="24.820704625904163" lon="121.50947398337713"><ele>616.6744820863029</ele><time>2025-06-29T03:29:29Z</time><src>Hikingbook</src><extensions><gpxhb:speed>0.199189</gpxhb:speed><gpxhb:course>-1.000000</gpxhb:course></extensions></trkpt><trkpt lat="24.820746588477952" lon="121.50927314986767"><ele>631.3332464270591</ele><time>2025-06-29T03:34:16Z</time><src>Hikingbook</src><extensions><gpxhb:speed>0.000000</gpxhb:speed><gpxhb:course>75.477694</gpxhb:course></extensions></trkpt><trkpt lat="24.82069103615647" lon="121.50933937424819"><ele>633.4366105285502</ele><time>2025-06-29T03:36:39Z</time><src>Hikingbook</src><extensions><gpxhb:speed>0.000000</gpxhb:speed><gpxhb:course>-1.000000</gpxhb:course></extensions></trkpt><trkpt lat="24.820591985272223" lon="121.50926003238797"><ele>605.7681278514839</ele><time>2025-06-29T03:40:00Z</time><src>Hikingbook</src><extensions><gpxhb:speed>1.101912</gpxhb:speed><gpxhb:course>89.869363</gpxhb:course></extensions></trkpt><trkpt lat="24.82056036436582" lon="121.50934204679754"><ele>597.698010651187</ele><time>2025-06-29T03:41:41Z</time><src>Hikingbook</src><extensions><gpxhb:speed>0.021527</gpxhb:speed><gpxhb:course>228.343918</gpxhb:course></extensions></trkpt><trkpt lat="24.820604700626614" lon="121.50939337614106"><ele>604.3648128809594</ele><time>2025-06-29T03:44:39Z</time><src>Hikingbook</src><extensions><gpxhb:speed>0.000000</gpxhb:speed><gpxhb:course>293.645002</gpxhb:course></extensions></trkpt><trkpt lat="24.820612561308323" lon="121.50934911625289"><ele>604.1981576295782</ele><time>2025-06-29T03:46:10Z</time><src>Hikingbook</src><extensions><gpxhb:speed>0.372785</gpxhb:speed><gpxhb:course>335.679024</gpxhb:course></extensions></trkpt><trkpt lat="24.820619024821024" lon="121.50946208816774"><ele>603.8533193740619</ele><time>2025-06-29T03:51:58Z</time><src>Hikingbook</src><extensions><gpxhb:speed>0.126489</gpxhb:speed><gpxhb:course>83.122529</gpxhb:course></extensions></trkpt><trkpt lat="24.820579452968946" lon="121.50936421059879"><ele>598.6700046883591</ele><time>2025-06-29T03:54:26Z</time><src>Hikingbook</src><extensions><gpxhb:speed>0.096882</gpxhb:speed><gpxhb:course>-1.000000</gpxhb:course></extensions></trkpt><trkpt lat="24.820500967314167" lon="121.50937930795352"><ele>605.9100335868343</ele><time>2025-06-29T03:55:40Z</time><src>Hikingbook</src><extensions><gpxhb:speed>0.000000</gpxhb:speed><gpxhb:course>-1.000000</gpxhb:course></extensions></trkpt><trkpt lat="24.82046607291229" lon="121.50945759042133"><ele>604.2578737989778</ele><time>2025-06-29T03:56:39Z</time><src>Hikingbook</src><extensions><gpxhb:speed>0.399288</gpxhb:speed><gpxhb:course>137.250939</gpxhb:course></extensions></trkpt><trkpt lat="24.8203724368815" lon="121.5094778232546"><ele>608.6897219605065</ele><time>2025-06-29T03:57:24Z</time><src>Hikingbook</src><extensions><gpxhb:speed>0.649818</gpxhb:speed><gpxhb:course>-1.000000</gpxhb:course></extensions></trkpt><trkpt lat="24.820430224669483" lon="121.50954923753369"><ele>604.1570472936696</ele><time>2025-06-29T03:59:59Z</time><src>Hikingbook</src><extensions><gpxhb:speed>1.593130</gpxhb:speed><gpxhb:course>-1.000000</gpxhb:course></extensions></trkpt><trkpt lat="24.820406074953016" lon="121.50949040087006"><ele>612.3460464113119</ele><time>2025-06-29T04:00:18Z</time><src>Hikingbook</src><extensions><gpxhb:speed>0.762363</gpxhb:speed><gpxhb:course>217.616337</gpxhb:course></extensions></trkpt><trkpt lat="24.82028919688532" lon="121.50949224263292"><ele>597.3815447200097</ele><time>2025-06-29T04:01:58Z</time><src>Hikingbook</src><extensions><gpxhb:speed>0.238578</gpxhb:speed><gpxhb:course>148.639006</gpxhb:course></extensions></trkpt><trkpt lat="24.820233695712222" lon="121.50957802309954"><ele>603.1606570769396</ele><time>2025-06-29T04:02:38Z</time><src>Hikingbook</src><extensions><gpxhb:speed>0.014024</gpxhb:speed><gpxhb:course>-1.000000</gpxhb:course></extensions></trkpt><trkpt lat="24.820231330878944" lon="121.50948080619753"><ele>605.6832404669647</ele><time>2025-06-29T04:03:18Z</time><src>Hikingbook</src><extensions><gpxhb:speed>0.766106</gpxhb:speed><gpxhb:course>-1.000000</gpxhb:course></extensions></trkpt><trkpt lat="24.820182319199944" lon="121.50951849653167"><ele>599.776477993412</ele><time>2025-06-29T04:03:43Z</time><src>Hikingbook</src><extensions><gpxhb:speed>0.690156</gpxhb:speed><gpxhb:course>108.301403</gpxhb:course></extensions></trkpt><trkpt lat="24.82018157081779" lon="121.50953156975544"><ele>599.4727839640875</ele><time>2025-06-29T04:03:44Z</time><src>Hikingbook</src><extensions><gpxhb:speed>1.198217</gpxhb:speed><gpxhb:course>98.290884</gpxhb:course></extensions></trkpt><trkpt lat="24.820059547503554" lon="121.50964234582526"><ele>592.5208682805719</ele><time>2025-06-29T04:04:24Z</time><src>Hikingbook</src><extensions><gpxhb:speed>0.662053</gpxhb:speed><gpxhb:course>-1.000000</gpxhb:course></extensions></trkpt><trkpt lat="24.820050349258416" lon="121.50953694110329"><ele>589.5103674109534</ele><time>2025-06-29T04:04:47Z</time><src>Hikingbook</src><extensions><gpxhb:speed>1.312323</gpxhb:speed><gpxhb:course>245.354397</gpxhb:course></extensions></trkpt><trkpt lat="24.81990829795922" lon="121.5095994929662"><ele>597.6112012258966</ele><time>2025-06-29T04:05:26Z</time><src>Hikingbook</src><extensions><gpxhb:speed>0.100027</gpxhb:speed><gpxhb:course>133.437763</gpxhb:course></extensions></trkpt><trkpt lat="24.819798169447463" lon="121.5095401341662"><ele>583.1240091555645</ele><time>2025-06-29T04:05:59Z</time><src>Hikingbook</src><extensions><gpxhb:speed>1.791373</gpxhb:speed><gpxhb:course>-1.000000</gpxhb:course></extensions></trkpt><trkpt lat="24.819771498600513" lon="121.50966648102369"><ele>598.2317695910409</ele><time>2025-06-29T04:06:15Z</time><src>Hikingbook</src><extensions><gpxhb:speed>0.656493</gpxhb:speed><gpxhb:course>-1.000000</gpxhb:course></extensions></trkpt><trkpt lat="24.81960308283428" lon="121.50975528704697"><ele>598.6536088835608</ele><time>2025-06-29T04:08:13Z</time><src>Hikingbook</src><extensions><gpxhb:speed>0.608320</gpxhb:speed><gpxhb:course>202.264568</gpxhb:course></extensions></trkpt><trkpt lat="24.819569732884442" lon="121.50988125681387"><ele>598.6797858448061</ele><time>2025-06-29T04:08:58Z</time><src>Hikingbook</src><extensions><gpxhb:speed>0.343506</gpxhb:speed><gpxhb:course>85.463878</gpxhb:course></extensions></trkpt><trkpt lat="24.819506183402538" lon="121.50987368976266"><ele>603.7956426154252</ele><time>2025-06-29T04:09:16Z</time><src>Hikingbook</src><extensions><gpxhb:speed>0.565765</gpxhb:speed><gpxhb:course>122.250258</gpxhb:course></extensions></trkpt><trkpt lat="24.81953450644386" lon="121.50996935683072"><ele>599.3125587302413</ele><time>2025-06-29T04:09:44Z</time><src>Hikingbook</src><extensions><gpxhb:speed>2.611594</gpxhb:speed><gpxhb:course>-1.000000</gpxhb:course></extensions></trkpt><trkpt lat="24.819388878821684" lon="121.51008439702946"><ele>591.1123989120564</ele><time>2025-06-29T04:10:42Z</time><src>Hikingbook</src><extensions><gpxhb:speed>0.907006</gpxhb:speed><gpxhb:course>161.691961</gpxhb:course></extensions></trkpt><trkpt lat="24.819371567786575" lon="121.51009412991453"><ele>591.9530421801669</ele><time>2025-06-29T04:10:44Z</time><src>Hikingbook</src><extensions><gpxhb:speed>0.468543</gpxhb:speed><gpxhb:course>144.287231</gpxhb:course></extensions></trkpt><trkpt lat="24.819297860121274" lon="121.51017467248937"><ele>607.012253562681</ele><time>2025-06-29T04:11:00Z</time><src>Hikingbook</src><extensions><gpxhb:speed>1.247690</gpxhb:speed><gpxhb:course>113.194600</gpxhb:course></extensions></trkpt><trkpt lat="24.81933782369382" lon="121.51019618984151"><ele>602.430137085766</ele><time>2025-06-29T04:11:16Z</time><src>Hikingbook</src><extensions><gpxhb:speed>0.352875</gpxhb:speed><gpxhb:course>62.290331</gpxhb:course></extensions></trkpt><trkpt lat="24.81932599406019" lon="121.51012605361711"><ele>595.9966378622171</ele><time>2025-06-29T04:11:32Z</time><src>Hikingbook</src><extensions><gpxhb:speed>0.332546</gpxhb:speed><gpxhb:course>26.685472</gpxhb:course></extensions></trkpt><trkpt lat="24.819246228116274" lon="121.51022780623717"><ele>592.6537556548193</ele><time>2025-06-29T04:13:23Z</time><src>Hikingbook</src><extensions><gpxhb:speed>0.431758</gpxhb:speed><gpxhb:course>103.095028</gpxhb:course></extensions></trkpt><trkpt lat="24.819165779562315" lon="121.51015896436711"><ele>577.3485936794119</ele><time>2025-06-29T04:13:39Z</time><src>Hikingbook</src><extensions><gpxhb:speed>0.579080</gpxhb:speed><gpxhb:course>268.455470</gpxhb:course></extensions></trkpt><trkpt lat="24.81918899267081" lon="121.51030609760157"><ele>579.8442953456777</ele><time>2025-06-29T04:14:01Z</time><src>Hikingbook</src><extensions><gpxhb:speed>1.034864</gpxhb:speed><gpxhb:course>71.424445</gpxhb:course></extensions></trkpt><trkpt lat="24.819280171749014" lon="121.51026413727686"><ele>567.5702221605295</ele><time>2025-06-29T04:14:43Z</time><src>Hikingbook</src><extensions><gpxhb:speed>0.830335</gpxhb:speed><gpxhb:course>319.074490</gpxhb:course></extensions></trkpt><trkpt lat="24.819201153758772" lon="121.51066660956695"><ele>582.3591872724944</ele><time>2025-06-29T04:16:14Z</time><src>Hikingbook</src><extensions><gpxhb:speed>0.114968</gpxhb:speed><gpxhb:course>-1.000000</gpxhb:course></extensions></trkpt><trkpt lat="24.81926288444789" lon="121.51051507648873"><ele>561.9867983550339</ele><time>2025-06-29T04:16:55Z</time><src>Hikingbook</src><extensions><gpxhb:speed>1.432477</gpxhb:speed><gpxhb:course>287.048058</gpxhb:course></extensions></trkpt><trkpt lat="24.819284984222005" lon="121.51065823479347"><ele>575.3804523075343</ele><time>2025-06-29T04:17:24Z</time><src>Hikingbook</src><extensions><gpxhb:speed>0.109879</gpxhb:speed><gpxhb:course>-1.000000</gpxhb:course></extensions></trkpt><trkpt lat="24.819321106531202" lon="121.51060889177919"><ele>574.0764136389204</ele><time>2025-06-29T04:17:40Z</time><src>Hikingbook</src><extensions><gpxhb:speed>0.000000</gpxhb:speed><gpxhb:course>-1.000000</gpxhb:course></extensions></trkpt><trkpt lat="24.819232798303904" lon="121.51073877493513"><ele>576.859104372809</ele><time>2025-06-29T04:19:47Z</time><src>Hikingbook</src><extensions><gpxhb:speed>0.587720</gpxhb:speed><gpxhb:course>159.959174</gpxhb:course></extensions></trkpt><trkpt lat="24.819322363096163" lon="121.51080932213097"><ele>580.1478510317015</ele><time>2025-06-29T04:20:34Z</time><src>Hikingbook</src><extensions><gpxhb:speed>0.588964</gpxhb:speed><gpxhb:course>16.801287</gpxhb:course></extensions></trkpt><trkpt lat="24.819265266995302" lon="121.51079494350543"><ele>574.8449295364353</ele><time>2025-06-29T04:21:13Z</time><src>Hikingbook</src><extensions><gpxhb:speed>0.000000</gpxhb:speed><gpxhb:course>-1.000000</gpxhb:course></extensions></trkpt><trkpt lat="24.819394886405497" lon="121.51073865603385"><ele>575.0879377976096</ele><time>2025-06-29T04:25:25Z</time><src>Hikingbook</src><extensions><gpxhb:speed>1.030598</gpxhb:speed><gpxhb:course>-1.000000</gpxhb:course></extensions></trkpt><trkpt lat="24.81923230159966" lon="121.51079683948089"><ele>571.1140545965219</ele><time>2025-06-29T04:31:07Z</time><src>Hikingbook</src><extensions><gpxhb:speed>0.000000</gpxhb:speed><gpxhb:course>72.938732</gpxhb:course></extensions></trkpt><trkpt lat="24.81937876239261" lon="121.51081016523206"><ele>573.0811083068156</ele><time>2025-06-29T04:33:24Z</time><src>Hikingbook</src><extensions><gpxhb:speed>0.018532</gpxhb:speed><gpxhb:course>-1.000000</gpxhb:course></extensions></trkpt><trkpt lat="24.819459222023383" lon="121.510870235499"><ele>576.6552163129578</ele><time>2025-06-29T04:35:57Z</time><src>Hikingbook</src><extensions><gpxhb:speed>0.011564</gpxhb:speed><gpxhb:course>343.171744</gpxhb:course></extensions></trkpt><trkpt lat="24.819342691229682" lon="121.510930202998"><ele>587.0134422197789</ele><time>2025-06-29T04:36:48Z</time><src>Hikingbook</src><extensions><gpxhb:speed>1.314321</gpxhb:speed><gpxhb:course>-1.000000</gpxhb:course></extensions></trkpt><trkpt lat="24.81933120830961" lon="121.51086573938764"><ele>581.9596836444482</ele><time>2025-06-29T04:40:31Z</time><src>Hikingbook</src><extensions><gpxhb:speed>0.664437</gpxhb:speed><gpxhb:course>189.749850</gpxhb:course></extensions></trkpt><trkpt lat="24.81944014687857" lon="121.51093763387254"><ele>583.6503352131099</ele><time>2025-06-29T04:42:04Z</time><src>Hikingbook</src><extensions><gpxhb:speed>0.020894</gpxhb:speed><gpxhb:course>-1.000000</gpxhb:course></extensions></trkpt><trkpt lat="24.819443895502246" lon="121.510866852196"><ele>574.6588310817822</ele><time>2025-06-29T04:42:35Z</time><src>Hikingbook</src><extensions><gpxhb:speed>0.046391</gpxhb:speed><gpxhb:course>-1.000000</gpxhb:course></extensions></trkpt><trkpt lat="24.819310902271347" lon="121.51081496965465"><ele>575.1816088647209</ele><time>2025-06-29T04:43:46Z</time><src>Hikingbook</src><extensions><gpxhb:speed>0.299600</gpxhb:speed><gpxhb:course>-1.000000</gpxhb:course></extensions></trkpt><trkpt lat="24.819300311653873" lon="121.51086369836747"><ele>577.8272715367677</ele><time>2025-06-29T04:44:21Z</time><src>Hikingbook</src><extensions><gpxhb:speed>0.000000</gpxhb:speed><gpxhb:course>-1.000000</gpxhb:course></extensions></trkpt><trkpt lat="24.81936668674376" lon="121.51087466374267"><ele>578.6408607270656</ele><time>2025-06-29T04:45:34Z</time><src>Hikingbook</src><extensions><gpxhb:speed>0.000000</gpxhb:speed><gpxhb:course>-1.000000</gpxhb:course></extensions></trkpt><trkpt lat="24.819322690508784" lon="121.51082185671439"><ele>577.9857923891351</ele><time>2025-06-29T04:46:40Z</time><src>Hikingbook</src><extensions><gpxhb:speed>0.053568</gpxhb:speed><gpxhb:course>264.306920</gpxhb:course></extensions></trkpt><trkpt lat="24.819321511691513" lon="121.51088531947009"><ele>577.2827303278541</ele><time>2025-06-29T04:50:11Z</time><src>Hikingbook</src><extensions><gpxhb:speed>0.000000</gpxhb:speed><gpxhb:course>301.324467</gpxhb:course></extensions></trkpt><trkpt lat="24.81935370476676" lon="121.51081812482029"><ele>570.9529474871669</ele><time>2025-06-29T04:52:47Z</time><src>Hikingbook</src><extensions><gpxhb:speed>0.045144</gpxhb:speed><gpxhb:course>-1.000000</gpxhb:course></extensions></trkpt><trkpt lat="24.81929248235331" lon="121.51090014176324"><ele>577.6206202744769</ele><time>2025-06-29T04:57:39Z</time><src>Hikingbook</src><extensions><gpxhb:speed>0.000000</gpxhb:speed><gpxhb:course>-1.000000</gpxhb:course></extensions></trkpt><trkpt lat="24.81928630662213" lon="121.51077277157141"><ele>574.5096319726774</ele><time>2025-06-29T05:04:27Z</time><src>Hikingbook</src><extensions><gpxhb:speed>0.000000</gpxhb:speed><gpxhb:course>-1.000000</gpxhb:course></extensions></trkpt><trkpt lat="24.819471436433385" lon="121.51097179971302"><ele>617.7832843119643</ele><time>2025-06-29T05:16:06Z</time><src>Hikingbook</src><extensions><gpxhb:speed>1.299086</gpxhb:speed><gpxhb:course>-1.000000</gpxhb:course></extensions></trkpt><trkpt lat="24.819352269306947" lon="121.51088589059808"><ele>563.1179325948373</ele><time>2025-06-29T05:17:47Z</time><src>Hikingbook</src><extensions><gpxhb:speed>2.423680</gpxhb:speed><gpxhb:course>-1.000000</gpxhb:course></extensions></trkpt><trkpt lat="24.819385175220273" lon="121.51094128984705"><ele>568.757804446353</ele><time>2025-06-29T05:20:25Z</time><src>Hikingbook</src><extensions><gpxhb:speed>1.257472</gpxhb:speed><gpxhb:course>-1.000000</gpxhb:course></extensions></trkpt><trkpt lat="24.81924520386288" lon="121.51107856657464"><ele>570.8175442931786</ele><time>2025-06-29T05:21:22Z</time><src>Hikingbook</src><extensions><gpxhb:speed>0.731687</gpxhb:speed><gpxhb:course>143.553940</gpxhb:course></extensions></trkpt><trkpt lat="24.81926483847177" lon="121.51110946708057"><ele>566.9210930392481</ele><time>2025-06-29T05:21:38Z</time><src>Hikingbook</src><extensions><gpxhb:speed>0.039040</gpxhb:speed><gpxhb:course>78.566329</gpxhb:course></extensions></trkpt><trkpt lat="24.819347276632875" lon="121.51108951857648"><ele>565.7119682908819</ele><time>2025-06-29T05:21:54Z</time><src>Hikingbook</src><extensions><gpxhb:speed>0.093826</gpxhb:speed><gpxhb:course>-1.000000</gpxhb:course></extensions></trkpt><trkpt lat="24.819208542480137" lon="121.511209650869"><ele>566.2230950831424</ele><time>2025-06-29T05:23:22Z</time><src>Hikingbook</src><extensions><gpxhb:speed>0.431158</gpxhb:speed><gpxhb:course>257.331074</gpxhb:course></extensions></trkpt><trkpt lat="24.819190207619" lon="121.51141991959109"><ele>557.2337323984632</ele><time>2025-06-29T05:24:31Z</time><src>Hikingbook</src><extensions><gpxhb:speed>1.746481</gpxhb:speed><gpxhb:course>126.227248</gpxhb:course></extensions></trkpt><trkpt lat="24.819284507747806" lon="121.51145273718303"><ele>554.0366482684395</ele><time>2025-06-29T05:27:06Z</time><src>Hikingbook</src><extensions><gpxhb:speed>0.699974</gpxhb:speed><gpxhb:course>-1.000000</gpxhb:course></extensions></trkpt><trkpt lat="24.819280237581104" lon="121.5113935110809"><ele>539.3833120545199</ele><time>2025-06-29T05:28:37Z</time><src>Hikingbook</src><extensions><gpxhb:speed>0.008769</gpxhb:speed><gpxhb:course>-1.000000</gpxhb:course></extensions></trkpt><trkpt lat="24.819338182533386" lon="121.51155979783385"><ele>562.5287305744355</ele><time>2025-06-29T05:32:32Z</time><src>Hikingbook</src><extensions><gpxhb:speed>0.221601</gpxhb:speed><gpxhb:course>142.966076</gpxhb:course></extensions></trkpt><trkpt lat="24.81923870897808" lon="121.51153966324433"><ele>565.8737303494294</ele><time>2025-06-29T05:34:56Z</time><src>Hikingbook</src><extensions><gpxhb:speed>0.000000</gpxhb:speed><gpxhb:course>-1.000000</gpxhb:course></extensions></trkpt><trkpt lat="24.819284058585257" lon="121.51153400825444"><ele>568.0476777419955</ele><time>2025-06-29T05:35:31Z</time><src>Hikingbook</src><extensions><gpxhb:speed>0.000000</gpxhb:speed><gpxhb:course>-1.000000</gpxhb:course></extensions></trkpt><trkpt lat="24.819221704161915" lon="121.51126660947627"><ele>567.901011257082</ele><time>2025-06-29T05:36:02Z</time><src>Hikingbook</src><extensions><gpxhb:speed>1.202242</gpxhb:speed><gpxhb:course>266.207834</gpxhb:course></extensions></trkpt><trkpt lat="24.819043944005163" lon="121.51182800955654"><ele>562.6758424613462</ele><time>2025-06-29T05:37:35Z</time><src>Hikingbook</src><extensions><gpxhb:speed>0.376822</gpxhb:speed><gpxhb:course>240.683351</gpxhb:course></extensions></trkpt><trkpt lat="24.81931056330179" lon="121.51156086698904"><ele>564.7296688402957</ele><time>2025-06-29T05:37:50Z</time><src>Hikingbook</src><extensions><gpxhb:speed>0.000000</gpxhb:speed><gpxhb:course>359.504941</gpxhb:course></extensions></trkpt><trkpt lat="24.819311031765974" lon="121.51133707351916"><ele>574.6526471520905</ele><time>2025-06-29T05:38:53Z</time><src>Hikingbook</src><extensions><gpxhb:speed>0.099806</gpxhb:speed><gpxhb:course>196.590846</gpxhb:course></extensions></trkpt><trkpt lat="24.819259271846388" lon="121.5113926292775"><ele>572.5859785389625</ele><time>2025-06-29T05:39:08Z</time><src>Hikingbook</src><extensions><gpxhb:speed>0.000000</gpxhb:speed><gpxhb:course>183.741470</gpxhb:course></extensions></trkpt><trkpt lat="24.819249242863396" lon="121.51152637130947"><ele>564.4323319963487</ele><time>2025-06-29T05:41:39Z</time><src>Hikingbook</src><extensions><gpxhb:speed>0.000000</gpxhb:speed><gpxhb:course>242.624040</gpxhb:course></extensions></trkpt><trkpt lat="24.819317092000887" lon="121.51149289321843"><ele>559.3235508335366</ele><time>2025-06-29T05:42:14Z</time><src>Hikingbook</src><extensions><gpxhb:speed>5.293445</gpxhb:speed><gpxhb:course>328.668440</gpxhb:course></extensions></trkpt><trkpt lat="24.8194389157446" lon="121.51119029082402"><ele>564.6369781889256</ele><time>2025-06-29T05:42:30Z</time><src>Hikingbook</src><extensions><gpxhb:speed>0.000000</gpxhb:speed><gpxhb:course>318.402866</gpxhb:course></extensions></trkpt><trkpt lat="24.819054564293676" lon="121.51142948789244"><ele>569.3598515341654</ele><time>2025-06-29T05:42:48Z</time><src>Hikingbook</src><extensions><gpxhb:speed>0.149358</gpxhb:speed><gpxhb:course>144.592630</gpxhb:course></extensions></trkpt><trkpt lat="24.818323189361614" lon="121.5109823221508"><ele>569.272258236111</ele><time>2025-06-29T05:43:04Z</time><src>Hikingbook</src><extensions><gpxhb:speed>6.141845</gpxhb:speed><gpxhb:course>212.482759</gpxhb:course></extensions></trkpt><trkpt lat="24.818274565362138" lon="121.5109370241992"><ele>569.344711813138</ele><time>2025-06-29T05:43:05Z</time><src>Hikingbook</src><extensions><gpxhb:speed>6.074419</gpxhb:speed><gpxhb:course>206.091865</gpxhb:course></extensions></trkpt><trkpt lat="24.81807720131477" lon="121.51082375046101"><ele>569.6023484243949</ele><time>2025-06-29T05:43:10Z</time><src>Hikingbook</src><extensions><gpxhb:speed>6.101179</gpxhb:speed><gpxhb:course>201.297922</gpxhb:course></extensions></trkpt><trkpt lat="24.819240855898414" lon="121.51146027264896"><ele>570.6490977717724</ele><time>2025-06-29T05:43:34Z</time><src>Hikingbook</src><extensions><gpxhb:speed>0.076403</gpxhb:speed><gpxhb:course>174.693212</gpxhb:course></extensions></trkpt><trkpt lat="24.819100398094783" lon="121.51136257174538"><ele>545.5752456308874</ele><time>2025-06-29T05:44:07Z</time><src>Hikingbook</src><extensions><gpxhb:speed>2.250566</gpxhb:speed><gpxhb:course>-1.000000</gpxhb:course></extensions></trkpt><trkpt lat="24.81917663284449" lon="121.51140885331446"><ele>546.6000132771346</ele><time>2025-06-29T05:44:22Z</time><src>Hikingbook</src><extensions><gpxhb:speed>0.000000</gpxhb:speed><gpxhb:course>179.269099</gpxhb:course></extensions></trkpt><trkpt lat="24.819175787406927" lon="121.51158476794053"><ele>551.1501006684922</ele><time>2025-06-29T05:44:38Z</time><src>Hikingbook</src><extensions><gpxhb:speed>0.660971</gpxhb:speed><gpxhb:course>191.488509</gpxhb:course></extensions></trkpt><trkpt lat="24.819225642708325" lon="121.51159130167977"><ele>556.4764828108176</ele><time>2025-06-29T05:45:22Z</time><src>Hikingbook</src><extensions><gpxhb:speed>0.422619</gpxhb:speed><gpxhb:course>292.491760</gpxhb:course></extensions></trkpt><trkpt lat="24.819243101923732" lon="121.51151587224747"><ele>563.9907004885638</ele><time>2025-06-29T05:46:55Z</time><src>Hikingbook</src><extensions><gpxhb:speed>0.830424</gpxhb:speed><gpxhb:course>70.435046</gpxhb:course></extensions></trkpt><trkpt lat="24.819334408003407" lon="121.5115598793098"><ele>557.5365159560306</ele><time>2025-06-29T05:47:34Z</time><src>Hikingbook</src><extensions><gpxhb:speed>1.294859</gpxhb:speed><gpxhb:course>9.517393</gpxhb:course></extensions></trkpt><trkpt lat="24.81934881752638" lon="121.51146294284933"><ele>558.9104030510007</ele><time>2025-06-29T05:52:17Z</time><src>Hikingbook</src><extensions><gpxhb:speed>1.429524</gpxhb:speed><gpxhb:course>-1.000000</gpxhb:course></extensions></trkpt><trkpt lat="24.819321281249675" lon="121.51160747056988"><ele>566.3061156164421</ele><time>2025-06-29T05:53:52Z</time><src>Hikingbook</src><extensions><gpxhb:speed>0.000000</gpxhb:speed><gpxhb:course>-1.000000</gpxhb:course></extensions></trkpt><trkpt lat="24.819395489683227" lon="121.51148714422042"><ele>563.9867028788893</ele><time>2025-06-29T05:56:35Z</time><src>Hikingbook</src><extensions><gpxhb:speed>0.000000</gpxhb:speed><gpxhb:course>278.382056</gpxhb:course></extensions></trkpt><trkpt lat="24.8193643272913" lon="121.51157346216937"><ele>569.2984126030069</ele><time>2025-06-29T05:58:07Z</time><src>Hikingbook</src><extensions><gpxhb:speed>0.000000</gpxhb:speed><gpxhb:course>253.089889</gpxhb:course></extensions></trkpt><trkpt lat="24.819374566847895" lon="121.51151703540259"><ele>565.8561398259538</ele><time>2025-06-29T05:59:20Z</time><src>Hikingbook</src><extensions><gpxhb:speed>0.835710</gpxhb:speed><gpxhb:course>310.736599</gpxhb:course></extensions></trkpt><trkpt lat="24.819302487076616" lon="121.51156712171789"><ele>575.1331624282565</ele><time>2025-06-29T06:01:09Z</time><src>Hikingbook</src><extensions><gpxhb:speed>0.000000</gpxhb:speed><gpxhb:course>-1.000000</gpxhb:course></extensions></trkpt><trkpt lat="24.8193238408523" lon="121.51151220743327"><ele>567.6501540958493</ele><time>2025-06-29T06:03:58Z</time><src>Hikingbook</src><extensions><gpxhb:speed>0.000000</gpxhb:speed><gpxhb:course>54.834725</gpxhb:course></extensions></trkpt><trkpt lat="24.819285128006356" lon="121.51151880673686"><ele>566.8695504483218</ele><time>2025-06-29T06:06:00Z</time><src>Hikingbook</src><extensions><gpxhb:speed>0.000000</gpxhb:speed><gpxhb:course>-1.000000</gpxhb:course></extensions></trkpt><trkpt lat="24.81932402392172" lon="121.5115787392799"><ele>564.338149375235</ele><time>2025-06-29T06:10:10Z</time><src>Hikingbook</src><extensions><gpxhb:speed>0.009227</gpxhb:speed><gpxhb:course>54.426301</gpxhb:course></extensions></trkpt><trkpt lat="24.819267045608132" lon="121.51147730868244"><ele>577.1087667638637</ele><time>2025-06-29T06:13:19Z</time><src>Hikingbook</src><extensions><gpxhb:speed>0.000000</gpxhb:speed><gpxhb:course>-1.000000</gpxhb:course></extensions></trkpt><trkpt lat="24.819298400087828" lon="121.51144020571594"><ele>568.3016130832721</ele><time>2025-06-29T06:13:52Z</time><src>Hikingbook</src><extensions><gpxhb:speed>0.110702</gpxhb:speed><gpxhb:course>44.897600</gpxhb:course></extensions></trkpt><trkpt lat="24.819348091669756" lon="121.51149897600499"><ele>560.6754043038861</ele><time>2025-06-29T06:15:31Z</time><src>Hikingbook</src><extensions><gpxhb:speed>0.000000</gpxhb:speed><gpxhb:course>-1.000000</gpxhb:course></extensions></trkpt><trkpt lat="24.819300183064307" lon="121.51149055792719"><ele>564.3555115701591</ele><time>2025-06-29T06:15:46Z</time><src>Hikingbook</src><extensions><gpxhb:speed>0.721545</gpxhb:speed><gpxhb:course>-1.000000</gpxhb:course></extensions></trkpt><trkpt lat="24.81926077155802" lon="121.51165648055677"><ele>558.9415187528182</ele><time>2025-06-29T06:17:38Z</time><src>Hikingbook</src><extensions><gpxhb:speed>1.023911</gpxhb:speed><gpxhb:course>-1.000000</gpxhb:course></extensions></trkpt><trkpt lat="24.819310625801716" lon="121.51173608160946"><ele>558.039378766942</ele><time>2025-06-29T06:17:53Z</time><src>Hikingbook</src><extensions><gpxhb:speed>1.453665</gpxhb:speed><gpxhb:course>-1.000000</gpxhb:course></extensions></trkpt><trkpt lat="24.819282446104516" lon="121.51199009836606"><ele>536.1425521652617</ele><time>2025-06-29T06:18:52Z</time><src>Hikingbook</src><extensions><gpxhb:speed>1.606563</gpxhb:speed><gpxhb:course>-1.000000</gpxhb:course></extensions></trkpt><trkpt lat="24.81938741790676" lon="121.51207822073614"><ele>544.5298381292464</ele><time>2025-06-29T06:20:15Z</time><src>Hikingbook</src><extensions><gpxhb:speed>0.418701</gpxhb:speed><gpxhb:course>38.149853</gpxhb:course></extensions></trkpt><trkpt lat="24.819471163209926" lon="121.5123491855436"><ele>542.1816819051843</ele><time>2025-06-29T06:21:41Z</time><src>Hikingbook</src><extensions><gpxhb:speed>0.189873</gpxhb:speed><gpxhb:course>81.603714</gpxhb:course></extensions></trkpt><trkpt lat="24.819480785096957" lon="121.51235546028812"><ele>541.7064292669028</ele><time>2025-06-29T06:21:48Z</time><src>Hikingbook</src><extensions><gpxhb:speed>0.622613</gpxhb:speed><gpxhb:course>103.122415</gpxhb:course></extensions></trkpt><trkpt lat="24.819734000542397" lon="121.51236423737284"><ele>524.8461024852321</ele><time>2025-06-29T06:22:57Z</time><src>Hikingbook</src><extensions><gpxhb:speed>0.144950</gpxhb:speed><gpxhb:course>45.627650</gpxhb:course></extensions></trkpt><trkpt lat="24.819849833793956" lon="121.51249413896342"><ele>530.9722824496307</ele><time>2025-06-29T06:23:50Z</time><src>Hikingbook</src><extensions><gpxhb:speed>0.574364</gpxhb:speed><gpxhb:course>51.871627</gpxhb:course></extensions></trkpt><trkpt lat="24.819827780805166" lon="121.51254037903445"><ele>529.443464025348</ele><time>2025-06-29T06:24:10Z</time><src>Hikingbook</src><extensions><gpxhb:speed>0.678278</gpxhb:speed><gpxhb:course>-1.000000</gpxhb:course></extensions></trkpt><trkpt lat="24.819785969033806" lon="121.5124594339619"><ele>535.7851583490396</ele><time>2025-06-29T06:24:50Z</time><src>Hikingbook</src><extensions><gpxhb:speed>0.692317</gpxhb:speed><gpxhb:course>226.462750</gpxhb:course></extensions></trkpt><trkpt lat="24.819810292083226" lon="121.51256420416526"><ele>533.0267710662413</ele><time>2025-06-29T06:25:15Z</time><src>Hikingbook</src><extensions><gpxhb:speed>0.418065</gpxhb:speed><gpxhb:course>87.681424</gpxhb:course></extensions></trkpt><trkpt lat="24.819738340655512" lon="121.51259198485903"><ele>528.6925417071743</ele><time>2025-06-29T06:25:47Z</time><src>Hikingbook</src><extensions><gpxhb:speed>1.788848</gpxhb:speed><gpxhb:course>162.692753</gpxhb:course></extensions></trkpt><trkpt lat="24.81982844086094" lon="121.51260321569904"><ele>524.2361132297646</ele><time>2025-06-29T06:27:04Z</time><src>Hikingbook</src><extensions><gpxhb:speed>0.145750</gpxhb:speed><gpxhb:course>-1.000000</gpxhb:course></extensions></trkpt><trkpt lat="24.819794653135062" lon="121.51277691738697"><ele>525.5201211424254</ele><time>2025-06-29T06:28:14Z</time><src>Hikingbook</src><extensions><gpxhb:speed>0.870192</gpxhb:speed><gpxhb:course>-1.000000</gpxhb:course></extensions></trkpt><trkpt lat="24.819857457935125" lon="121.5127876564433"><ele>531.250255280822</ele><time>2025-06-29T06:28:37Z</time><src>Hikingbook</src><extensions><gpxhb:speed>0.000000</gpxhb:speed><gpxhb:course>188.251628</gpxhb:course></extensions></trkpt><trkpt lat="24.819817728674792" lon="121.5127725436454"><ele>526.0046120759012</ele><time>2025-06-29T06:29:16Z</time><src>Hikingbook</src><extensions><gpxhb:speed>0.000000</gpxhb:speed><gpxhb:course>240.351575</gpxhb:course></extensions></trkpt><trkpt lat="24.81981969539847" lon="121.51299439049215"><ele>520.3387497913246</ele><time>2025-06-29T06:31:31Z</time><src>Hikingbook</src><extensions><gpxhb:speed>0.779312</gpxhb:speed><gpxhb:course>100.019103</gpxhb:course></extensions></trkpt><trkpt lat="24.819870915693937" lon="121.51304776573105"><ele>511.1205606021898</ele><time>2025-06-29T06:32:03Z</time><src>Hikingbook</src><extensions><gpxhb:speed>0.360252</gpxhb:speed><gpxhb:course>-1.000000</gpxhb:course></extensions></trkpt><trkpt lat="24.819693909900938" lon="121.51324557357901"><ele>514.8687416207263</ele><time>2025-06-29T06:34:06Z</time><src>Hikingbook</src><extensions><gpxhb:speed>0.790448</gpxhb:speed><gpxhb:course>227.319555</gpxhb:course></extensions></trkpt><trkpt lat="24.819707059712517" lon="121.51331575058842"><ele>514.4162785348351</ele><time>2025-06-29T06:34:22Z</time><src>Hikingbook</src><extensions><gpxhb:speed>0.216755</gpxhb:speed><gpxhb:course>164.703644</gpxhb:course></extensions></trkpt><trkpt lat="24.81970808349811" lon="121.51332272134526"><ele>514.2040315143108</ele><time>2025-06-29T06:34:23Z</time><src>Hikingbook</src><extensions><gpxhb:speed>0.535474</gpxhb:speed><gpxhb:course>138.452221</gpxhb:course></extensions></trkpt><trkpt lat="24.819714672442107" lon="121.51347852003467"><ele>504.56509803587</ele><time>2025-06-29T06:35:31Z</time><src>Hikingbook</src><extensions><gpxhb:speed>0.024619</gpxhb:speed><gpxhb:course>124.089768</gpxhb:course></extensions></trkpt><trkpt lat="24.819795730941454" lon="121.51353962027196"><ele>507.5720218340671</ele><time>2025-06-29T06:56:21Z</time><src>Hikingbook</src><extensions><gpxhb:speed>0.000000</gpxhb:speed><gpxhb:course>226.942235</gpxhb:course></extensions></trkpt><trkpt lat="24.81967550798488" lon="121.51340806778911"><ele>509.7673273849768</ele><time>2025-06-29T07:06:58Z</time><src>Hikingbook</src><extensions><gpxhb:speed>0.000000</gpxhb:speed><gpxhb:course>178.020211</gpxhb:course></extensions></trkpt><trkpt lat="24.819742648992747" lon="121.51339935483891"><ele>523.0369304046594</ele><time>2025-06-29T07:09:30Z</time><src>Hikingbook</src><extensions><gpxhb:speed>0.028770</gpxhb:speed><gpxhb:course>287.621349</gpxhb:course></extensions></trkpt><trkpt lat="24.819726966966424" lon="121.51348043378516"><ele>514.3551349852459</ele><time>2025-06-29T07:11:13Z</time><src>Hikingbook</src><extensions><gpxhb:speed>0.016563</gpxhb:speed><gpxhb:course>273.790515</gpxhb:course></extensions></trkpt><trkpt lat="24.819750098586084" lon="121.51344492191244"><ele>509.7192482326668</ele><time>2025-06-29T07:13:18Z</time><src>Hikingbook</src><extensions><gpxhb:speed>0.131282</gpxhb:speed><gpxhb:course>3.888673</gpxhb:course></extensions></trkpt><trkpt lat="24.819674418932685" lon="121.51348423205643"><ele>513.1746246643938</ele><time>2025-06-29T07:14:09Z</time><src>Hikingbook</src><extensions><gpxhb:speed>0.024339</gpxhb:speed><gpxhb:course>3.888699</gpxhb:course></extensions></trkpt><trkpt lat="24.819668132231254" lon="121.51360204196037"><ele>522.3300848874962</ele><time>2025-06-29T07:17:40Z</time><src>Hikingbook</src><extensions><gpxhb:speed>0.096916</gpxhb:speed><gpxhb:course>17.665396</gpxhb:course></extensions></trkpt><trkpt lat="24.819761275286655" lon="121.51345923406735"><ele>514.3187286453392</ele><time>2025-06-29T07:21:14Z</time><src>Hikingbook</src><extensions><gpxhb:speed>0.053004</gpxhb:speed><gpxhb:course>34.953678</gpxhb:course></extensions></trkpt><trkpt lat="24.819754342811372" lon="121.513579509542"><ele>523.2866141895266</ele><time>2025-06-29T07:22:54Z</time><src>Hikingbook</src><extensions><gpxhb:speed>0.000000</gpxhb:speed><gpxhb:course>295.018576</gpxhb:course></extensions></trkpt><trkpt lat="24.81978738576425" lon="121.5134282504131"><ele>518.4697722706524</ele><time>2025-06-29T07:26:31Z</time><src>Hikingbook</src><extensions><gpxhb:speed>0.224740</gpxhb:speed><gpxhb:course>300.870599</gpxhb:course></extensions></trkpt><trkpt lat="24.819768699439177" lon="121.51350934588115"><ele>521.8312940088141</ele><time>2025-06-29T07:33:38Z</time><src>Hikingbook</src><extensions><gpxhb:speed>0.000000</gpxhb:speed><gpxhb:course>-1.000000</gpxhb:course></extensions></trkpt><trkpt lat="24.81972345023301" lon="121.51345659872077"><ele>517.194806909466</ele><time>2025-06-29T07:37:21Z</time><src>Hikingbook</src><extensions><gpxhb:speed>0.000000</gpxhb:speed><gpxhb:course>186.258588</gpxhb:course></extensions></trkpt><trkpt lat="24.819686666405914" lon="121.51353521085629"><ele>517.7485739376738</ele><time>2025-06-29T07:40:26Z</time><src>Hikingbook</src><extensions><gpxhb:speed>0.000000</gpxhb:speed><gpxhb:course>-1.000000</gpxhb:course></extensions></trkpt><trkpt lat="24.81973814605826" lon="121.51341492608263"><ele>513.2187650203344</ele><time>2025-06-29T07:44:11Z</time><src>Hikingbook</src><extensions><gpxhb:speed>0.084607</gpxhb:speed><gpxhb:course>76.089566</gpxhb:course></extensions></trkpt><trkpt lat="24.819780790407723" lon="121.51355140213319"><ele>507.23516470041164</ele><time>2025-06-29T07:48:02Z</time><src>Hikingbook</src><extensions><gpxhb:speed>0.191305</gpxhb:speed><gpxhb:course>1.234007</gpxhb:course></extensions></trkpt><trkpt lat="24.819722959634667" lon="121.51367803369403"><ele>498.81524057107237</ele><time>2025-06-29T07:55:03Z</time><src>Hikingbook</src><extensions><gpxhb:speed>0.008356</gpxhb:speed><gpxhb:course>325.489231</gpxhb:course></extensions></trkpt><trkpt lat="24.819792593177613" lon="121.51364663760982"><ele>493.5640095973629</ele><time>2025-06-29T07:56:23Z</time><src>Hikingbook</src><extensions><gpxhb:speed>0.053213</gpxhb:speed><gpxhb:course>-1.000000</gpxhb:course></extensions></trkpt><trkpt lat="24.819742543554725" lon="121.5137155089532"><ele>511.32926465631505</ele><time>2025-06-29T08:01:26Z</time><src>Hikingbook</src><extensions><gpxhb:speed>0.000000</gpxhb:speed><gpxhb:course>92.067195</gpxhb:course></extensions></trkpt><trkpt lat="24.81969569927055" lon="121.51366795773627"><ele>510.54014535296506</ele><time>2025-06-29T08:02:47Z</time><src>Hikingbook</src><extensions><gpxhb:speed>0.058739</gpxhb:speed><gpxhb:course>181.381898</gpxhb:course></extensions></trkpt><trkpt lat="24.81977437904625" lon="121.51365451927666"><ele>497.1361862360253</ele><time>2025-06-29T08:04:33Z</time><src>Hikingbook</src><extensions><gpxhb:speed>0.567795</gpxhb:speed><gpxhb:course>-1.000000</gpxhb:course></extensions></trkpt><trkpt lat="24.819705903292494" lon="121.51366900801385"><ele>506.78831892098594</ele><time>2025-06-29T08:06:02Z</time><src>Hikingbook</src><extensions><gpxhb:speed>0.000000</gpxhb:speed><gpxhb:course>-1.000000</gpxhb:course></extensions></trkpt><trkpt lat="24.81970757494732" lon="121.51359921918586"><ele>505.1667190304854</ele><time>2025-06-29T08:09:12Z</time><src>Hikingbook</src><extensions><gpxhb:speed>0.000000</gpxhb:speed><gpxhb:course>163.280149</gpxhb:course></extensions></trkpt><trkpt lat="24.81977367386936" lon="121.51362198806436"><ele>493.21875159420523</ele><time>2025-06-29T08:11:02Z</time><src>Hikingbook</src><extensions><gpxhb:speed>0.000000</gpxhb:speed><gpxhb:course>-1.000000</gpxhb:course></extensions></trkpt><trkpt lat="24.819740806336206" lon="121.5136932095648"><ele>496.44601085286814</ele><time>2025-06-29T08:12:07Z</time><src>Hikingbook</src><extensions><gpxhb:speed>0.009196</gpxhb:speed><gpxhb:course>165.811787</gpxhb:course></extensions></trkpt><trkpt lat="24.819799784464095" lon="121.51365845205223"><ele>493.27061268284234</ele><time>2025-06-29T08:18:51Z</time><src>Hikingbook</src><extensions><gpxhb:speed>0.030350</gpxhb:speed><gpxhb:course>-1.000000</gpxhb:course></extensions></trkpt><trkpt lat="24.81973943188342" lon="121.51359026306248"><ele>484.6490644344983</ele><time>2025-06-29T08:30:34Z</time><src>Hikingbook</src><extensions><gpxhb:speed>0.016940</gpxhb:speed><gpxhb:course>115.927277</gpxhb:course></extensions></trkpt><trkpt lat="24.81967274564685" lon="121.5137319830288"><ele>500.49095669364806</ele><time>2025-06-29T08:36:43Z</time><src>Hikingbook</src><extensions><gpxhb:speed>0.000000</gpxhb:speed><gpxhb:course>-1.000000</gpxhb:course></extensions></trkpt><trkpt lat="24.8197297727435" lon="121.5137668152281"><ele>496.69256322252465</ele><time>2025-06-29T08:36:59Z</time><src>Hikingbook</src><extensions><gpxhb:speed>0.000000</gpxhb:speed><gpxhb:course>-1.000000</gpxhb:course></extensions></trkpt><trkpt lat="24.81973572863952" lon="121.51359882435571"><ele>483.38763072475507</ele><time>2025-06-29T08:39:32Z</time><src>Hikingbook</src><extensions><gpxhb:speed>0.083277</gpxhb:speed><gpxhb:course>54.194465</gpxhb:course></extensions></trkpt><trkpt lat="24.81978634237858" lon="121.51358566008325"><ele>499.39798569537874</ele><time>2025-06-29T08:43:02Z</time><src>Hikingbook</src><extensions><gpxhb:speed>0.000000</gpxhb:speed><gpxhb:course>46.533381</gpxhb:course></extensions></trkpt><trkpt lat="24.819729505904814" lon="121.51368530840612"><ele>498.9893847008475</ele><time>2025-06-29T08:47:31Z</time><src>Hikingbook</src><extensions><gpxhb:speed>0.000000</gpxhb:speed><gpxhb:course>-1.000000</gpxhb:course></extensions></trkpt><trkpt lat="24.819697025527873" lon="121.51364396606951"><ele>495.85978771101736</ele><time>2025-06-29T08:48:07Z</time><src>Hikingbook</src><extensions><gpxhb:speed>0.049372</gpxhb:speed><gpxhb:course>-1.000000</gpxhb:course></extensions></trkpt><trkpt lat="24.81977535516751" lon="121.51353050376495"><ele>482.47846313343433</ele><time>2025-06-29T08:59:39Z</time><src>Hikingbook</src><extensions><gpxhb:speed>0.136911</gpxhb:speed><gpxhb:course>-1.000000</gpxhb:course></extensions></trkpt><trkpt lat="24.819713959907244" lon="121.5136397128091"><ele>470.93338668799436</ele><time>2025-06-29T09:03:19Z</time><src>Hikingbook</src><extensions><gpxhb:speed>0.614471</gpxhb:speed><gpxhb:course>156.617177</gpxhb:course></extensions></trkpt><trkpt lat="24.81983844687327" lon="121.51365437419406"><ele>467.60422330437086</ele><time>2025-06-29T09:18:12Z</time><src>Hikingbook</src><extensions><gpxhb:speed>0.012488</gpxhb:speed><gpxhb:course>-1.000000</gpxhb:course></extensions></trkpt><trkpt lat="24.81979831772104" lon="121.51371450218056"><ele>454.6352532963979</ele><time>2025-06-29T09:23:18Z</time><src>Hikingbook</src><extensions><gpxhb:speed>0.617265</gpxhb:speed><gpxhb:course>-1.000000</gpxhb:course></extensions></trkpt><trkpt lat="24.819961156887956" lon="121.51389120721852"><ele>458.9988067036489</ele><time>2025-06-29T09:25:17Z</time><src>Hikingbook</src><extensions><gpxhb:speed>0.539625</gpxhb:speed><gpxhb:course>47.944940</gpxhb:course></extensions></trkpt><trkpt lat="24.819919604471043" lon="121.51393778951379"><ele>446.9495463790952</ele><time>2025-06-29T09:31:25Z</time><src>Hikingbook</src><extensions><gpxhb:speed>0.000000</gpxhb:speed><gpxhb:course>188.874339</gpxhb:course></extensions></trkpt><trkpt lat="24.820038244030748" lon="121.51398920042865"><ele>453.9121006190119</ele><time>2025-06-29T09:32:08Z</time><src>Hikingbook</src><extensions><gpxhb:speed>0.492732</gpxhb:speed><gpxhb:course>68.150626</gpxhb:course></extensions></trkpt><trkpt lat="24.819945116298108" lon="121.51388551702401"><ele>445.82755164667344</ele><time>2025-06-29T09:32:47Z</time><src>Hikingbook</src><extensions><gpxhb:speed>0.177129</gpxhb:speed><gpxhb:course>80.121238</gpxhb:course></extensions></trkpt><trkpt lat="24.820004346572446" lon="121.51381937908367"><ele>463.7896227097053</ele><time>2025-06-29T09:36:56Z</time><src>Hikingbook</src><extensions><gpxhb:speed>0.000000</gpxhb:speed><gpxhb:course>-1.000000</gpxhb:course></extensions></trkpt><trkpt lat="24.819921102466736" lon="121.51385296067711"><ele>460.24946923362216</ele><time>2025-06-29T09:38:00Z</time><src>Hikingbook</src><extensions><gpxhb:speed>0.000000</gpxhb:speed><gpxhb:course>236.929470</gpxhb:course></extensions></trkpt><trkpt lat="24.819972799541862" lon="121.51379602007759"><ele>454.05303984112356</ele><time>2025-06-29T09:38:38Z</time><src>Hikingbook</src><extensions><gpxhb:speed>0.000000</gpxhb:speed><gpxhb:course>315.268830</gpxhb:course></extensions></trkpt><trkpt lat="24.819980736842833" lon="121.51394458510543"><ele>453.76599454766136</ele><time>2025-06-29T09:40:59Z</time><src>Hikingbook</src><extensions><gpxhb:speed>0.971500</gpxhb:speed><gpxhb:course>55.606318</gpxhb:course></extensions></trkpt><trkpt lat="24.81990324277838" lon="121.51381697618243"><ele>428.92511952691774</ele><time>2025-06-29T09:43:31Z</time><src>Hikingbook</src><extensions><gpxhb:speed>0.045597</gpxhb:speed><gpxhb:course>104.344701</gpxhb:course></extensions></trkpt><trkpt lat="24.81998032875103" lon="121.51387061378438"><ele>437.2723502394587</ele><time>2025-06-29T09:45:12Z</time><src>Hikingbook</src><extensions><gpxhb:speed>1.339924</gpxhb:speed><gpxhb:course>4.693358</gpxhb:course></extensions></trkpt><trkpt lat="24.81998580713646" lon="121.51399193976114"><ele>455.4612309924176</ele><time>2025-06-29T09:48:56Z</time><src>Hikingbook</src><extensions><gpxhb:speed>0.000000</gpxhb:speed><gpxhb:course>153.486352</gpxhb:course></extensions></trkpt><trkpt lat="24.819929370404175" lon="121.5140028421524"><ele>451.0629297982428</ele><time>2025-06-29T09:49:54Z</time><src>Hikingbook</src><extensions><gpxhb:speed>0.612794</gpxhb:speed><gpxhb:course>177.039646</gpxhb:course></extensions></trkpt><trkpt lat="24.81994582916132" lon="121.51391037083549"><ele>442.93575129788843</ele><time>2025-06-29T09:50:48Z</time><src>Hikingbook</src><extensions><gpxhb:speed>0.057574</gpxhb:speed><gpxhb:course>156.182523</gpxhb:course></extensions></trkpt><trkpt lat="24.8199816352372" lon="121.51394694390969"><ele>443.9476753165494</ele><time>2025-06-29T09:52:03Z</time><src>Hikingbook</src><extensions><gpxhb:speed>0.205723</gpxhb:speed><gpxhb:course>187.367669</gpxhb:course></extensions></trkpt><trkpt lat="24.819898889457683" lon="121.51375051868182"><ele>413.8299588724726</ele><time>2025-06-29T09:57:43Z</time><src>Hikingbook</src><extensions><gpxhb:speed>0.086368</gpxhb:speed><gpxhb:course>-1.000000</gpxhb:course></extensions></trkpt><trkpt lat="24.819968644469206" lon="121.5138218209029"><ele>424.90117313017845</ele><time>2025-06-29T10:14:08Z</time><src>Hikingbook</src><extensions><gpxhb:speed>0.011309</gpxhb:speed><gpxhb:course>327.082527</gpxhb:course></extensions></trkpt><trkpt lat="24.819835252800726" lon="121.5138839951373"><ele>415.54756211808007</ele><time>2025-06-29T10:30:37Z</time><src>Hikingbook</src><extensions><gpxhb:speed>0.185099</gpxhb:speed><gpxhb:course>246.962828</gpxhb:course></extensions></trkpt><trkpt lat="24.81991298211365" lon="121.51412400078013"><ele>437.77566688565497</ele><time>2025-06-29T10:43:23Z</time><src>Hikingbook</src><extensions><gpxhb:speed>0.082875</gpxhb:speed><gpxhb:course>285.637776</gpxhb:course></extensions></trkpt><trkpt lat="24.819876570634392" lon="121.51416021101805"><ele>428.6267873872492</ele><time>2025-06-29T10:43:53Z</time><src>Hikingbook</src><extensions><gpxhb:speed>0.047561</gpxhb:speed><gpxhb:course>122.071260</gpxhb:course></extensions></trkpt><trkpt lat="24.8198239463947" lon="121.51410558292568"><ele>417.95383708762444</ele><time>2025-06-29T10:44:44Z</time><src>Hikingbook</src><extensions><gpxhb:speed>0.114909</gpxhb:speed><gpxhb:course>-1.000000</gpxhb:course></extensions></trkpt><trkpt lat="24.819837979041914" lon="121.51430468110263"><ele>426.1654810078634</ele><time>2025-06-29T10:48:54Z</time><src>Hikingbook</src><extensions><gpxhb:speed>0.406631</gpxhb:speed><gpxhb:course>81.418527</gpxhb:course></extensions></trkpt><trkpt lat="24.819850038678673" lon="121.51431002700949"><ele>422.63766493286136</ele><time>2025-06-29T10:49:11Z</time><src>Hikingbook</src><extensions><gpxhb:speed>0.205346</gpxhb:speed><gpxhb:course>115.781826</gpxhb:course></extensions></trkpt><trkpt lat="24.819908837889752" lon="121.51441834140887"><ele>431.5383152706456</ele><time>2025-06-29T10:49:54Z</time><src>Hikingbook</src><extensions><gpxhb:speed>0.339086</gpxhb:speed><gpxhb:course>64.565147</gpxhb:course></extensions></trkpt><trkpt lat="24.819850532868823" lon="121.5144302945276"><ele>430.1081021707908</ele><time>2025-06-29T10:50:27Z</time><src>Hikingbook</src><extensions><gpxhb:speed>0.576139</gpxhb:speed><gpxhb:course>199.242021</gpxhb:course></extensions></trkpt><trkpt lat="24.81991332403973" lon="121.51451050177485"><ele>436.79029078044323</ele><time>2025-06-29T10:51:29Z</time><src>Hikingbook</src><extensions><gpxhb:speed>0.031480</gpxhb:speed><gpxhb:course>180.159870</gpxhb:course></extensions></trkpt><trkpt lat="24.81989881619524" lon="121.5144307161017"><ele>422.2074706776132</ele><time>2025-06-29T11:03:55Z</time><src>Hikingbook</src><extensions><gpxhb:speed>0.131705</gpxhb:speed><gpxhb:course>279.217330</gpxhb:course></extensions></trkpt><trkpt lat="24.81993383474168" lon="121.5144542808472"><ele>433.7949487187256</ele><time>2025-06-29T11:05:05Z</time><src>Hikingbook</src><extensions><gpxhb:speed>0.089056</gpxhb:speed><gpxhb:course>85.409768</gpxhb:course></extensions></trkpt><trkpt lat="24.8198813026598" lon="121.51437134182027"><ele>409.48263947836267</ele><time>2025-06-29T11:07:43Z</time><src>Hikingbook</src><extensions><gpxhb:speed>0.022668</gpxhb:speed><gpxhb:course>283.010535</gpxhb:course></extensions></trkpt><trkpt lat="24.819866574335062" lon="121.51446386800177"><ele>416.71159290187035</ele><time>2025-06-29T11:08:36Z</time><src>Hikingbook</src><extensions><gpxhb:speed>0.148542</gpxhb:speed><gpxhb:course>60.300294</gpxhb:course></extensions></trkpt><trkpt lat="24.81998712206994" lon="121.51461666630016"><ele>420.4846100878609</ele><time>2025-06-29T11:09:41Z</time><src>Hikingbook</src><extensions><gpxhb:speed>0.841379</gpxhb:speed><gpxhb:course>-1.000000</gpxhb:course></extensions></trkpt><trkpt lat="24.81997324271052" lon="121.51457264628782"><ele>409.33949806208267</ele><time>2025-06-29T11:09:57Z</time><src>Hikingbook</src><extensions><gpxhb:speed>0.445255</gpxhb:speed><gpxhb:course>-1.000000</gpxhb:course></extensions></trkpt><trkpt lat="24.819825766489842" lon="121.51465348533353"><ele>423.6131213943474</ele><time>2025-06-29T11:13:46Z</time><src>Hikingbook</src><extensions><gpxhb:speed>0.047091</gpxhb:speed><gpxhb:course>73.108843</gpxhb:course></extensions></trkpt><trkpt lat="24.81979181243435" lon="121.51491114546525"><ele>447.5095288320601</ele><time>2025-06-29T11:14:19Z</time><src>Hikingbook</src><extensions><gpxhb:speed>2.492950</gpxhb:speed><gpxhb:course>-1.000000</gpxhb:course></extensions></trkpt><trkpt lat="24.81986496135364" lon="121.51491333943399"><ele>395.3774299053877</ele><time>2025-06-29T11:15:42Z</time><src>Hikingbook</src><extensions><gpxhb:speed>0.349624</gpxhb:speed><gpxhb:course>154.712522</gpxhb:course></extensions></trkpt><trkpt lat="24.819912905667955" lon="121.5150162117953"><ele>404.8096132461405</ele><time>2025-06-29T11:17:07Z</time><src>Hikingbook</src><extensions><gpxhb:speed>0.000000</gpxhb:speed><gpxhb:course>175.966115</gpxhb:course></extensions></trkpt><trkpt lat="24.81992089792246" lon="121.51495720943831"><ele>402.115856358879</ele><time>2025-06-29T11:25:37Z</time><src>Hikingbook</src><extensions><gpxhb:speed>0.382836</gpxhb:speed><gpxhb:course>317.253551</gpxhb:course></extensions></trkpt><trkpt lat="24.81997130252711" lon="121.51499477788752"><ele>399.9741239893183</ele><time>2025-06-29T11:31:21Z</time><src>Hikingbook</src><extensions><gpxhb:speed>1.179097</gpxhb:speed><gpxhb:course>56.571215</gpxhb:course></extensions></trkpt><trkpt lat="24.820000391965298" lon="121.5150834527054"><ele>403.0528981809458</ele><time>2025-06-29T11:31:41Z</time><src>Hikingbook</src><extensions><gpxhb:speed>0.078415</gpxhb:speed><gpxhb:course>74.716331</gpxhb:course></extensions></trkpt><trkpt lat="24.819900694221825" lon="121.51489125429639"><ele>409.89650861810577</ele><time>2025-06-29T11:35:06Z</time><src>Hikingbook</src><extensions><gpxhb:speed>0.078589</gpxhb:speed><gpxhb:course>264.015889</gpxhb:course></extensions></trkpt><trkpt lat="24.81996143709992" lon="121.51505317951825"><ele>405.7546273617103</ele><time>2025-06-29T11:36:19Z</time><src>Hikingbook</src><extensions><gpxhb:speed>0.204280</gpxhb:speed><gpxhb:course>109.987482</gpxhb:course></extensions></trkpt><trkpt lat="24.82000921312432" lon="121.51503999191226"><ele>404.3311582075621</ele><time>2025-06-29T11:36:37Z</time><src>Hikingbook</src><extensions><gpxhb:speed>0.000000</gpxhb:speed><gpxhb:course>58.209889</gpxhb:course></extensions></trkpt><trkpt lat="24.81981882058191" lon="121.51542072551554"><ele>425.59210408371456</ele><time>2025-06-29T11:37:41Z</time><src>Hikingbook</src><extensions><gpxhb:speed>5.180617</gpxhb:speed><gpxhb:course>109.643880</gpxhb:course></extensions></trkpt><trkpt lat="24.819802757776333" lon="121.5154649863659"><ele>425.81315167880115</ele><time>2025-06-29T11:37:42Z</time><src>Hikingbook</src><extensions><gpxhb:speed>5.213853</gpxhb:speed><gpxhb:course>108.897789</gpxhb:course></extensions></trkpt></trkseg></trk></gpx>