<?xml version="1.0" encoding="UTF-8"?>
<gpx version="1.1" creator="Hikingbook" xmlns:xsi="http://www.w3.org/2001/XMLSchema-instance" xmlns="http://www.topografix.com/GPX/1/1" xsi:schemaLocation="http://www.topografix.com/GPX/1/1 https://www.topografix.com/GPX/1/1/gpx.xsd https://hikingbook.net/xmlschemas/1/5 https:/hikingbook.net/xmlschemas/1/5/gpxhb.xsd" xmlns:gpxhb="https://hikingbook.net/xmlschemas/1/5"><metadata><name>🪢大津瀑布「AA」-（2026-07-12）-「溪降」［🇹🇼高雄-高樹］</name><desc>W-waterfall (瀑布）&#xA;S-slideway (滑瀑）&#xA;L-left(左岸）&#xA;TL-TopLeft(高左岸）&#xA;BL-BottomLeft(低左岸）&#xA;R-right(右岸）&#xA;TR-TopRight(高右岸）&#xA;BR-BottomRight(低右岸）&#xA;C-center(中岸）&#xA;&#xA;WT-waterfalltop(瀑頂）&#xA;WB-waterfallbottom(瀑底）&#xA;M-middle(中繼點）&#xA;D-deep(深潭）&#xA;G-guide (滑降）&#xA;B-bolt(人工錨點）&#xA;N-nature(天然錨點）&#xA;PB-personal bolt (人力錨點）&#xA;DB-damaged bolt(損壞錨點）&#xA;RB-removal bolt(可拆錨點）&#xA;TR-Traverse(橫移）&#xA;&#xA;Ex: &#xA;W1(M1-L)-B2-18m，D-5m&#xA;「瀑布1（中繼點1-左岸）-bolt有兩顆-使用繩長18米，深潭5公尺長」&#xA;&#xA;成員（6）：&#xA;jimce、&#xA;振瑋、&#xA;Han（小韓）、&#xA;秘密客、&#xA;陳霆（小林）、&#xA;小囍&#xA;&#xA;裝備：&#xA;&#xA;繩(4）- &#xA;欣達(8.5)*100、&#xA;欣達(7.5)*60、&#xA;欣達(8.5)*50、&#xA;PC(8.0)*50、&#xA;&#xA;急救包*2-&#xA;&#xA;電鑽（Makita 183) *1&#xA;Bolt（M8)*10&#xA;可移除bolt(m8)*6&#xA;拋棄繩8m&#xA;&#xA;&#xA;無線電-&#xA;頻率：&#xA;   長距-144.4200&#xA;   短距-457.51250&#xA;&#xA;啞音：🈚️&#xA;&#xA;攝影器材：&#xA;1.)DJI mini 5 pro *1&#xA;&#xA;</desc><author><name>Hikingbook</name><link href="https://hikingbook.net"><text>Hikingbook</text></link></author><link href="https://hikingbook.net/hikes/2026-7-12%E6%94%B9-%E5%A4%A7%E6%B4%A5%E7%80%91%E5%B8%83%E6%AD%A5%E9%81%93-f2907d0c"><text>Hikingbook</text></link><time>2026-07-14T22:53:59.093121891+08:00</time><keywords>Hikingbook,EzLife ,Taiwan ,Canyoning ,溪降,高雄,高樹</keywords><extensions><gpxhb:loadweight>3.0</gpxhb:loadweight><gpxhb:fitnesslevel>1</gpxhb:fitnesslevel><gpxhb:activitytype>hiking</gpxhb:activitytype><gpxhb:trackimageurl>https://assets.hikingbook.net/users/60w3wu1it91y2jmwdxciziq/oayispz91ttodzpxcesnolq/809ab261-c112-436b-9ef5-db123677d10e.jpg</gpxhb:trackimageurl></extensions></metadata><wpt lat="22.86015746301139" lon="120.64117673947175"><ele>142</ele><time>2026-07-11T23:42:58Z</time><name>00 Start</name><cmt>2026-07-12T07:42:58+08:00</cmt><desc>00 Start</desc><src>Hikingbook</src><link href="https://hikingbook.net/hikes/oayispz91TtOdzpxCEsNoLQ"><text>Hikingbook</text></link><extensions><gpxhb:weather>Clear</gpxhb:weather><gpxhb:speed>-1.000000</gpxhb:speed><gpxhb:course>-1.000000</gpxhb:course></extensions></wpt><wpt lat="22.860071189685907" lon="120.64668447469826"><ele>350</ele><time>2026-07-12T00:26:18Z</time><name>01 抵達溪底</name><cmt>2026-07-12T08:26:18+08:00</cmt><desc>01 抵達溪底</desc><src>Hikingbook</src><link href="https://hikingbook.net/hikes/oayispz91TtOdzpxCEsNoLQ"><text>Hikingbook</text></link><extensions><gpxhb:weather>Clear</gpxhb:weather><gpxhb:speed>-1.000000</gpxhb:speed><gpxhb:course>-1.000000</gpxhb:course></extensions></wpt><wpt lat="22.860062351992227" lon="120.64666164447394"><ele>350</ele><time>2026-07-12T00:32:47Z</time><name>02 W1(WT-R-B1-5m)</name><cmt>2026-07-12T08:32:47+08:00</cmt><desc>02 W1(WT-R-B1-5m)</desc><src>Hikingbook</src><link href="https://hikingbook.net/hikes/oayispz91TtOdzpxCEsNoLQ"><text>Hikingbook</text></link><extensions><gpxhb:weather>Clear</gpxhb:weather><gpxhb:speed>-1.000000</gpxhb:speed><gpxhb:course>-1.000000</gpxhb:course></extensions></wpt><wpt lat="22.860169518466748" lon="120.64665963022661"><ele>339</ele><time>2026-07-12T00:44:27Z</time><name>03 W2(WT-R-B1-2m)</name><cmt>2026-07-12T08:44:27+08:00</cmt><desc>03 W2(WT-R-B1-2m)</desc><src>Hikingbook</src><link href="https://hikingbook.net/hikes/oayispz91TtOdzpxCEsNoLQ"><text>Hikingbook</text></link><extensions><gpxhb:weather>Clear</gpxhb:weather><gpxhb:speed>-1.000000</gpxhb:speed><gpxhb:course>-1.000000</gpxhb:course></extensions></wpt><wpt lat="22.860297101081535" lon="120.64641186099344"><ele>327</ele><time>2026-07-12T00:48:55Z</time><name>04 W3(WT-R-B2-15m)</name><cmt>2026-07-12T08:48:55+08:00</cmt><desc>04 W3(WT-R-B2-15m)</desc><src>Hikingbook</src><link href="https://hikingbook.net/hikes/oayispz91TtOdzpxCEsNoLQ"><text>Hikingbook</text></link><extensions><gpxhb:weather>Clear</gpxhb:weather><gpxhb:speed>-1.000000</gpxhb:speed><gpxhb:course>-1.000000</gpxhb:course></extensions></wpt><wpt lat="22.860429088226777" lon="120.64636721377184"><ele>327</ele><time>2026-07-12T00:58:09Z</time><name>05 W4(WT-L-B2-5m)</name><cmt>2026-07-12T08:58:09+08:00</cmt><desc>05 W4(WT-L-B2-5m)</desc><src>Hikingbook</src><link href="https://hikingbook.net/hikes/oayispz91TtOdzpxCEsNoLQ"><text>Hikingbook</text></link><extensions><gpxhb:weather>Clear</gpxhb:weather><gpxhb:speed>-1.000000</gpxhb:speed><gpxhb:course>-1.000000</gpxhb:course></extensions></wpt><wpt lat="22.86047693168805" lon="120.64629760767797"><ele>310</ele><time>2026-07-12T01:10:27Z</time><name>06 W5(WT-L-B2-7m)</name><cmt>2026-07-12T09:10:27+08:00</cmt><desc>06 W5(WT-L-B2-7m)</desc><src>Hikingbook</src><link href="https://hikingbook.net/hikes/oayispz91TtOdzpxCEsNoLQ"><text>Hikingbook</text></link><extensions><gpxhb:weather>Clear</gpxhb:weather><gpxhb:speed>-1.000000</gpxhb:speed><gpxhb:course>-1.000000</gpxhb:course></extensions></wpt><wpt lat="22.86055594548304" lon="120.64614436937025"><ele>313</ele><time>2026-07-12T02:09:09Z</time><name>07 W6(WT-L-N-8m)</name><cmt>2026-07-12T10:09:09+08:00</cmt><desc>07 W6(WT-L-N-8m)</desc><src>Hikingbook</src><link href="https://hikingbook.net/hikes/oayispz91TtOdzpxCEsNoLQ"><text>Hikingbook</text></link><extensions><gpxhb:weather>Clear</gpxhb:weather><gpxhb:speed>-1.000000</gpxhb:speed><gpxhb:course>-1.000000</gpxhb:course></extensions></wpt><wpt lat="22.86051167762199" lon="120.64609485374287"><ele>313</ele><time>2026-07-12T02:14:51Z</time><name>08 W6(WT-L-B2-10m)</name><cmt>2026-07-12T10:14:51+08:00</cmt><desc>08 W6(WT-L-B2-10m)</desc><src>Hikingbook</src><link href="https://hikingbook.net/hikes/oayispz91TtOdzpxCEsNoLQ"><text>Hikingbook</text></link><extensions><gpxhb:weather>Clear</gpxhb:weather><gpxhb:speed>-1.000000</gpxhb:speed><gpxhb:course>-1.000000</gpxhb:course></extensions></wpt><wpt lat="22.8604836842725" lon="120.64573860459919"><ele>311</ele><time>2026-07-12T02:27:41Z</time><name>09 W7(WT-L-B2-6m)</name><cmt>2026-07-12T10:27:41+08:00</cmt><desc>09 W7(WT-L-B2-6m)</desc><src>Hikingbook</src><link href="https://hikingbook.net/hikes/oayispz91TtOdzpxCEsNoLQ"><text>Hikingbook</text></link><extensions><gpxhb:weather>Clear</gpxhb:weather><gpxhb:speed>-1.000000</gpxhb:speed><gpxhb:course>-1.000000</gpxhb:course></extensions></wpt><wpt lat="22.86062343001189" lon="120.64575265130694"><ele>280.8</ele><time>2026-07-12T02:34:55Z</time><name>10 W7(wt-L-b2-42m)</name><cmt>2026-07-12T10:34:55+08:00</cmt><desc>10 W7(wt-L-b2-42m)</desc><src>Hikingbook</src><link href="https://hikingbook.net/hikes/oayispz91TtOdzpxCEsNoLQ"><text>Hikingbook</text></link><extensions><gpxhb:weather>Clear</gpxhb:weather><gpxhb:speed>-1.000000</gpxhb:speed><gpxhb:course>-1.000000</gpxhb:course></extensions></wpt><wpt lat="22.86065950609886" lon="120.6448996145101"><ele>250</ele><time>2026-07-12T03:33:11Z</time><name>11 W8(WT-L-B1-3m)</name><cmt>2026-07-12T11:33:11+08:00</cmt><desc>11 W8(WT-L-B1-3m)</desc><src>Hikingbook</src><link href="https://hikingbook.net/hikes/oayispz91TtOdzpxCEsNoLQ"><text>Hikingbook</text></link><extensions><gpxhb:weather>Clear</gpxhb:weather><gpxhb:speed>-1.000000</gpxhb:speed><gpxhb:course>-1.000000</gpxhb:course></extensions></wpt><wpt lat="22.860580817552407" lon="120.64499650306315"><ele>262</ele><time>2026-07-12T03:35:09Z</time><name>12 W8(WT-M1-B1-15m)</name><cmt>2026-07-12T11:35:09+08:00</cmt><desc>12 W8(WT-M1-B1-15m)</desc><src>Hikingbook</src><link href="https://hikingbook.net/hikes/oayispz91TtOdzpxCEsNoLQ"><text>Hikingbook</text></link><extensions><gpxhb:weather>Clear</gpxhb:weather><gpxhb:speed>-1.000000</gpxhb:speed><gpxhb:course>-1.000000</gpxhb:course></extensions></wpt><wpt lat="22.860481737778336" lon="120.64470779419081"><ele>229</ele><time>2026-07-12T03:55:55Z</time><name>13 大津方仙谷（題字碑）</name><cmt>2026-07-12T11:55:55+08:00</cmt><desc>13 大津方仙谷（題字碑）</desc><src>Hikingbook</src><link href="https://hikingbook.net/hikes/oayispz91TtOdzpxCEsNoLQ"><text>Hikingbook</text></link><extensions><gpxhb:weather>Clear</gpxhb:weather><gpxhb:speed>-1.000000</gpxhb:speed><gpxhb:course>-1.000000</gpxhb:course></extensions></wpt><wpt lat="22.860258348633945" lon="120.64118979145836"><ele>142</ele><time>2026-07-12T04:34:01Z</time><name>14 End</name><cmt>2026-07-12T12:34:01+08:00</cmt><desc>14 End</desc><src>Hikingbook</src><link href="https://hikingbook.net/hikes/oayispz91TtOdzpxCEsNoLQ"><text>Hikingbook</text></link><extensions><gpxhb:weather>Clear</gpxhb:weather><gpxhb:speed>-1.000000</gpxhb:speed><gpxhb:course>-1.000000</gpxhb:course></extensions></wpt><trk><name>🪢大津瀑布「AA」-（2026-07-12）-「溪降」［🇹🇼高雄-高樹］</name><cmt>W-waterfall (瀑布）&#xA;S-slideway (滑瀑）&#xA;L-left(左岸）&#xA;TL-TopLeft(高左岸）&#xA;BL-BottomLeft(低左岸）&#xA;R-right(右岸）&#xA;TR-TopRight(高右岸）&#xA;BR-BottomRight(低右岸）&#xA;C-center(中岸）&#xA;&#xA;WT-waterfalltop(瀑頂）&#xA;WB-waterfallbottom(瀑底）&#xA;M-middle(中繼點）&#xA;D-deep(深潭）&#xA;G-guide (滑降）&#xA;B-bolt(人工錨點）&#xA;N-nature(天然錨點）&#xA;PB-personal bolt (人力錨點）&#xA;DB-damaged bolt(損壞錨點）&#xA;RB-removal bolt(可拆錨點）&#xA;TR-Traverse(橫移）&#xA;&#xA;Ex: &#xA;W1(M1-L)-B2-18m，D-5m&#xA;「瀑布1（中繼點1-左岸）-bolt有兩顆-使用繩長18米，深潭5公尺長」&#xA;&#xA;成員（6）：&#xA;jimce、&#xA;振瑋、&#xA;Han（小韓）、&#xA;秘密客、&#xA;陳霆（小林）、&#xA;小囍&#xA;&#xA;裝備：&#xA;&#xA;繩(4）- &#xA;欣達(8.5)*100、&#xA;欣達(7.5)*60、&#xA;欣達(8.5)*50、&#xA;PC(8.0)*50、&#xA;&#xA;急救包*2-&#xA;&#xA;電鑽（Makita 183) *1&#xA;Bolt（M8)*10&#xA;可移除bolt(m8)*6&#xA;拋棄繩8m&#xA;&#xA;&#xA;無線電-&#xA;頻率：&#xA;   長距-144.4200&#xA;   短距-457.51250&#xA;&#xA;啞音：🈚️&#xA;&#xA;攝影器材：&#xA;1.)DJI mini 5 pro *1&#xA;&#xA;</cmt><desc>W-waterfall (瀑布）&#xA;S-slideway (滑瀑）&#xA;L-left(左岸）&#xA;TL-TopLeft(高左岸）&#xA;BL-BottomLeft(低左岸）&#xA;R-right(右岸）&#xA;TR-TopRight(高右岸）&#xA;BR-BottomRight(低右岸）&#xA;C-center(中岸）&#xA;&#xA;WT-waterfalltop(瀑頂）&#xA;WB-waterfallbottom(瀑底）&#xA;M-middle(中繼點）&#xA;D-deep(深潭）&#xA;G-guide (滑降）&#xA;B-bolt(人工錨點）&#xA;N-nature(天然錨點）&#xA;PB-personal bolt (人力錨點）&#xA;DB-damaged bolt(損壞錨點）&#xA;RB-removal bolt(可拆錨點）&#xA;TR-Traverse(橫移）&#xA;&#xA;Ex: &#xA;W1(M1-L)-B2-18m，D-5m&#xA;「瀑布1（中繼點1-左岸）-bolt有兩顆-使用繩長18米，深潭5公尺長」&#xA;&#xA;成員（6）：&#xA;jimce、&#xA;振瑋、&#xA;Han（小韓）、&#xA;秘密客、&#xA;陳霆（小林）、&#xA;小囍&#xA;&#xA;裝備：&#xA;&#xA;繩(4）- &#xA;欣達(8.5)*100、&#xA;欣達(7.5)*60、&#xA;欣達(8.5)*50、&#xA;PC(8.0)*50、&#xA;&#xA;急救包*2-&#xA;&#xA;電鑽（Makita 183) *1&#xA;Bolt（M8)*10&#xA;可移除bolt(m8)*6&#xA;拋棄繩8m&#xA;&#xA;&#xA;無線電-&#xA;頻率：&#xA;   長距-144.4200&#xA;   短距-457.51250&#xA;&#xA;啞音：🈚️&#xA;&#xA;攝影器材：&#xA;1.)DJI mini 5 pro *1&#xA;&#xA;</desc><src>Hikingbook</src><link href="https://hikingbook.net/hikes/2026-7-12%E6%94%B9-%E5%A4%A7%E6%B4%A5%E7%80%91%E5%B8%83%E6%AD%A5%E9%81%93-f2907d0c"><text>Hikingbook</text></link><trkseg><trkpt lat="22.860150441859663" lon="120.64117392658719"><ele>141.6</ele><time>2026-07-11T23:42:58Z</time><src>Hikingbook</src><extensions><gpxhb:speed>-1.000000</gpxhb:speed><gpxhb:course>-1.000000</gpxhb:course></extensions></trkpt><trkpt lat="22.860373261531553" lon="120.64128202322969"><ele>141.8</ele><time>2026-07-11T23:44:23Z</time><src>Hikingbook</src><extensions><gpxhb:speed>-1.000000</gpxhb:speed><gpxhb:course>-1.000000</gpxhb:course></extensions></trkpt><trkpt lat="22.860375282907544" lon="120.64170658229376"><ele>147.7</ele><time>2026-07-11T23:45:12Z</time><src>Hikingbook</src><extensions><gpxhb:speed>-1.000000</gpxhb:speed><gpxhb:course>-1.000000</gpxhb:course></extensions></trkpt><trkpt lat="22.860599759371105" lon="120.64175616569307"><ele>147.3</ele><time>2026-07-11T23:45:31Z</time><src>Hikingbook</src><extensions><gpxhb:speed>-1.000000</gpxhb:speed><gpxhb:course>-1.000000</gpxhb:course></extensions></trkpt><trkpt lat="22.860669894318903" lon="120.64220205204259"><ele>148.4</ele><time>2026-07-11T23:46:18Z</time><src>Hikingbook</src><extensions><gpxhb:speed>-1.000000</gpxhb:speed><gpxhb:course>-1.000000</gpxhb:course></extensions></trkpt><trkpt lat="22.860549334756325" lon="120.6426179068541"><ele>153.9</ele><time>2026-07-11T23:46:56Z</time><src>Hikingbook</src><extensions><gpxhb:speed>-1.000000</gpxhb:speed><gpxhb:course>-1.000000</gpxhb:course></extensions></trkpt><trkpt lat="22.860762958498245" lon="120.64266593625115"><ele>153.3</ele><time>2026-07-11T23:47:21Z</time><src>Hikingbook</src><extensions><gpxhb:speed>-1.000000</gpxhb:speed><gpxhb:course>-1.000000</gpxhb:course></extensions></trkpt><trkpt lat="22.86042505266205" lon="120.64322808179853"><ele>175.4</ele><time>2026-07-11T23:48:38Z</time><src>Hikingbook</src><extensions><gpxhb:speed>-1.000000</gpxhb:speed><gpxhb:course>-1.000000</gpxhb:course></extensions></trkpt><trkpt lat="22.86022675065588" lon="120.6432455242875"><ele>176.4</ele><time>2026-07-11T23:49:02Z</time><src>Hikingbook</src><extensions><gpxhb:speed>-1.000000</gpxhb:speed><gpxhb:course>-1.000000</gpxhb:course></extensions></trkpt><trkpt lat="22.860025886051798" lon="120.6433781634015"><ele>175.5</ele><time>2026-07-11T23:49:40Z</time><src>Hikingbook</src><extensions><gpxhb:speed>-1.000000</gpxhb:speed><gpxhb:course>-1.000000</gpxhb:course></extensions></trkpt><trkpt lat="22.859975702923922" lon="120.64371128315832"><ele>188</ele><time>2026-07-11T23:50:24Z</time><src>Hikingbook</src><extensions><gpxhb:speed>-1.000000</gpxhb:speed><gpxhb:course>-1.000000</gpxhb:course></extensions></trkpt><trkpt lat="22.860226523747855" lon="120.64348680806769"><ele>192.6</ele><time>2026-07-11T23:51:08Z</time><src>Hikingbook</src><extensions><gpxhb:speed>-1.000000</gpxhb:speed><gpxhb:course>-1.000000</gpxhb:course></extensions></trkpt><trkpt lat="22.860469530850292" lon="120.64377938404338"><ele>200.2</ele><time>2026-07-11T23:51:50Z</time><src>Hikingbook</src><extensions><gpxhb:speed>-1.000000</gpxhb:speed><gpxhb:course>-1.000000</gpxhb:course></extensions></trkpt><trkpt lat="22.86075497517288" lon="120.64351951436392"><ele>199.5</ele><time>2026-07-11T23:52:26Z</time><src>Hikingbook</src><extensions><gpxhb:speed>-1.000000</gpxhb:speed><gpxhb:course>-1.000000</gpxhb:course></extensions></trkpt><trkpt lat="22.861271662279783" lon="120.64401778176695"><ele>212.4</ele><time>2026-07-11T23:53:41Z</time><src>Hikingbook</src><extensions><gpxhb:speed>-1.000000</gpxhb:speed><gpxhb:course>-1.000000</gpxhb:course></extensions></trkpt><trkpt lat="22.861478522789774" lon="120.6439070767147"><ele>219.3</ele><time>2026-07-11T23:54:19Z</time><src>Hikingbook</src><extensions><gpxhb:speed>-1.000000</gpxhb:speed><gpxhb:course>-1.000000</gpxhb:course></extensions></trkpt><trkpt lat="22.86159908091756" lon="120.6440772138124"><ele>225</ele><time>2026-07-11T23:54:39Z</time><src>Hikingbook</src><extensions><gpxhb:speed>-1.000000</gpxhb:speed><gpxhb:course>-1.000000</gpxhb:course></extensions></trkpt><trkpt lat="22.86125082320726" lon="120.64424572460861"><ele>241.2</ele><time>2026-07-11T23:55:49Z</time><src>Hikingbook</src><extensions><gpxhb:speed>-1.000000</gpxhb:speed><gpxhb:course>-1.000000</gpxhb:course></extensions></trkpt><trkpt lat="22.860750916771785" lon="120.64424207278178"><ele>250.3</ele><time>2026-07-11T23:57:05Z</time><src>Hikingbook</src><extensions><gpxhb:speed>-1.000000</gpxhb:speed><gpxhb:course>-1.000000</gpxhb:course></extensions></trkpt><trkpt lat="22.86145288236076" lon="120.64487948862903"><ele>265.5</ele><time>2026-07-12T00:02:25Z</time><src>Hikingbook</src><extensions><gpxhb:speed>-1.000000</gpxhb:speed><gpxhb:course>-1.000000</gpxhb:course></extensions></trkpt><trkpt lat="22.86114249747808" lon="120.64474016159447"><ele>266.7</ele><time>2026-07-12T00:02:59Z</time><src>Hikingbook</src><extensions><gpxhb:speed>-1.000000</gpxhb:speed><gpxhb:course>-1.000000</gpxhb:course></extensions></trkpt><trkpt lat="22.86097428218476" lon="120.64482149765706"><ele>267.3</ele><time>2026-07-12T00:03:25Z</time><src>Hikingbook</src><extensions><gpxhb:speed>-1.000000</gpxhb:speed><gpxhb:course>-1.000000</gpxhb:course></extensions></trkpt><trkpt lat="22.861181037287324" lon="120.64494935090748"><ele>273.2</ele><time>2026-07-12T00:04:18Z</time><src>Hikingbook</src><extensions><gpxhb:speed>-1.000000</gpxhb:speed><gpxhb:course>-1.000000</gpxhb:course></extensions></trkpt><trkpt lat="22.861138661275234" lon="120.64567977233835"><ele>301.2</ele><time>2026-07-12T00:07:02Z</time><src>Hikingbook</src><extensions><gpxhb:speed>-1.000000</gpxhb:speed><gpxhb:course>-1.000000</gpxhb:course></extensions></trkpt><trkpt lat="22.860942462058464" lon="120.64616353107554"><ele>327</ele><time>2026-07-12T00:15:15Z</time><src>Hikingbook</src><extensions><gpxhb:speed>-1.000000</gpxhb:speed><gpxhb:course>-1.000000</gpxhb:course></extensions></trkpt><trkpt lat="22.860802218221536" lon="120.64630376821371"><ele>331.3</ele><time>2026-07-12T00:23:25Z</time><src>Hikingbook</src><extensions><gpxhb:speed>-1.000000</gpxhb:speed><gpxhb:course>-1.000000</gpxhb:course></extensions></trkpt><trkpt lat="22.86071219149897" lon="120.64651935099323"><ele>342</ele><time>2026-07-12T00:23:50Z</time><src>Hikingbook</src><extensions><gpxhb:speed>-1.000000</gpxhb:speed><gpxhb:course>-1.000000</gpxhb:course></extensions></trkpt><trkpt lat="22.86011379156907" lon="120.64673665118409"><ele>350.2</ele><time>2026-07-12T00:25:24Z</time><src>Hikingbook</src><extensions><gpxhb:speed>-1.000000</gpxhb:speed><gpxhb:course>-1.000000</gpxhb:course></extensions></trkpt><trkpt lat="22.860211273003227" lon="120.64651642807976"><ele>348.2</ele><time>2026-07-12T00:46:16Z</time><src>Hikingbook</src><extensions><gpxhb:speed>-1.000000</gpxhb:speed><gpxhb:course>-1.000000</gpxhb:course></extensions></trkpt><trkpt lat="22.860407057869864" lon="120.64638108471718"><ele>327.1</ele><time>2026-07-12T00:53:12Z</time><src>Hikingbook</src><extensions><gpxhb:speed>-1.000000</gpxhb:speed><gpxhb:course>-1.000000</gpxhb:course></extensions></trkpt><trkpt lat="22.860596161521556" lon="120.64599493564089"><ele>322.8</ele><time>2026-07-12T02:15:37Z</time><src>Hikingbook</src><extensions><gpxhb:speed>-1.000000</gpxhb:speed><gpxhb:course>-1.000000</gpxhb:course></extensions></trkpt><trkpt lat="22.8604862589946" lon="120.64579979806491"><ele>312.6</ele><time>2026-07-12T02:17:09Z</time><src>Hikingbook</src><extensions><gpxhb:speed>-1.000000</gpxhb:speed><gpxhb:course>-1.000000</gpxhb:course></extensions></trkpt><trkpt lat="22.86075399817404" lon="120.64536365581941"><ele>255.1</ele><time>2026-07-12T03:22:48Z</time><src>Hikingbook</src><extensions><gpxhb:speed>-1.000000</gpxhb:speed><gpxhb:course>-1.000000</gpxhb:course></extensions></trkpt><trkpt lat="22.86067479259301" lon="120.6449218647439"><ele>250.1</ele><time>2026-07-12T03:29:30Z</time><src>Hikingbook</src><extensions><gpxhb:speed>-1.000000</gpxhb:speed><gpxhb:course>-1.000000</gpxhb:course></extensions></trkpt><trkpt lat="22.860255729292664" lon="120.64469363024398"><ele>224.8</ele><time>2026-07-12T04:00:36Z</time><src>Hikingbook</src><extensions><gpxhb:speed>-1.000000</gpxhb:speed><gpxhb:course>-1.000000</gpxhb:course></extensions></trkpt><trkpt lat="22.8599543067129" lon="120.64432212183821"><ele>207.4</ele><time>2026-07-12T04:10:06Z</time><src>Hikingbook</src><extensions><gpxhb:speed>-1.000000</gpxhb:speed><gpxhb:course>-1.000000</gpxhb:course></extensions></trkpt><trkpt lat="22.85966215968865" lon="120.6442777111864"><ele>196.1</ele><time>2026-07-12T04:10:28Z</time><src>Hikingbook</src><extensions><gpxhb:speed>-1.000000</gpxhb:speed><gpxhb:course>-1.000000</gpxhb:course></extensions></trkpt><trkpt lat="22.859706874267346" lon="120.64419506804259"><ele>200</ele><time>2026-07-12T04:11:47Z</time><src>Hikingbook</src><extensions><gpxhb:speed>-1.000000</gpxhb:speed><gpxhb:course>-1.000000</gpxhb:course></extensions></trkpt><trkpt lat="22.85966462786215" lon="120.64377401824744"><ele>184</ele><time>2026-07-12T04:23:18Z</time><src>Hikingbook</src><extensions><gpxhb:speed>-1.000000</gpxhb:speed><gpxhb:course>-1.000000</gpxhb:course></extensions></trkpt><trkpt lat="22.859734939584055" lon="120.64374698165439"><ele>175.5</ele><time>2026-07-12T04:24:48Z</time><src>Hikingbook</src><extensions><gpxhb:speed>-1.000000</gpxhb:speed><gpxhb:course>-1.000000</gpxhb:course></extensions></trkpt><trkpt lat="22.859814889544815" lon="120.64333303516793"><ele>168.9</ele><time>2026-07-12T04:28:33Z</time><src>Hikingbook</src><extensions><gpxhb:speed>-1.000000</gpxhb:speed><gpxhb:course>-1.000000</gpxhb:course></extensions></trkpt><trkpt lat="22.859801813391563" lon="120.6428956220445"><ele>165.6</ele><time>2026-07-12T04:29:36Z</time><src>Hikingbook</src><extensions><gpxhb:speed>-1.000000</gpxhb:speed><gpxhb:course>-1.000000</gpxhb:course></extensions></trkpt><trkpt lat="22.85999506837317" lon="120.64272960866491"><ele>161.2</ele><time>2026-07-12T04:30:02Z</time><src>Hikingbook</src><extensions><gpxhb:speed>-1.000000</gpxhb:speed><gpxhb:course>-1.000000</gpxhb:course></extensions></trkpt><trkpt lat="22.860243326658242" lon="120.64265444972875"><ele>172.6</ele><time>2026-07-12T04:30:31Z</time><src>Hikingbook</src><extensions><gpxhb:speed>-1.000000</gpxhb:speed><gpxhb:course>-1.000000</gpxhb:course></extensions></trkpt><trkpt lat="22.860432787998782" lon="120.64276656039381"><ele>158.1</ele><time>2026-07-12T04:30:59Z</time><src>Hikingbook</src><extensions><gpxhb:speed>-1.000000</gpxhb:speed><gpxhb:course>-1.000000</gpxhb:course></extensions></trkpt><trkpt lat="22.860541101392077" lon="120.64240329633449"><ele>152.5</ele><time>2026-07-12T04:31:55Z</time><src>Hikingbook</src><extensions><gpxhb:speed>-1.000000</gpxhb:speed><gpxhb:course>-1.000000</gpxhb:course></extensions></trkpt><trkpt lat="22.860580560487453" lon="120.64176666051789"><ele>147.3</ele><time>2026-07-12T04:32:49Z</time><src>Hikingbook</src><extensions><gpxhb:speed>-1.000000</gpxhb:speed><gpxhb:course>-1.000000</gpxhb:course></extensions></trkpt><trkpt lat="22.86036371102485" lon="120.641687489741"><ele>147.7</ele><time>2026-07-12T04:33:14Z</time><src>Hikingbook</src><extensions><gpxhb:speed>-1.000000</gpxhb:speed><gpxhb:course>-1.000000</gpxhb:course></extensions></trkpt><trkpt lat="22.860314648247453" lon="120.64121496822676"><ele>141.8</ele><time>2026-07-12T04:33:50Z</time><src>Hikingbook</src><extensions><gpxhb:speed>-1.000000</gpxhb:speed><gpxhb:course>-1.000000</gpxhb:course></extensions></trkpt></trkseg></trk></gpx>