<?xml version="1.0" encoding="UTF-8"?>
<gpx version="1.1" creator="Hikingbook" xmlns:xsi="http://www.w3.org/2001/XMLSchema-instance" xmlns="http://www.topografix.com/GPX/1/1" xsi:schemaLocation="http://www.topografix.com/GPX/1/1 https://www.topografix.com/GPX/1/1/gpx.xsd https://hikingbook.net/xmlschemas/1/5 https:/hikingbook.net/xmlschemas/1/5/gpxhb.xsd" xmlns:gpxhb="https://hikingbook.net/xmlschemas/1/5"><metadata><name>🪢奇遇瀑布群-(2025-05-04）-「溪降」［🇹🇼宜蘭-南澳］</name><desc>W-waterfall (瀑布）&#xA;S-slideway (滑瀑）&#xA;L-left(左岸）&#xA;TL-TopLeft(高左岸）&#xA;BL-BottomLeft(低左岸）&#xA;R-right(右岸）&#xA;TR-TopRight(高右岸）&#xA;BR-BottomRight(低右岸）&#xA;C-center(中岸）&#xA;&#xA;WT-waterfalltop(瀑頂）&#xA;WB-waterfallbottom(瀑底）&#xA;M-middle(中繼點）&#xA;D-deep(深潭）&#xA;G-guide (滑降）&#xA;B-bolt(人工錨點）&#xA;N-nature(天然錨點）&#xA;PB-personal bolt (人力錨點）&#xA;DB-damaged bolt(損壞錨點）&#xA;TR-Traverse(橫移）&#xA;&#xA;Ex: &#xA;W1(M1-L)-B2-18m，D-5m&#xA;「瀑布1（中繼點1-左岸）-bolt有兩顆-使用繩長18米，深潭5公尺長」&#xA;&#xA;成員：&#xA;潾兒、Jimce、Jim、中信、嘉玲、雷新、瑪琳、信銨、坤龍、威宇、Mimi謝汶 、博文&#xA;&#xA;裝備：&#xA;繩- &#xA;       Kuku(8.0)*100+&#xA;       Human(9.0)*100+&#xA;       Human(9.0)*80+&#xA;       台製可浮靜力繩（9）*30&#xA;       CE4Y （9.0）*46&#xA;&#xA;扁帶*6-&#xA;&#xA;電鑽組*1&#xA;（M8)Bolt*8set&#xA;&#xA;砍刀*1&#xA;&#xA;急救包：&#xA;&#xA;無線電-&#xA;頻率：457.51250&#xA;啞音：D023N&#xA;</desc><author><name>Hikingbook</name><link href="https://hikingbook.net"><text>Hikingbook</text></link></author><link href="https://hikingbook.net/hikes/2025-5-4-%E6%99%A8%E9%96%93%E9%87%8D%E8%A3%9D%E7%99%BB%E5%B1%B1-%E6%BE%B3%E8%8A%B1%E7%80%91%E5%B8%83-a5264888"><text>Hikingbook</text></link><time>2026-07-12T21:45:21.704737926+08:00</time><keywords>Hikingbook,EzLife ,Taiwan,宜蘭,南澳,Canyoning ,溪降</keywords><extensions><gpxhb:loadweight>10.0</gpxhb:loadweight><gpxhb:fitnesslevel>1</gpxhb:fitnesslevel><gpxhb:activitytype>others</gpxhb:activitytype><gpxhb:trailid>aad8ccb2-de45-42c5-b672-9b80b1ee88ac</gpxhb:trailid><gpxhb:trackimageurl>https://assets.hikingbook.net/users/60w3wu1it91y2jmwdxciziq/2odvj91q5rbas8291w1ebybq/f5aa277c-71ac-4900-8612-df34b6f8f48e.jpg</gpxhb:trackimageurl><gpxhb:device>Apple iPhone 13 Pro</gpxhb:device><gpxhb:source>Hikingbook</gpxhb:source></extensions></metadata><wpt lat="24.382539917855247" lon="121.78413947716642"><ele>225</ele><time>2025-05-04T00:01:20Z</time><name>00 S</name><cmt>2025-05-04T08:01:20+08:00</cmt><desc>00 S</desc><src>Hikingbook</src><link href="https://hikingbook.net/hikes/2ODvJ91q5RBas8291W1EBYbQ"><text>Hikingbook</text></link><extensions><gpxhb:weather>Clear</gpxhb:weather><gpxhb:speed>0.026044</gpxhb:speed><gpxhb:course>-1.000000</gpxhb:course></extensions></wpt><wpt lat="24.38254105496123" lon="121.78412998604905"><ele>224</ele><time>2025-05-04T00:01:34Z</time><name>01 W1(WT-C-N-12m)&#xA;</name><cmt>2025-05-04T08:01:34+08:00</cmt><desc>01 W1(WT-C-N-12m)&#xA;</desc><src>Hikingbook</src><link href="https://hikingbook.net/hikes/2ODvJ91q5RBas8291W1EBYbQ"><text>Hikingbook</text></link><extensions><gpxhb:weather>Clear</gpxhb:weather><gpxhb:speed>0.324045</gpxhb:speed><gpxhb:course>-1.000000</gpxhb:course></extensions></wpt><wpt lat="24.382680951892805" lon="121.78496104805517"><ele>188</ele><time>2025-05-04T00:20:12Z</time><name>02 W2(WT-L-N-2m)</name><cmt>2025-05-04T08:20:12+08:00</cmt><desc>02 W2(WT-L-N-2m)</desc><src>Hikingbook</src><link href="https://hikingbook.net/hikes/2ODvJ91q5RBas8291W1EBYbQ"><text>Hikingbook</text></link><extensions><gpxhb:weather>Clear</gpxhb:weather><gpxhb:speed>0.211161</gpxhb:speed><gpxhb:course>-1.000000</gpxhb:course></extensions></wpt><wpt lat="24.38276" lon="121.78507"><ele>181</ele><time>2025-05-04T00:22:30Z</time><name>03 W3(WT-L-N-6m)</name><cmt>2025-05-04T08:22:30+08:00</cmt><desc>03 W3(WT-L-N-6m)</desc><src>Hikingbook</src><link href="https://hikingbook.net/hikes/2ODvJ91q5RBas8291W1EBYbQ"><text>Hikingbook</text></link><extensions><gpxhb:weather>Clear</gpxhb:weather><gpxhb:speed>-1.000000</gpxhb:speed><gpxhb:course>-1.000000</gpxhb:course></extensions></wpt><wpt lat="24.38285" lon="121.78524"><ele>175</ele><time>2025-05-04T00:31:16Z</time><name>04 W4(WT-L-N-20m)</name><cmt>2025-05-04T08:31:16+08:00</cmt><desc>04 W4(WT-L-N-20m)</desc><src>Hikingbook</src><link href="https://hikingbook.net/hikes/2ODvJ91q5RBas8291W1EBYbQ"><text>Hikingbook</text></link><extensions><gpxhb:weather>Clear</gpxhb:weather><gpxhb:speed>-1.000000</gpxhb:speed><gpxhb:course>-1.000000</gpxhb:course></extensions></wpt><wpt lat="24.38295747651062" lon="121.78548121144345"><ele>161</ele><time>2025-05-04T01:01:51Z</time><name>05 W5(WT-R-B1-25m)</name><cmt>2025-05-04T09:01:51+08:00</cmt><desc>05 W5(WT-R-B1-25m)</desc><src>Hikingbook</src><link href="https://hikingbook.net/hikes/2ODvJ91q5RBas8291W1EBYbQ"><text>Hikingbook</text></link><extensions><gpxhb:weather>Clear</gpxhb:weather><gpxhb:speed>1.049700</gpxhb:speed><gpxhb:course>227.643184</gpxhb:course></extensions></wpt><wpt lat="24.38297081743937" lon="121.78566048067584"><ele>148</ele><time>2025-05-04T01:06:55Z</time><name>06 W6(WT-R-B1-3m)</name><cmt>2025-05-04T09:06:55+08:00</cmt><desc>06 W6(WT-R-B1-3m)</desc><src>Hikingbook</src><link href="https://hikingbook.net/hikes/2ODvJ91q5RBas8291W1EBYbQ"><text>Hikingbook</text></link><extensions><gpxhb:weather>Clear</gpxhb:weather><gpxhb:speed>0.499255</gpxhb:speed><gpxhb:course>-1.000000</gpxhb:course></extensions></wpt><wpt lat="24.38297" lon="121.78581"><ele>132</ele><time>2025-05-04T01:12:22Z</time><name>07 W6(M1-L-B2-17m)</name><cmt>2025-05-04T09:12:22+08:00</cmt><desc>07 W6(M1-L-B2-17m)</desc><src>Hikingbook</src><link href="https://hikingbook.net/hikes/2ODvJ91q5RBas8291W1EBYbQ"><text>Hikingbook</text></link><extensions><gpxhb:weather>Clear</gpxhb:weather><gpxhb:speed>-1.000000</gpxhb:speed><gpxhb:course>-1.000000</gpxhb:course></extensions></wpt><wpt lat="24.3829260343447" lon="121.7860724457635"><ele>128</ele><time>2025-05-04T01:18:28Z</time><name>08 W7(WT-C-N-7m)</name><cmt>2025-05-04T09:18:28+08:00</cmt><desc>08 W7(WT-C-N-7m)</desc><src>Hikingbook</src><link href="https://hikingbook.net/hikes/2ODvJ91q5RBas8291W1EBYbQ"><text>Hikingbook</text></link><extensions><gpxhb:weather>Clear</gpxhb:weather><gpxhb:speed>0.302892</gpxhb:speed><gpxhb:course>-1.000000</gpxhb:course></extensions></wpt><wpt lat="24.382894677132725" lon="121.7861941830458"><ele>117</ele><time>2025-05-04T01:47:02Z</time><name>09 W7(M1-R-B2-45m)</name><cmt>2025-05-04T09:47:02+08:00</cmt><desc>09 W7(M1-R-B2-45m)</desc><src>Hikingbook</src><link href="https://hikingbook.net/hikes/2ODvJ91q5RBas8291W1EBYbQ"><text>Hikingbook</text></link><extensions><gpxhb:weather>Clear</gpxhb:weather><gpxhb:speed>0.690000</gpxhb:speed><gpxhb:course>-1.000000</gpxhb:course></extensions></wpt><wpt lat="24.382750801764786" lon="121.78628873091357"><ele>72</ele><time>2025-05-04T03:12:42Z</time><name>10 W8(WT-R-B2-28m)</name><cmt>2025-05-04T11:12:42+08:00</cmt><desc>10 W8(WT-R-B2-28m)</desc><src>Hikingbook</src><link href="https://hikingbook.net/hikes/2ODvJ91q5RBas8291W1EBYbQ"><text>Hikingbook</text></link><extensions><gpxhb:weather>Clear</gpxhb:weather><gpxhb:speed>0.000000</gpxhb:speed><gpxhb:course>-1.000000</gpxhb:course></extensions></wpt><wpt lat="24.38280601093849" lon="121.78685728049278"><ele>59</ele><time>2025-05-04T03:22:36Z</time><name>11 W9(WT-R-B1-10m)</name><cmt>2025-05-04T11:22:36+08:00</cmt><desc>11 W9(WT-R-B1-10m)</desc><src>Hikingbook</src><link href="https://hikingbook.net/hikes/2ODvJ91q5RBas8291W1EBYbQ"><text>Hikingbook</text></link><extensions><gpxhb:weather>Clear</gpxhb:weather><gpxhb:speed>0.000000</gpxhb:speed><gpxhb:course>-1.000000</gpxhb:course></extensions></wpt><wpt lat="24.38295394292456" lon="121.787074607889"><ele>35</ele><time>2025-05-04T03:30:23Z</time><name>12 溪水海水交接點</name><cmt>2025-05-04T11:30:23+08:00</cmt><desc>12 溪水海水交接點</desc><src>Hikingbook</src><link href="https://hikingbook.net/hikes/2ODvJ91q5RBas8291W1EBYbQ"><text>Hikingbook</text></link><extensions><gpxhb:weather>Clear</gpxhb:weather><gpxhb:speed>0.037698</gpxhb:speed><gpxhb:course>-1.000000</gpxhb:course></extensions></wpt><wpt lat="24.393363938513367" lon="121.78806832892353"><ele>9</ele><time>2025-05-04T03:53:01Z</time><name>13 水很多的瀑布（觀音瀑布）</name><cmt>2025-05-04T11:53:01+08:00</cmt><desc>13 水很多的瀑布（觀音瀑布）</desc><src>Hikingbook</src><link href="https://hikingbook.net/hikes/2ODvJ91q5RBas8291W1EBYbQ"><text>Hikingbook</text></link><extensions><gpxhb:weather>Clear</gpxhb:weather><gpxhb:speed>0.073801</gpxhb:speed><gpxhb:course>6.182720</gpxhb:course></extensions></wpt><wpt lat="24.39452165230707" lon="121.78822831198111"><ele>16</ele><time>2025-05-04T03:57:38Z</time><name>14 步道崩塌點</name><cmt>2025-05-04T11:57:38+08:00</cmt><desc>14 步道崩塌點</desc><src>Hikingbook</src><link href="https://hikingbook.net/hikes/2ODvJ91q5RBas8291W1EBYbQ"><text>Hikingbook</text></link><extensions><gpxhb:weather>Clear</gpxhb:weather><gpxhb:speed>0.069118</gpxhb:speed><gpxhb:course>28.082772</gpxhb:course></extensions></wpt><wpt lat="24.39656746683703" lon="121.7884536483525"><ele>6</ele><time>2025-05-04T04:01:53Z</time><name>15 抵達-白雲石接駁點</name><cmt>2025-05-04T12:01:53+08:00</cmt><desc>15 抵達-白雲石接駁點</desc><src>Hikingbook</src><link href="https://hikingbook.net/hikes/2ODvJ91q5RBas8291W1EBYbQ"><text>Hikingbook</text></link><extensions><gpxhb:weather>Clear</gpxhb:weather><gpxhb:speed>0.760065</gpxhb:speed><gpxhb:course>349.278251</gpxhb:course></extensions></wpt><wpt lat="24.40255143770076" lon="121.78945724788177"><ele>15</ele><time>2025-05-04T04:24:34Z</time><name>16 滴水坑瀑布</name><cmt>2025-05-04T12:24:34+08:00</cmt><desc>16 滴水坑瀑布</desc><src>Hikingbook</src><link href="https://hikingbook.net/hikes/2ODvJ91q5RBas8291W1EBYbQ"><text>Hikingbook</text></link><extensions><gpxhb:weather>Clear</gpxhb:weather><gpxhb:speed>6.180801</gpxhb:speed><gpxhb:course>11.448768</gpxhb:course></extensions></wpt><wpt lat="24.43832247890494" lon="121.8010768355368"><ele>12</ele><time>2025-05-04T04:34:59Z</time><name>17 E</name><cmt>2025-05-04T12:34:59+08:00</cmt><desc>17 E</desc><src>Hikingbook</src><link href="https://hikingbook.net/hikes/2ODvJ91q5RBas8291W1EBYbQ"><text>Hikingbook</text></link><extensions><gpxhb:weather>Clear</gpxhb:weather><gpxhb:speed>4.954100</gpxhb:speed><gpxhb:course>348.490509</gpxhb:course></extensions></wpt><trk><name>🪢奇遇瀑布群-(2025-05-04）-「溪降」［🇹🇼宜蘭-南澳］</name><cmt>W-waterfall (瀑布）&#xA;S-slideway (滑瀑）&#xA;L-left(左岸）&#xA;TL-TopLeft(高左岸）&#xA;BL-BottomLeft(低左岸）&#xA;R-right(右岸）&#xA;TR-TopRight(高右岸）&#xA;BR-BottomRight(低右岸）&#xA;C-center(中岸）&#xA;&#xA;WT-waterfalltop(瀑頂）&#xA;WB-waterfallbottom(瀑底）&#xA;M-middle(中繼點）&#xA;D-deep(深潭）&#xA;G-guide (滑降）&#xA;B-bolt(人工錨點）&#xA;N-nature(天然錨點）&#xA;PB-personal bolt (人力錨點）&#xA;DB-damaged bolt(損壞錨點）&#xA;TR-Traverse(橫移）&#xA;&#xA;Ex: &#xA;W1(M1-L)-B2-18m，D-5m&#xA;「瀑布1（中繼點1-左岸）-bolt有兩顆-使用繩長18米，深潭5公尺長」&#xA;&#xA;成員：&#xA;潾兒、Jimce、Jim、中信、嘉玲、雷新、瑪琳、信銨、坤龍、威宇、Mimi謝汶 、博文&#xA;&#xA;裝備：&#xA;繩- &#xA;       Kuku(8.0)*100+&#xA;       Human(9.0)*100+&#xA;       Human(9.0)*80+&#xA;       台製可浮靜力繩（9）*30&#xA;       CE4Y （9.0）*46&#xA;&#xA;扁帶*6-&#xA;&#xA;電鑽組*1&#xA;（M8)Bolt*8set&#xA;&#xA;砍刀*1&#xA;&#xA;急救包：&#xA;&#xA;無線電-&#xA;頻率：457.51250&#xA;啞音：D023N&#xA;</cmt><desc>W-waterfall (瀑布）&#xA;S-slideway (滑瀑）&#xA;L-left(左岸）&#xA;TL-TopLeft(高左岸）&#xA;BL-BottomLeft(低左岸）&#xA;R-right(右岸）&#xA;TR-TopRight(高右岸）&#xA;BR-BottomRight(低右岸）&#xA;C-center(中岸）&#xA;&#xA;WT-waterfalltop(瀑頂）&#xA;WB-waterfallbottom(瀑底）&#xA;M-middle(中繼點）&#xA;D-deep(深潭）&#xA;G-guide (滑降）&#xA;B-bolt(人工錨點）&#xA;N-nature(天然錨點）&#xA;PB-personal bolt (人力錨點）&#xA;DB-damaged bolt(損壞錨點）&#xA;TR-Traverse(橫移）&#xA;&#xA;Ex: &#xA;W1(M1-L)-B2-18m，D-5m&#xA;「瀑布1（中繼點1-左岸）-bolt有兩顆-使用繩長18米，深潭5公尺長」&#xA;&#xA;成員：&#xA;潾兒、Jimce、Jim、中信、嘉玲、雷新、瑪琳、信銨、坤龍、威宇、Mimi謝汶 、博文&#xA;&#xA;裝備：&#xA;繩- &#xA;       Kuku(8.0)*100+&#xA;       Human(9.0)*100+&#xA;       Human(9.0)*80+&#xA;       台製可浮靜力繩（9）*30&#xA;       CE4Y （9.0）*46&#xA;&#xA;扁帶*6-&#xA;&#xA;電鑽組*1&#xA;（M8)Bolt*8set&#xA;&#xA;砍刀*1&#xA;&#xA;急救包：&#xA;&#xA;無線電-&#xA;頻率：457.51250&#xA;啞音：D023N&#xA;</desc><src>Hikingbook</src><link href="https://hikingbook.net/hikes/2025-5-4-%E6%99%A8%E9%96%93%E9%87%8D%E8%A3%9D%E7%99%BB%E5%B1%B1-%E6%BE%B3%E8%8A%B1%E7%80%91%E5%B8%83-a5264888"><text>Hikingbook</text></link><trkseg><trkpt lat="24.38254191191087" lon="121.78413452192561"><ele>224.88114769388287</ele><time>2025-05-04T00:01:21Z</time><src>Hikingbook</src><extensions><gpxhb:speed>0.026044</gpxhb:speed><gpxhb:course>-1.000000</gpxhb:course></extensions></trkpt><trkpt lat="24.38255546508013" lon="121.78415319151983"><ele>221.7127303956535</ele><time>2025-05-04T00:01:58Z</time><src>Hikingbook</src><extensions><gpxhb:speed>0.000000</gpxhb:speed><gpxhb:course>-1.000000</gpxhb:course></extensions></trkpt></trkseg><trkseg><trkpt lat="24.38255546508013" lon="121.78415319151983"><ele>221.7127303956535</ele><time>2025-05-04T00:13:35Z</time><src>Hikingbook</src><extensions><gpxhb:speed>0.000000</gpxhb:speed><gpxhb:course>-1.000000</gpxhb:course></extensions></trkpt><trkpt lat="24.38250676571524" lon="121.78437499942648"><ele>213.65105995440103</ele><time>2025-05-04T00:14:26Z</time><src>Hikingbook</src><extensions><gpxhb:speed>0.755452</gpxhb:speed><gpxhb:course>-1.000000</gpxhb:course></extensions></trkpt><trkpt lat="24.382516613846285" lon="121.78443815404084"><ele>212.36843026187225</ele><time>2025-05-04T00:14:42Z</time><src>Hikingbook</src><extensions><gpxhb:speed>0.528852</gpxhb:speed><gpxhb:course>-1.000000</gpxhb:course></extensions></trkpt><trkpt lat="24.382566299303168" lon="121.78441130996694"><ele>212.68813563150135</ele><time>2025-05-04T00:15:02Z</time><src>Hikingbook</src><extensions><gpxhb:speed>0.034844</gpxhb:speed><gpxhb:course>-1.000000</gpxhb:course></extensions></trkpt><trkpt lat="24.38269189624785" lon="121.7850271051558"><ele>190.2785945016617</ele><time>2025-05-04T00:21:10Z</time><src>Hikingbook</src><extensions><gpxhb:speed>0.000000</gpxhb:speed><gpxhb:course>-1.000000</gpxhb:course></extensions></trkpt></trkseg><trkseg><trkpt lat="24.38269189624785" lon="121.7850271051558"><ele>190.2785945016617</ele><time>2025-05-04T00:22:51Z</time><src>Hikingbook</src><extensions><gpxhb:speed>0.000000</gpxhb:speed><gpxhb:course>-1.000000</gpxhb:course></extensions></trkpt><trkpt lat="24.382771788992464" lon="121.78504598444957"><ele>186.24515120487692</ele><time>2025-05-04T00:22:53Z</time><src>Hikingbook</src><extensions><gpxhb:speed>0.160000</gpxhb:speed><gpxhb:course>-1.000000</gpxhb:course></extensions></trkpt><trkpt lat="24.382710840169246" lon="121.78518047301698"><ele>184.38521794745233</ele><time>2025-05-04T00:23:50Z</time><src>Hikingbook</src><extensions><gpxhb:speed>0.830113</gpxhb:speed><gpxhb:course>-1.000000</gpxhb:course></extensions></trkpt><trkpt lat="24.382814168938577" lon="121.78521558427856"><ele>180.3159828797231</ele><time>2025-05-04T00:25:04Z</time><src>Hikingbook</src><extensions><gpxhb:speed>0.122555</gpxhb:speed><gpxhb:course>-1.000000</gpxhb:course></extensions></trkpt></trkseg><trkseg><trkpt lat="24.382814168938577" lon="121.78521558427856"><ele>180.3159828797231</ele><time>2025-05-04T01:00:06Z</time><src>Hikingbook</src><extensions><gpxhb:speed>0.122555</gpxhb:speed><gpxhb:course>-1.000000</gpxhb:course></extensions></trkpt><trkpt lat="24.382982726710875" lon="121.78532814812507"><ele>178.49396845845544</ele><time>2025-05-04T01:00:08Z</time><src>Hikingbook</src><extensions><gpxhb:speed>0.000000</gpxhb:speed><gpxhb:course>-1.000000</gpxhb:course></extensions></trkpt><trkpt lat="24.382845167415315" lon="121.78540703558721"><ele>162.38945762536713</ele><time>2025-05-04T01:00:27Z</time><src>Hikingbook</src><extensions><gpxhb:speed>1.079695</gpxhb:speed><gpxhb:course>158.771402</gpxhb:course></extensions></trkpt><trkpt lat="24.382936139412287" lon="121.78538736247542"><ele>171.1388797270533</ele><time>2025-05-04T01:00:43Z</time><src>Hikingbook</src><extensions><gpxhb:speed>0.914394</gpxhb:speed><gpxhb:course>-1.000000</gpxhb:course></extensions></trkpt><trkpt lat="24.38310461026498" lon="121.78516581695479"><ele>148.84107208350594</ele><time>2025-05-04T01:01:36Z</time><src>Hikingbook</src><extensions><gpxhb:speed>3.790581</gpxhb:speed><gpxhb:course>299.906971</gpxhb:course></extensions></trkpt></trkseg><trkseg><trkpt lat="24.38310461026498" lon="121.78516581695479"><ele>148.84107208350594</ele><time>2025-05-04T01:07:36Z</time><src>Hikingbook</src><extensions><gpxhb:speed>3.790581</gpxhb:speed><gpxhb:course>299.906971</gpxhb:course></extensions></trkpt><trkpt lat="24.38303225854745" lon="121.78567300464097"><ele>154.5603338395576</ele><time>2025-05-04T01:07:38Z</time><src>Hikingbook</src><extensions><gpxhb:speed>0.000000</gpxhb:speed><gpxhb:course>132.672201</gpxhb:course></extensions></trkpt></trkseg><trkseg><trkpt lat="24.38303225854745" lon="121.78567300464097"><ele>154.5603338395576</ele><time>2025-05-04T01:17:42Z</time><src>Hikingbook</src><extensions><gpxhb:speed>0.000000</gpxhb:speed><gpxhb:course>132.672201</gpxhb:course></extensions></trkpt><trkpt lat="24.38291264906906" lon="121.78592223326706"><ele>110.7761201809017</ele><time>2025-05-04T01:17:46Z</time><src>Hikingbook</src><extensions><gpxhb:speed>0.780000</gpxhb:speed><gpxhb:course>192.656250</gpxhb:course></extensions></trkpt><trkpt lat="24.382910981553856" lon="121.7861429399708"><ele>132.18400548780747</ele><time>2025-05-04T01:18:18Z</time><src>Hikingbook</src><extensions><gpxhb:speed>0.159855</gpxhb:speed><gpxhb:course>-1.000000</gpxhb:course></extensions></trkpt></trkseg><trkseg><trkpt lat="24.38276969323218" lon="121.78631807683789"><ele>89.18830289719035</ele><time>2025-05-04T03:12:48Z</time><src>Hikingbook</src><extensions><gpxhb:speed>0.000000</gpxhb:speed><gpxhb:course>-1.000000</gpxhb:course></extensions></trkpt><trkpt lat="24.382855587849637" lon="121.7863973892982"><ele>100.5727996496874</ele><time>2025-05-04T03:13:07Z</time><src>Hikingbook</src><extensions><gpxhb:speed>0.170000</gpxhb:speed><gpxhb:course>-1.000000</gpxhb:course></extensions></trkpt></trkseg><trkseg><trkpt lat="24.382855587849637" lon="121.7863973892982"><ele>100.5727996496874</ele><time>2025-05-04T03:21:08Z</time><src>Hikingbook</src><extensions><gpxhb:speed>0.170000</gpxhb:speed><gpxhb:course>-1.000000</gpxhb:course></extensions></trkpt><trkpt lat="24.38283188113097" lon="121.78679816685967"><ele>75.43444043465193</ele><time>2025-05-04T03:21:29Z</time><src>Hikingbook</src><extensions><gpxhb:speed>3.433277</gpxhb:speed><gpxhb:course>54.056977</gpxhb:course></extensions></trkpt><trkpt lat="24.38277019097739" lon="121.78675529392493"><ele>65.9681591810849</ele><time>2025-05-04T03:21:45Z</time><src>Hikingbook</src><extensions><gpxhb:speed>0.767455</gpxhb:speed><gpxhb:course>207.182446</gpxhb:course></extensions></trkpt><trkpt lat="24.38274723433164" lon="121.78684647003448"><ele>66.69649864791097</ele><time>2025-05-04T03:22:01Z</time><src>Hikingbook</src><extensions><gpxhb:speed>0.220581</gpxhb:speed><gpxhb:course>-1.000000</gpxhb:course></extensions></trkpt><trkpt lat="24.382805806262507" lon="121.78684410405931"><ele>56.82018538279503</ele><time>2025-05-04T03:22:31Z</time><src>Hikingbook</src><extensions><gpxhb:speed>0.232289</gpxhb:speed><gpxhb:course>-1.000000</gpxhb:course></extensions></trkpt></trkseg><trkseg><trkpt lat="24.382805806262507" lon="121.78684410405931"><ele>56.82018538279503</ele><time>2025-05-04T03:29:17Z</time><src>Hikingbook</src><extensions><gpxhb:speed>0.232289</gpxhb:speed><gpxhb:course>-1.000000</gpxhb:course></extensions></trkpt><trkpt lat="24.38297090165471" lon="121.78684276867463"><ele>29.233995750586587</ele><time>2025-05-04T03:29:19Z</time><src>Hikingbook</src><extensions><gpxhb:speed>0.000000</gpxhb:speed><gpxhb:course>-1.000000</gpxhb:course></extensions></trkpt><trkpt lat="24.382925267852936" lon="121.7870574990706"><ele>36.21548590713705</ele><time>2025-05-04T03:30:02Z</time><src>Hikingbook</src><extensions><gpxhb:speed>0.252853</gpxhb:speed><gpxhb:course>-1.000000</gpxhb:course></extensions></trkpt><trkpt lat="24.383091990620596" lon="121.7872708446019"><ele>19.740146726932814</ele><time>2025-05-04T03:31:52Z</time><src>Hikingbook</src><extensions><gpxhb:speed>1.036883</gpxhb:speed><gpxhb:course>51.763908</gpxhb:course></extensions></trkpt><trkpt lat="24.383576361062588" lon="121.78739373193282"><ele>16.887482957414363</ele><time>2025-05-04T03:33:30Z</time><src>Hikingbook</src><extensions><gpxhb:speed>0.962441</gpxhb:speed><gpxhb:course>5.590731</gpxhb:course></extensions></trkpt><trkpt lat="24.383604284051586" lon="121.78739861011321"><ele>16.80695088764005</ele><time>2025-05-04T03:33:33Z</time><src>Hikingbook</src><extensions><gpxhb:speed>1.058279</gpxhb:speed><gpxhb:course>14.255060</gpxhb:course></extensions></trkpt><trkpt lat="24.38416374476092" lon="121.78737848673649"><ele>15.914389239523993</ele><time>2025-05-04T03:34:44Z</time><src>Hikingbook</src><extensions><gpxhb:speed>1.136026</gpxhb:speed><gpxhb:course>2.631741</gpxhb:course></extensions></trkpt><trkpt lat="24.384435682843698" lon="121.78729835660862"><ele>13.631699950524716</ele><time>2025-05-04T03:35:19Z</time><src>Hikingbook</src><extensions><gpxhb:speed>0.652796</gpxhb:speed><gpxhb:course>347.836498</gpxhb:course></extensions></trkpt><trkpt lat="24.384544683979666" lon="121.78733984913151"><ele>13.831873745803884</ele><time>2025-05-04T03:35:37Z</time><src>Hikingbook</src><extensions><gpxhb:speed>0.424108</gpxhb:speed><gpxhb:course>21.035981</gpxhb:course></extensions></trkpt><trkpt lat="24.384549874735864" lon="121.78734358688665"><ele>13.813890924753446</ele><time>2025-05-04T03:35:38Z</time><src>Hikingbook</src><extensions><gpxhb:speed>0.431396</gpxhb:speed><gpxhb:course>12.972446</gpxhb:course></extensions></trkpt><trkpt lat="24.38502789135207" lon="121.78752737528202"><ele>13.142843977057968</ele><time>2025-05-04T03:36:31Z</time><src>Hikingbook</src><extensions><gpxhb:speed>1.119897</gpxhb:speed><gpxhb:course>9.333415</gpxhb:course></extensions></trkpt><trkpt lat="24.385276578649265" lon="121.78746751247407"><ele>11.714705424231793</ele><time>2025-05-04T03:36:58Z</time><src>Hikingbook</src><extensions><gpxhb:speed>0.909066</gpxhb:speed><gpxhb:course>351.630235</gpxhb:course></extensions></trkpt><trkpt lat="24.385479749195593" lon="121.78752328281362"><ele>15.20622712486063</ele><time>2025-05-04T03:37:20Z</time><src>Hikingbook</src><extensions><gpxhb:speed>0.884240</gpxhb:speed><gpxhb:course>21.074955</gpxhb:course></extensions></trkpt><trkpt lat="24.385495682535048" lon="121.78752800911053"><ele>15.363162149070789</ele><time>2025-05-04T03:37:22Z</time><src>Hikingbook</src><extensions><gpxhb:speed>1.214517</gpxhb:speed><gpxhb:course>28.329734</gpxhb:course></extensions></trkpt><trkpt lat="24.386399617803363" lon="121.7876692075443"><ele>18.550794527903538</ele><time>2025-05-04T03:39:10Z</time><src>Hikingbook</src><extensions><gpxhb:speed>1.054975</gpxhb:speed><gpxhb:course>5.546552</gpxhb:course></extensions></trkpt><trkpt lat="24.38642250804672" lon="121.78767309382518"><ele>18.554305107163437</ele><time>2025-05-04T03:39:12Z</time><src>Hikingbook</src><extensions><gpxhb:speed>1.259644</gpxhb:speed><gpxhb:course>8.547541</gpxhb:course></extensions></trkpt><trkpt lat="24.387423537277105" lon="121.78778486822847"><ele>17.185223470051085</ele><time>2025-05-04T03:40:54Z</time><src>Hikingbook</src><extensions><gpxhb:speed>1.031551</gpxhb:speed><gpxhb:course>12.093200</gpxhb:course></extensions></trkpt><trkpt lat="24.38743258222065" lon="121.78778579756701"><ele>17.31204076256492</ele><time>2025-05-04T03:40:55Z</time><src>Hikingbook</src><extensions><gpxhb:speed>0.944506</gpxhb:speed><gpxhb:course>15.841620</gpxhb:course></extensions></trkpt><trkpt lat="24.38832828391445" lon="121.78791724342315"><ele>14.705285147749347</ele><time>2025-05-04T03:42:36Z</time><src>Hikingbook</src><extensions><gpxhb:speed>1.085638</gpxhb:speed><gpxhb:course>358.915058</gpxhb:course></extensions></trkpt><trkpt lat="24.38833860125443" lon="121.78791965936395"><ele>15.222098534467904</ele><time>2025-05-04T03:42:37Z</time><src>Hikingbook</src><extensions><gpxhb:speed>1.093724</gpxhb:speed><gpxhb:course>4.150953</gpxhb:course></extensions></trkpt><trkpt lat="24.389230888664567" lon="121.788115208613"><ele>19.88231456954999</ele><time>2025-05-04T03:44:09Z</time><src>Hikingbook</src><extensions><gpxhb:speed>1.236040</gpxhb:speed><gpxhb:course>25.398663</gpxhb:course></extensions></trkpt><trkpt lat="24.389240681916444" lon="121.78811956569237"><ele>20.06176265027605</ele><time>2025-05-04T03:44:10Z</time><src>Hikingbook</src><extensions><gpxhb:speed>1.256886</gpxhb:speed><gpxhb:course>27.566709</gpxhb:course></extensions></trkpt><trkpt lat="24.389630457525605" lon="121.78802530371772"><ele>14.10202844125813</ele><time>2025-05-04T03:45:28Z</time><src>Hikingbook</src><extensions><gpxhb:speed>0.947126</gpxhb:speed><gpxhb:course>352.330032</gpxhb:course></extensions></trkpt><trkpt lat="24.39026970942771" lon="121.78803069712981"><ele>15.026192131743965</ele><time>2025-05-04T03:46:43Z</time><src>Hikingbook</src><extensions><gpxhb:speed>1.207870</gpxhb:speed><gpxhb:course>349.787828</gpxhb:course></extensions></trkpt><trkpt lat="24.390284656708012" lon="121.78803316357927"><ele>15.700791585962609</ele><time>2025-05-04T03:46:46Z</time><src>Hikingbook</src><extensions><gpxhb:speed>0.458185</gpxhb:speed><gpxhb:course>353.760356</gpxhb:course></extensions></trkpt><trkpt lat="24.391199826413448" lon="121.7879716930339"><ele>19.51495576589045</ele><time>2025-05-04T03:48:30Z</time><src>Hikingbook</src><extensions><gpxhb:speed>1.021944</gpxhb:speed><gpxhb:course>3.660546</gpxhb:course></extensions></trkpt><trkpt lat="24.39121022270396" lon="121.78797402158763"><ele>19.359427234286528</ele><time>2025-05-04T03:48:31Z</time><src>Hikingbook</src><extensions><gpxhb:speed>1.027509</gpxhb:speed><gpxhb:course>1.141378</gpxhb:course></extensions></trkpt><trkpt lat="24.392139452319277" lon="121.78800737048547"><ele>14.606950114960982</ele><time>2025-05-04T03:50:21Z</time><src>Hikingbook</src><extensions><gpxhb:speed>0.680225</gpxhb:speed><gpxhb:course>19.765485</gpxhb:course></extensions></trkpt><trkpt lat="24.392158570623437" lon="121.78801593909209"><ele>14.430081510823724</ele><time>2025-05-04T03:50:23Z</time><src>Hikingbook</src><extensions><gpxhb:speed>1.396331</gpxhb:speed><gpxhb:course>27.169867</gpxhb:course></extensions></trkpt><trkpt lat="24.392623348926943" lon="121.78797857730275"><ele>12.80301566659453</ele><time>2025-05-04T03:51:18Z</time><src>Hikingbook</src><extensions><gpxhb:speed>1.050922</gpxhb:speed><gpxhb:course>321.000498</gpxhb:course></extensions></trkpt><trkpt lat="24.393078371562815" lon="121.78807142592403"><ele>10.974099439448349</ele><time>2025-05-04T03:52:16Z</time><src>Hikingbook</src><extensions><gpxhb:speed>0.947244</gpxhb:speed><gpxhb:course>7.943755</gpxhb:course></extensions></trkpt><trkpt lat="24.39308760145043" lon="121.78807378861036"><ele>11.057522120716978</ele><time>2025-05-04T03:52:17Z</time><src>Hikingbook</src><extensions><gpxhb:speed>0.851667</gpxhb:speed><gpxhb:course>9.232055</gpxhb:course></extensions></trkpt><trkpt lat="24.39357518556867" lon="121.78803578852649"><ele>15.102854835436665</ele><time>2025-05-04T03:55:06Z</time><src>Hikingbook</src><extensions><gpxhb:speed>1.601973</gpxhb:speed><gpxhb:course>341.568569</gpxhb:course></extensions></trkpt><trkpt lat="24.393821579910895" lon="121.7881692053391"><ele>14.235062817030077</ele><time>2025-05-04T03:55:38Z</time><src>Hikingbook</src><extensions><gpxhb:speed>1.011994</gpxhb:speed><gpxhb:course>15.758260</gpxhb:course></extensions></trkpt><trkpt lat="24.39396125543696" lon="121.78818375757977"><ele>14.883766271961349</ele><time>2025-05-04T03:55:58Z</time><src>Hikingbook</src><extensions><gpxhb:speed>0.802537</gpxhb:speed><gpxhb:course>9.449336</gpxhb:course></extensions></trkpt><trkpt lat="24.394092942114426" lon="121.78811841375263"><ele>15.926329330421861</ele><time>2025-05-04T03:56:14Z</time><src>Hikingbook</src><extensions><gpxhb:speed>0.676309</gpxhb:speed><gpxhb:course>325.942348</gpxhb:course></extensions></trkpt><trkpt lat="24.3940987417976" lon="121.78811437308899"><ele>15.827805913007513</ele><time>2025-05-04T03:56:15Z</time><src>Hikingbook</src><extensions><gpxhb:speed>0.618596</gpxhb:speed><gpxhb:course>325.039497</gpxhb:course></extensions></trkpt><trkpt lat="24.394457668782934" lon="121.78813901806602"><ele>18.410017394650627</ele><time>2025-05-04T03:57:11Z</time><src>Hikingbook</src><extensions><gpxhb:speed>0.791479</gpxhb:speed><gpxhb:course>40.125089</gpxhb:course></extensions></trkpt><trkpt lat="24.394626453577235" lon="121.78825196578632"><ele>13.794897300067744</ele><time>2025-05-04T03:58:08Z</time><src>Hikingbook</src><extensions><gpxhb:speed>0.909224</gpxhb:speed><gpxhb:course>33.174235</gpxhb:course></extensions></trkpt><trkpt lat="24.394996664196928" lon="121.78830864167061"><ele>9.933856316583345</ele><time>2025-05-04T03:58:51Z</time><src>Hikingbook</src><extensions><gpxhb:speed>0.720043</gpxhb:speed><gpxhb:course>18.126022</gpxhb:course></extensions></trkpt><trkpt lat="24.3950674168411" lon="121.7883498297698"><ele>9.149780853359275</ele><time>2025-05-04T03:59:01Z</time><src>Hikingbook</src><extensions><gpxhb:speed>0.899763</gpxhb:speed><gpxhb:course>359.892070</gpxhb:course></extensions></trkpt><trkpt lat="24.39539593690439" lon="121.78842783586715"><ele>7.474919390697987</ele><time>2025-05-04T03:59:39Z</time><src>Hikingbook</src><extensions><gpxhb:speed>0.740249</gpxhb:speed><gpxhb:course>18.628634</gpxhb:course></extensions></trkpt><trkpt lat="24.39579911552127" lon="121.78839347436808"><ele>7.97695637627534</ele><time>2025-05-04T04:00:27Z</time><src>Hikingbook</src><extensions><gpxhb:speed>1.054839</gpxhb:speed><gpxhb:course>348.335358</gpxhb:course></extensions></trkpt><trkpt lat="24.395972478002747" lon="121.78845882071508"><ele>7.81658409756585</ele><time>2025-05-04T04:00:46Z</time><src>Hikingbook</src><extensions><gpxhb:speed>1.020705</gpxhb:speed><gpxhb:course>28.660314</gpxhb:course></extensions></trkpt><trkpt lat="24.395980889868483" lon="121.78846425689333"><ele>7.747218887418801</ele><time>2025-05-04T04:00:47Z</time><src>Hikingbook</src><extensions><gpxhb:speed>1.187755</gpxhb:speed><gpxhb:course>31.430798</gpxhb:course></extensions></trkpt><trkpt lat="24.39642923151113" lon="121.78850323658357"><ele>7.519787736449718</ele><time>2025-05-04T04:01:37Z</time><src>Hikingbook</src><extensions><gpxhb:speed>1.107666</gpxhb:speed><gpxhb:course>5.466499</gpxhb:course></extensions></trkpt><trkpt lat="24.396566993662027" lon="121.78845688748386"><ele>6.419494077889029</ele><time>2025-05-04T04:01:55Z</time><src>Hikingbook</src><extensions><gpxhb:speed>0.760065</gpxhb:speed><gpxhb:course>349.278251</gpxhb:course></extensions></trkpt></trkseg><trkseg><trkpt lat="24.396566993662027" lon="121.78845688748386"><ele>6.419494077889029</ele><time>2025-05-04T04:22:43Z</time><src>Hikingbook</src><extensions><gpxhb:speed>0.760065</gpxhb:speed><gpxhb:course>349.278251</gpxhb:course></extensions></trkpt><trkpt lat="24.397559090187947" lon="121.78864605792896"><ele>8.513852381774567</ele><time>2025-05-04T04:23:04Z</time><src>Hikingbook</src><extensions><gpxhb:speed>5.320000</gpxhb:speed><gpxhb:course>8.437503</gpxhb:course></extensions></trkpt><trkpt lat="24.39760622902395" lon="121.78865578011975"><ele>8.492812954945997</ele><time>2025-05-04T04:23:05Z</time><src>Hikingbook</src><extensions><gpxhb:speed>5.730000</gpxhb:speed><gpxhb:course>10.195317</gpxhb:course></extensions></trkpt><trkpt lat="24.39853722752946" lon="121.78883051067102"><ele>14.364382508656561</ele><time>2025-05-04T04:23:23Z</time><src>Hikingbook</src><extensions><gpxhb:speed>6.388340</gpxhb:speed><gpxhb:course>7.080599</gpxhb:course></extensions></trkpt><trkpt lat="24.398593718451043" lon="121.78884214928509"><ele>14.293719441390936</ele><time>2025-05-04T04:23:24Z</time><src>Hikingbook</src><extensions><gpxhb:speed>5.899412</gpxhb:speed><gpxhb:course>12.832199</gpxhb:course></extensions></trkpt><trkpt lat="24.399583396558448" lon="121.78899793755691"><ele>14.921753001749444</ele><time>2025-05-04T04:23:41Z</time><src>Hikingbook</src><extensions><gpxhb:speed>6.504572</gpxhb:speed><gpxhb:course>9.287431</gpxhb:course></extensions></trkpt><trkpt lat="24.399645144374816" lon="121.78901263627085"><ele>15.76704119581008</ele><time>2025-05-04T04:23:42Z</time><src>Hikingbook</src><extensions><gpxhb:speed>6.660877</gpxhb:speed><gpxhb:course>8.498411</gpxhb:course></extensions></trkpt><trkpt lat="24.4006233065962" lon="121.78919352081452"><ele>17.71433937055134</ele><time>2025-05-04T04:23:59Z</time><src>Hikingbook</src><extensions><gpxhb:speed>6.420524</gpxhb:speed><gpxhb:course>8.911305</gpxhb:course></extensions></trkpt><trkpt lat="24.400679605868415" lon="121.7892012861951"><ele>17.110960132787007</ele><time>2025-05-04T04:24:00Z</time><src>Hikingbook</src><extensions><gpxhb:speed>6.424222</gpxhb:speed><gpxhb:course>8.511540</gpxhb:course></extensions></trkpt><trkpt lat="24.401663607111537" lon="121.7893454606585"><ele>14.179497442963937</ele><time>2025-05-04T04:24:20Z</time><src>Hikingbook</src><extensions><gpxhb:speed>6.095690</gpxhb:speed><gpxhb:course>6.526451</gpxhb:course></extensions></trkpt><trkpt lat="24.40171846920399" lon="121.78934974004147"><ele>14.637565027184143</ele><time>2025-05-04T04:24:21Z</time><src>Hikingbook</src><extensions><gpxhb:speed>5.985339</gpxhb:speed><gpxhb:course>5.837179</gpxhb:course></extensions></trkpt><trkpt lat="24.40275622515011" lon="121.789466843416"><ele>15.014436366513939</ele><time>2025-05-04T04:24:40Z</time><src>Hikingbook</src><extensions><gpxhb:speed>6.184621</gpxhb:speed><gpxhb:course>5.912332</gpxhb:course></extensions></trkpt><trkpt lat="24.40287664197115" lon="121.78947456827801"><ele>14.474642620805314</ele><time>2025-05-04T04:24:42Z</time><src>Hikingbook</src><extensions><gpxhb:speed>6.476593</gpxhb:speed><gpxhb:course>8.748476</gpxhb:course></extensions></trkpt><trkpt lat="24.40379378308319" lon="121.78952919197772"><ele>13.24112966890706</ele><time>2025-05-04T04:24:58Z</time><src>Hikingbook</src><extensions><gpxhb:speed>7.223895</gpxhb:speed><gpxhb:course>6.668689</gpxhb:course></extensions></trkpt><trkpt lat="24.40386005716175" lon="121.78953554277199"><ele>13.220634589012999</ele><time>2025-05-04T04:24:59Z</time><src>Hikingbook</src><extensions><gpxhb:speed>7.068431</gpxhb:speed><gpxhb:course>4.449756</gpxhb:course></extensions></trkpt><trkpt lat="24.404758152565275" lon="121.78965973956912"><ele>15.16328252018514</ele><time>2025-05-04T04:25:13Z</time><src>Hikingbook</src><extensions><gpxhb:speed>6.705633</gpxhb:speed><gpxhb:course>7.419660</gpxhb:course></extensions></trkpt><trkpt lat="24.404817123913592" lon="121.78966752538369"><ele>15.240296765826548</ele><time>2025-05-04T04:25:14Z</time><src>Hikingbook</src><extensions><gpxhb:speed>6.410215</gpxhb:speed><gpxhb:course>5.245743</gpxhb:course></extensions></trkpt><trkpt lat="24.405731196111773" lon="121.78982152012654"><ele>15.193190291004399</ele><time>2025-05-04T04:25:35Z</time><src>Hikingbook</src><extensions><gpxhb:speed>5.332920</gpxhb:speed><gpxhb:course>10.100380</gpxhb:course></extensions></trkpt><trkpt lat="24.405775092053812" lon="121.78983034508754"><ele>15.303776745186259</ele><time>2025-05-04T04:25:36Z</time><src>Hikingbook</src><extensions><gpxhb:speed>5.473113</gpxhb:speed><gpxhb:course>6.854711</gpxhb:course></extensions></trkpt><trkpt lat="24.406666874147646" lon="121.79003771753227"><ele>19.118132711579545</ele><time>2025-05-04T04:25:58Z</time><src>Hikingbook</src><extensions><gpxhb:speed>6.268777</gpxhb:speed><gpxhb:course>17.673573</gpxhb:course></extensions></trkpt><trkpt lat="24.406726235288144" lon="121.79005690513767"><ele>19.24823428460444</ele><time>2025-05-04T04:25:59Z</time><src>Hikingbook</src><extensions><gpxhb:speed>6.394654</gpxhb:speed><gpxhb:course>18.223740</gpxhb:course></extensions></trkpt><trkpt lat="24.40726147695178" lon="121.79016955517581"><ele>17.23887858904265</ele><time>2025-05-04T04:26:10Z</time><src>Hikingbook</src><extensions><gpxhb:speed>2.557234</gpxhb:speed><gpxhb:course>13.376470</gpxhb:course></extensions></trkpt><trkpt lat="24.407627578785156" lon="121.79039069374566"><ele>16.63331082350056</ele><time>2025-05-04T04:26:22Z</time><src>Hikingbook</src><extensions><gpxhb:speed>2.696043</gpxhb:speed><gpxhb:course>20.533987</gpxhb:course></extensions></trkpt><trkpt lat="24.407659781287265" lon="121.79040408076546"><ele>16.647370797853736</ele><time>2025-05-04T04:26:23Z</time><src>Hikingbook</src><extensions><gpxhb:speed>3.939125</gpxhb:speed><gpxhb:course>14.185543</gpxhb:course></extensions></trkpt><trkpt lat="24.408571702644164" lon="121.79067938167344"><ele>16.073868243495614</ele><time>2025-05-04T04:26:44Z</time><src>Hikingbook</src><extensions><gpxhb:speed>5.464855</gpxhb:speed><gpxhb:course>19.654643</gpxhb:course></extensions></trkpt><trkpt lat="24.408626109813895" lon="121.79069805782677"><ele>15.663935434272132</ele><time>2025-05-04T04:26:45Z</time><src>Hikingbook</src><extensions><gpxhb:speed>5.711582</gpxhb:speed><gpxhb:course>19.724345</gpxhb:course></extensions></trkpt><trkpt lat="24.409532730229472" lon="121.79101165188712"><ele>13.405730871237473</ele><time>2025-05-04T04:26:59Z</time><src>Hikingbook</src><extensions><gpxhb:speed>7.921559</gpxhb:speed><gpxhb:course>15.963522</gpxhb:course></extensions></trkpt><trkpt lat="24.409600725053544" lon="121.79103236787648"><ele>13.325886967921642</ele><time>2025-05-04T04:27:00Z</time><src>Hikingbook</src><extensions><gpxhb:speed>8.131312</gpxhb:speed><gpxhb:course>15.198525</gpxhb:course></extensions></trkpt><trkpt lat="24.410496322888623" lon="121.79127712668183"><ele>13.305120476149073</ele><time>2025-05-04T04:27:14Z</time><src>Hikingbook</src><extensions><gpxhb:speed>7.632053</gpxhb:speed><gpxhb:course>10.684230</gpxhb:course></extensions></trkpt><trkpt lat="24.410563595427842" lon="121.79129281700288"><ele>13.38705582915819</ele><time>2025-05-04T04:27:15Z</time><src>Hikingbook</src><extensions><gpxhb:speed>7.920127</gpxhb:speed><gpxhb:course>11.181840</gpxhb:course></extensions></trkpt><trkpt lat="24.411483187358137" lon="121.79147829795384"><ele>13.668823932699727</ele><time>2025-05-04T04:27:28Z</time><src>Hikingbook</src><extensions><gpxhb:speed>7.819942</gpxhb:speed><gpxhb:course>9.326496</gpxhb:course></extensions></trkpt><trkpt lat="24.411554961998196" lon="121.79149027271355"><ele>13.717866575675233</ele><time>2025-05-04T04:27:29Z</time><src>Hikingbook</src><extensions><gpxhb:speed>7.881147</gpxhb:speed><gpxhb:course>7.676304</gpxhb:course></extensions></trkpt><trkpt lat="24.412466800952163" lon="121.79162419475199"><ele>13.34837124084426</ele><time>2025-05-04T04:27:41Z</time><src>Hikingbook</src><extensions><gpxhb:speed>9.163936</gpxhb:speed><gpxhb:course>9.966738</gpxhb:course></extensions></trkpt><trkpt lat="24.412548666324376" lon="121.79164023953102"><ele>13.237289840825476</ele><time>2025-05-04T04:27:42Z</time><src>Hikingbook</src><extensions><gpxhb:speed>8.612142</gpxhb:speed><gpxhb:course>11.921703</gpxhb:course></extensions></trkpt><trkpt lat="24.41348848805375" lon="121.79186937319369"><ele>12.904631710969635</ele><time>2025-05-04T04:27:55Z</time><src>Hikingbook</src><extensions><gpxhb:speed>8.017211</gpxhb:speed><gpxhb:course>15.844720</gpxhb:course></extensions></trkpt><trkpt lat="24.413555016944446" lon="121.79188792984735"><ele>12.881274995974648</ele><time>2025-05-04T04:27:56Z</time><src>Hikingbook</src><extensions><gpxhb:speed>8.090834</gpxhb:speed><gpxhb:course>14.321933</gpxhb:course></extensions></trkpt><trkpt lat="24.41447974731575" lon="121.79220546196902"><ele>10.31117466166136</ele><time>2025-05-04T04:28:10Z</time><src>Hikingbook</src><extensions><gpxhb:speed>7.892732</gpxhb:speed><gpxhb:course>18.089057</gpxhb:course></extensions></trkpt><trkpt lat="24.41454571113876" lon="121.79223232733045"><ele>10.50746388745976</ele><time>2025-05-04T04:28:11Z</time><src>Hikingbook</src><extensions><gpxhb:speed>8.084904</gpxhb:speed><gpxhb:course>18.834598</gpxhb:course></extensions></trkpt><trkpt lat="24.41539203527514" lon="121.79257860828734"><ele>11.374896015057395</ele><time>2025-05-04T04:28:23Z</time><src>Hikingbook</src><extensions><gpxhb:speed>7.929130</gpxhb:speed><gpxhb:course>19.037932</gpxhb:course></extensions></trkpt><trkpt lat="24.41546143547348" lon="121.79260574703568"><ele>11.459280831748552</ele><time>2025-05-04T04:28:24Z</time><src>Hikingbook</src><extensions><gpxhb:speed>8.272679</gpxhb:speed><gpxhb:course>17.614491</gpxhb:course></extensions></trkpt><trkpt lat="24.416344959001435" lon="121.79292535662377"><ele>11.268982690948006</ele><time>2025-05-04T04:28:36Z</time><src>Hikingbook</src><extensions><gpxhb:speed>8.184419</gpxhb:speed><gpxhb:course>16.996567</gpxhb:course></extensions></trkpt><trkpt lat="24.416416777782665" lon="121.79295338126782"><ele>11.384650441170356</ele><time>2025-05-04T04:28:37Z</time><src>Hikingbook</src><extensions><gpxhb:speed>8.270411</gpxhb:speed><gpxhb:course>19.194957</gpxhb:course></extensions></trkpt><trkpt lat="24.417322878257412" lon="121.79328990360804"><ele>10.971308632788258</ele><time>2025-05-04T04:28:49Z</time><src>Hikingbook</src><extensions><gpxhb:speed>8.732763</gpxhb:speed><gpxhb:course>19.659608</gpxhb:course></extensions></trkpt><trkpt lat="24.41739547573756" lon="121.79332221286502"><ele>11.222432584755598</ele><time>2025-05-04T04:28:50Z</time><src>Hikingbook</src><extensions><gpxhb:speed>8.302366</gpxhb:speed><gpxhb:course>23.810669</gpxhb:course></extensions></trkpt><trkpt lat="24.418234402172946" lon="121.79369926079093"><ele>12.062006043946855</ele><time>2025-05-04T04:29:01Z</time><src>Hikingbook</src><extensions><gpxhb:speed>9.099610</gpxhb:speed><gpxhb:course>22.762761</gpxhb:course></extensions></trkpt><trkpt lat="24.418312766045933" lon="121.79373504444811"><ele>11.983935806697806</ele><time>2025-05-04T04:29:02Z</time><src>Hikingbook</src><extensions><gpxhb:speed>9.127621</gpxhb:speed><gpxhb:course>23.046351</gpxhb:course></extensions></trkpt><trkpt lat="24.419143069977583" lon="121.79413201818166"><ele>10.82274123156457</ele><time>2025-05-04T04:29:13Z</time><src>Hikingbook</src><extensions><gpxhb:speed>8.912405</gpxhb:speed><gpxhb:course>23.854179</gpxhb:course></extensions></trkpt><trkpt lat="24.41921634740512" lon="121.79416738598282"><ele>10.81498914983938</ele><time>2025-05-04T04:29:14Z</time><src>Hikingbook</src><extensions><gpxhb:speed>8.894561</gpxhb:speed><gpxhb:course>24.823618</gpxhb:course></extensions></trkpt><trkpt lat="24.42011402267827" lon="121.7945435881334"><ele>12.01907194192206</ele><time>2025-05-04T04:29:26Z</time><src>Hikingbook</src><extensions><gpxhb:speed>9.288746</gpxhb:speed><gpxhb:course>18.853315</gpxhb:course></extensions></trkpt><trkpt lat="24.420190441340612" lon="121.7945734092155"><ele>11.970539405744178</ele><time>2025-05-04T04:29:27Z</time><src>Hikingbook</src><extensions><gpxhb:speed>8.832958</gpxhb:speed><gpxhb:course>20.137981</gpxhb:course></extensions></trkpt><trkpt lat="24.42108760036231" lon="121.79486160077857"><ele>12.983740274145186</ele><time>2025-05-04T04:29:39Z</time><src>Hikingbook</src><extensions><gpxhb:speed>8.535167</gpxhb:speed><gpxhb:course>16.305890</gpxhb:course></extensions></trkpt><trkpt lat="24.421162350635814" lon="121.79488472750235"><ele>13.095391139791731</ele><time>2025-05-04T04:29:40Z</time><src>Hikingbook</src><extensions><gpxhb:speed>8.589943</gpxhb:speed><gpxhb:course>17.033869</gpxhb:course></extensions></trkpt><trkpt lat="24.42206970225603" lon="121.79517104980685"><ele>13.596311624319462</ele><time>2025-05-04T04:29:52Z</time><src>Hikingbook</src><extensions><gpxhb:speed>9.231910</gpxhb:speed><gpxhb:course>16.173421</gpxhb:course></extensions></trkpt><trkpt lat="24.422146031131984" lon="121.79519757467187"><ele>13.499785172227615</ele><time>2025-05-04T04:29:53Z</time><src>Hikingbook</src><extensions><gpxhb:speed>8.535158</gpxhb:speed><gpxhb:course>18.522321</gpxhb:course></extensions></trkpt><trkpt lat="24.423062730470775" lon="121.79545129455647"><ele>8.334574071942116</ele><time>2025-05-04T04:30:05Z</time><src>Hikingbook</src><extensions><gpxhb:speed>8.531737</gpxhb:speed><gpxhb:course>14.653442</gpxhb:course></extensions></trkpt><trkpt lat="24.423137057677117" lon="121.79547150709156"><ele>7.8645017269428825</ele><time>2025-05-04T04:30:06Z</time><src>Hikingbook</src><extensions><gpxhb:speed>8.466620</gpxhb:speed><gpxhb:course>15.710330</gpxhb:course></extensions></trkpt><trkpt lat="24.424013351894846" lon="121.79574532946933"><ele>6.334807742598702</ele><time>2025-05-04T04:30:19Z</time><src>Hikingbook</src><extensions><gpxhb:speed>6.268967</gpxhb:speed><gpxhb:course>24.135851</gpxhb:course></extensions></trkpt><trkpt lat="24.424064004240908" lon="121.79576840423721"><ele>6.309620444124914</ele><time>2025-05-04T04:30:20Z</time><src>Hikingbook</src><extensions><gpxhb:speed>5.215071</gpxhb:speed><gpxhb:course>24.853377</gpxhb:course></extensions></trkpt><trkpt lat="24.424955356092227" lon="121.79607589598164"><ele>10.0176841452963</ele><time>2025-05-04T04:30:44Z</time><src>Hikingbook</src><extensions><gpxhb:speed>7.367602</gpxhb:speed><gpxhb:course>23.360412</gpxhb:course></extensions></trkpt><trkpt lat="24.425016084841886" lon="121.79610577735157"><ele>10.230088000177988</ele><time>2025-05-04T04:30:45Z</time><src>Hikingbook</src><extensions><gpxhb:speed>7.341586</gpxhb:speed><gpxhb:course>22.432647</gpxhb:course></extensions></trkpt><trkpt lat="24.425866765614696" lon="121.79647297460775"><ele>10.208224148750606</ele><time>2025-05-04T04:30:58Z</time><src>Hikingbook</src><extensions><gpxhb:speed>8.005950</gpxhb:speed><gpxhb:course>22.167672</gpxhb:course></extensions></trkpt><trkpt lat="24.42593396758639" lon="121.79650221856055"><ele>10.186973870107312</ele><time>2025-05-04T04:30:59Z</time><src>Hikingbook</src><extensions><gpxhb:speed>8.192753</gpxhb:speed><gpxhb:course>24.071061</gpxhb:course></extensions></trkpt><trkpt lat="24.426862418168696" lon="121.7968936313264"><ele>8.103433478723453</ele><time>2025-05-04T04:31:12Z</time><src>Hikingbook</src><extensions><gpxhb:speed>8.841380</gpxhb:speed><gpxhb:course>23.707325</gpxhb:course></extensions></trkpt><trkpt lat="24.426938648504073" lon="121.79692795307453"><ele>8.092023469036928</ele><time>2025-05-04T04:31:13Z</time><src>Hikingbook</src><extensions><gpxhb:speed>8.674456</gpxhb:speed><gpxhb:course>22.254182</gpxhb:course></extensions></trkpt><trkpt lat="24.427873876658975" lon="121.79732336644804"><ele>9.020301554386121</ele><time>2025-05-04T04:31:26Z</time><src>Hikingbook</src><extensions><gpxhb:speed>7.189986</gpxhb:speed><gpxhb:course>17.945899</gpxhb:course></extensions></trkpt><trkpt lat="24.427934541309323" lon="121.79734233299523"><ele>9.048212240840025</ele><time>2025-05-04T04:31:27Z</time><src>Hikingbook</src><extensions><gpxhb:speed>6.436082</gpxhb:speed><gpxhb:course>16.514520</gpxhb:course></extensions></trkpt><trkpt lat="24.428855924984717" lon="121.79781498242001"><ele>15.294010253526976</ele><time>2025-05-04T04:31:45Z</time><src>Hikingbook</src><extensions><gpxhb:speed>8.138989</gpxhb:speed><gpxhb:course>21.388556</gpxhb:course></extensions></trkpt><trkpt lat="24.428929847233377" lon="121.7978479117865"><ele>15.29626212840661</ele><time>2025-05-04T04:31:46Z</time><src>Hikingbook</src><extensions><gpxhb:speed>8.134046</gpxhb:speed><gpxhb:course>22.302162</gpxhb:course></extensions></trkpt><trkpt lat="24.42978093282502" lon="121.79824301926224"><ele>14.444872343294739</ele><time>2025-05-04T04:31:58Z</time><src>Hikingbook</src><extensions><gpxhb:speed>8.462641</gpxhb:speed><gpxhb:course>25.317373</gpxhb:course></extensions></trkpt><trkpt lat="24.429850947154748" lon="121.79827743886229"><ele>14.321729761792668</ele><time>2025-05-04T04:31:59Z</time><src>Hikingbook</src><extensions><gpxhb:speed>8.272502</gpxhb:speed><gpxhb:course>24.379789</gpxhb:course></extensions></trkpt><trkpt lat="24.430743640321054" lon="121.79865604705071"><ele>11.844140258935512</ele><time>2025-05-04T04:32:21Z</time><src>Hikingbook</src><extensions><gpxhb:speed>4.539918</gpxhb:speed><gpxhb:course>8.994068</gpxhb:course></extensions></trkpt><trkpt lat="24.430779009863485" lon="121.79866116772637"><ele>11.65904233808442</ele><time>2025-05-04T04:32:22Z</time><src>Hikingbook</src><extensions><gpxhb:speed>4.909561</gpxhb:speed><gpxhb:course>14.957125</gpxhb:course></extensions></trkpt><trkpt lat="24.43114345017404" lon="121.79878977540436"><ele>11.461868795038592</ele><time>2025-05-04T04:32:30Z</time><src>Hikingbook</src><extensions><gpxhb:speed>6.632502</gpxhb:speed><gpxhb:course>28.225948</gpxhb:course></extensions></trkpt><trkpt lat="24.431605136492678" lon="121.79906914776925"><ele>12.686285778455138</ele><time>2025-05-04T04:32:38Z</time><src>Hikingbook</src><extensions><gpxhb:speed>7.446587</gpxhb:speed><gpxhb:course>26.467288</gpxhb:course></extensions></trkpt><trkpt lat="24.431667936930122" lon="121.79910608387438"><ele>12.89357356212803</ele><time>2025-05-04T04:32:39Z</time><src>Hikingbook</src><extensions><gpxhb:speed>7.643485</gpxhb:speed><gpxhb:course>26.751022</gpxhb:course></extensions></trkpt><trkpt lat="24.432532518869028" lon="121.79955421897678"><ele>14.533468915415227</ele><time>2025-05-04T04:32:52Z</time><src>Hikingbook</src><extensions><gpxhb:speed>8.425632</gpxhb:speed><gpxhb:course>26.384853</gpxhb:course></extensions></trkpt><trkpt lat="24.432602161095517" lon="121.7995909127995"><ele>14.557035104952583</ele><time>2025-05-04T04:32:53Z</time><src>Hikingbook</src><extensions><gpxhb:speed>8.476846</gpxhb:speed><gpxhb:course>25.914716</gpxhb:course></extensions></trkpt><trkpt lat="24.43339919986969" lon="121.80006741521765"><ele>14.714845725584308</ele><time>2025-05-04T04:33:05Z</time><src>Hikingbook</src><extensions><gpxhb:speed>8.347856</gpxhb:speed><gpxhb:course>31.508690</gpxhb:course></extensions></trkpt><trkpt lat="24.433464046887778" lon="121.80011191652835"><ele>15.110896115499768</ele><time>2025-05-04T04:33:06Z</time><src>Hikingbook</src><extensions><gpxhb:speed>8.398312</gpxhb:speed><gpxhb:course>31.774242</gpxhb:course></extensions></trkpt><trkpt lat="24.43430335823582" lon="121.800675463619"><ele>17.08559214498506</ele><time>2025-05-04T04:33:20Z</time><src>Hikingbook</src><extensions><gpxhb:speed>5.568241</gpxhb:speed><gpxhb:course>11.671461</gpxhb:course></extensions></trkpt><trkpt lat="24.43445245633409" lon="121.80072700165762"><ele>16.545739713920554</ele><time>2025-05-04T04:33:23Z</time><src>Hikingbook</src><extensions><gpxhb:speed>5.637176</gpxhb:speed><gpxhb:course>18.403845</gpxhb:course></extensions></trkpt><trkpt lat="24.43529629475716" lon="121.80117937479433"><ele>12.308844769007079</ele><time>2025-05-04T04:33:39Z</time><src>Hikingbook</src><extensions><gpxhb:speed>5.975696</gpxhb:speed><gpxhb:course>12.125141</gpxhb:course></extensions></trkpt><trkpt lat="24.435454631507525" lon="121.80122505302828"><ele>11.973604874502072</ele><time>2025-05-04T04:33:42Z</time><src>Hikingbook</src><extensions><gpxhb:speed>6.097919</gpxhb:speed><gpxhb:course>13.896890</gpxhb:course></extensions></trkpt><trkpt lat="24.43626602208743" lon="121.80177067268373"><ele>17.77891770913071</ele><time>2025-05-04T04:34:03Z</time><src>Hikingbook</src><extensions><gpxhb:speed>3.683929</gpxhb:speed><gpxhb:course>21.782477</gpxhb:course></extensions></trkpt><trkpt lat="24.436352646041414" lon="121.80178604713814"><ele>17.243015611011558</ele><time>2025-05-04T04:34:06Z</time><src>Hikingbook</src><extensions><gpxhb:speed>3.867179</gpxhb:speed><gpxhb:course>18.032478</gpxhb:course></extensions></trkpt><trkpt lat="24.436645659897685" lon="121.8018710635411"><ele>15.84768578552766</ele><time>2025-05-04T04:34:14Z</time><src>Hikingbook</src><extensions><gpxhb:speed>5.433465</gpxhb:speed><gpxhb:course>25.652959</gpxhb:course></extensions></trkpt><trkpt lat="24.437053527854676" lon="121.8021154697477"><ele>16.93599195754698</ele><time>2025-05-04T04:34:23Z</time><src>Hikingbook</src><extensions><gpxhb:speed>1.581163</gpxhb:speed><gpxhb:course>10.693599</gpxhb:course></extensions></trkpt><trkpt lat="24.437563978633477" lon="121.80172943049388"><ele>17.765032162732844</ele><time>2025-05-04T04:34:38Z</time><src>Hikingbook</src><extensions><gpxhb:speed>5.259951</gpxhb:speed><gpxhb:course>301.371861</gpxhb:course></extensions></trkpt><trkpt lat="24.437744632572347" lon="121.8013508956227"><ele>14.062038808313277</ele><time>2025-05-04T04:34:47Z</time><src>Hikingbook</src><extensions><gpxhb:speed>5.408122</gpxhb:speed><gpxhb:course>303.883473</gpxhb:course></extensions></trkpt><trkpt lat="24.43779656524715" lon="121.80127511632324"><ele>13.904544648494452</ele><time>2025-05-04T04:34:49Z</time><src>Hikingbook</src><extensions><gpxhb:speed>5.568668</gpxhb:speed><gpxhb:course>313.602667</gpxhb:course></extensions></trkpt></trkseg></trk></gpx>