<?xml version="1.0" encoding="UTF-8"?>
<gpx version="1.1" creator="Hikingbook" xmlns:xsi="http://www.w3.org/2001/XMLSchema-instance" xmlns="http://www.topografix.com/GPX/1/1" xsi:schemaLocation="http://www.topografix.com/GPX/1/1 https://www.topografix.com/GPX/1/1/gpx.xsd https://hikingbook.net/xmlschemas/1/5 https:/hikingbook.net/xmlschemas/1/5/gpxhb.xsd" xmlns:gpxhb="https://hikingbook.net/xmlschemas/1/5"><metadata><name>♨️🪢⛺️小錦屏溫泉(2025-01-25）-「溪降-溫泉」［🇹🇼新竹-尖石］</name><desc>W-waterfall (瀑布）&#xA;S-slideway (滑瀑）&#xA;L-left(左岸）&#xA;R-right(右岸）&#xA;T-top(瀑頂）&#xA;M-middle(中繼點）&#xA;D-deep(深潭）&#xA;B-bolt(人工錨點）&#xA;N-nature(天然錨點）&#xA;PB-personal bolt (人力錨點）&#xA;DB-damaged bolt(損壞錨點）&#xA;TR-Traverse(橫移）&#xA;&#xA;Ex: &#xA;W1(M1-L)-B2-18m，D-5m&#xA;「瀑布1（中繼點1-左岸）-bolt有兩顆-使用繩長18米，深潭5公尺長」</desc><author><name>Hikingbook</name><link href="https://hikingbook.net"><text>Hikingbook</text></link></author><link href="https://hikingbook.net/hikes/2025-1-25-%E6%99%A8%E9%96%93%E9%87%8D%E8%A3%9D%E7%99%BB%E5%B1%B1-c466dbff"><text>Hikingbook</text></link><time>2026-07-12T20:13:53.863725086+08:00</time><keywords>Hikingbook,EzLife,小錦屏,溫泉,新竹,尖石,溪降,Canyoning</keywords><extensions><gpxhb:loadweight>5.0</gpxhb:loadweight><gpxhb:fitnesslevel>1</gpxhb:fitnesslevel><gpxhb:activitytype>others</gpxhb:activitytype><gpxhb:trackimageurl>https://assets.hikingbook.net/users/60w3wu1it91y2jmwdxciziq/znjw03yuqdels90c4rpyscw/167f6464-b4ea-4708-a4ef-79d9cad17631.jpg</gpxhb:trackimageurl><gpxhb:device>Apple iPhone 13 Pro</gpxhb:device><gpxhb:source>Hikingbook</gpxhb:source></extensions></metadata><wpt lat="24.64944183828742" lon="121.20559944782518"><ele>635</ele><time>2025-01-25T02:42:17Z</time><name>00 停車場「開始」</name><cmt>2025-01-25T10:42:17+08:00</cmt><desc>00 停車場「開始」</desc><src>Hikingbook</src><link href="https://hikingbook.net/hikes/znJW03yuQdelS90C4rPYScw"><text>Hikingbook</text></link><extensions><gpxhb:weather>Clear</gpxhb:weather><gpxhb:speed>0.330000</gpxhb:speed><gpxhb:course>252.773438</gpxhb:course></extensions></wpt><wpt lat="24.648481368273714" lon="121.20684348920966"><ele>665</ele><time>2025-01-25T02:45:07Z</time><name>01 吊橋入口</name><cmt>2025-01-25T10:45:07+08:00</cmt><desc>01 吊橋入口</desc><src>Hikingbook</src><link href="https://hikingbook.net/hikes/znJW03yuQdelS90C4rPYScw"><text>Hikingbook</text></link><extensions><gpxhb:weather>Clear</gpxhb:weather><gpxhb:speed>1.032104</gpxhb:speed><gpxhb:course>160.319753</gpxhb:course></extensions></wpt><wpt lat="24.647873892167947" lon="121.20631148598528"><ele>665</ele><time>2025-01-25T02:48:12Z</time><name>02 指標牌</name><cmt>2025-01-25T10:48:12+08:00</cmt><desc>02 指標牌</desc><src>Hikingbook</src><link href="https://hikingbook.net/hikes/znJW03yuQdelS90C4rPYScw"><text>Hikingbook</text></link><extensions><gpxhb:weather>Clear</gpxhb:weather><gpxhb:speed>0.000000</gpxhb:speed><gpxhb:course>249.161644</gpxhb:course></extensions></wpt><wpt lat="24.646368440518312" lon="121.20405130869213"><ele>728</ele><time>2025-01-25T03:54:25Z</time><name>03 小岩雙層瀑布-瀑底 下切點</name><cmt>2025-01-25T11:54:25+08:00</cmt><desc>03 小岩雙層瀑布-瀑底 下切點</desc><src>Hikingbook</src><link href="https://hikingbook.net/hikes/znJW03yuQdelS90C4rPYScw"><text>Hikingbook</text></link><extensions><gpxhb:weather>Clear</gpxhb:weather><gpxhb:speed>0.000000</gpxhb:speed><gpxhb:course>277.786276</gpxhb:course></extensions></wpt><wpt lat="24.64560435155839" lon="121.20476444263123"><ele>753</ele><time>2025-01-25T04:23:55Z</time><name>04 W1(T-R)-B1-7m,D-2m</name><cmt>2025-01-25T12:23:55+08:00</cmt><desc>04 W1(T-R)-B1-7m,D-2m</desc><src>Hikingbook</src><link href="https://hikingbook.net/hikes/znJW03yuQdelS90C4rPYScw"><text>Hikingbook</text></link><extensions><gpxhb:weather>Clear</gpxhb:weather><gpxhb:speed>0.000000</gpxhb:speed><gpxhb:course>-1.000000</gpxhb:course></extensions></wpt><wpt lat="24.645540940390863" lon="121.20465855148365"><ele>714</ele><time>2025-01-25T05:33:56Z</time><name>05 W2(T-L)-TR-B4-7m ,D-2m</name><cmt>2025-01-25T13:33:56+08:00</cmt><desc>05 W2(T-L)-TR-B4-7m ,D-2m</desc><src>Hikingbook</src><link href="https://hikingbook.net/hikes/znJW03yuQdelS90C4rPYScw"><text>Hikingbook</text></link><extensions><gpxhb:weather>Clear</gpxhb:weather><gpxhb:speed>0.699369</gpxhb:speed><gpxhb:course>169.613017</gpxhb:course></extensions></wpt><wpt lat="24.647485362543495" lon="121.20394591263448"><ele>676</ele><time>2025-01-25T06:24:07Z</time><name>06 W3</name><cmt>2025-01-25T14:24:07+08:00</cmt><desc>06 W3</desc><src>Hikingbook</src><link href="https://hikingbook.net/hikes/znJW03yuQdelS90C4rPYScw"><text>Hikingbook</text></link><extensions><gpxhb:weather>Clear</gpxhb:weather><gpxhb:speed>0.000000</gpxhb:speed><gpxhb:course>36.354780</gpxhb:course></extensions></wpt><wpt lat="24.648159337306694" lon="121.20452902611163"><ele>674</ele><time>2025-01-25T06:28:11Z</time><name>07 W4(T-R)（小錦屏瀑布）-B3-22m,D-2m</name><cmt>2025-01-25T14:28:11+08:00</cmt><desc>07 W4(T-R)（小錦屏瀑布）-B3-22m,D-2m</desc><src>Hikingbook</src><link href="https://hikingbook.net/hikes/znJW03yuQdelS90C4rPYScw"><text>Hikingbook</text></link><extensions><gpxhb:weather>Clear</gpxhb:weather><gpxhb:speed>0.000000</gpxhb:speed><gpxhb:course>63.758753</gpxhb:course></extensions></wpt><wpt lat="24.648762699544626" lon="121.20624412265303"><ele>653</ele><time>2025-01-25T07:01:33Z</time><name>08 吊橋</name><cmt>2025-01-25T15:01:33+08:00</cmt><desc>08 吊橋</desc><src>Hikingbook</src><link href="https://hikingbook.net/hikes/znJW03yuQdelS90C4rPYScw"><text>Hikingbook</text></link><extensions><gpxhb:weather>Clear</gpxhb:weather><gpxhb:speed>0.084363</gpxhb:speed><gpxhb:course>6.334208</gpxhb:course></extensions></wpt><wpt lat="24.64982923906729" lon="121.20538216239012"><ele>658</ele><time>2025-01-25T07:06:08Z</time><name>09 回切到停車場🅿️</name><cmt>2025-01-25T15:06:08+08:00</cmt><desc>09 回切到停車場🅿️</desc><src>Hikingbook</src><link href="https://hikingbook.net/hikes/znJW03yuQdelS90C4rPYScw"><text>Hikingbook</text></link><extensions><gpxhb:weather>Clear</gpxhb:weather><gpxhb:speed>1.121712</gpxhb:speed><gpxhb:course>75.192169</gpxhb:course></extensions></wpt><wpt lat="24.65042752792958" lon="121.20477991055445"><ele>644</ele><time>2025-01-25T07:08:14Z</time><name>10 溫泉♨️-1（小錦屏溫泉）</name><cmt>2025-01-25T15:08:14+08:00</cmt><desc>10 溫泉♨️-1（小錦屏溫泉）</desc><src>Hikingbook</src><link href="https://hikingbook.net/hikes/znJW03yuQdelS90C4rPYScw"><text>Hikingbook</text></link><extensions><gpxhb:weather>Clear</gpxhb:weather><gpxhb:speed>0.511939</gpxhb:speed><gpxhb:course>326.206173</gpxhb:course></extensions></wpt><wpt lat="24.650650616670234" lon="121.20464099627867"><ele>639</ele><time>2025-01-25T07:09:16Z</time><name>11 溫泉♨️-2（小錦屏溫泉）「結束」</name><cmt>2025-01-25T15:09:16+08:00</cmt><desc>11 溫泉♨️-2（小錦屏溫泉）「結束」</desc><src>Hikingbook</src><link href="https://hikingbook.net/hikes/znJW03yuQdelS90C4rPYScw"><text>Hikingbook</text></link><extensions><gpxhb:weather>Clear</gpxhb:weather><gpxhb:speed>0.000000</gpxhb:speed><gpxhb:course>3.943936</gpxhb:course></extensions></wpt><trk><name>♨️🪢⛺️小錦屏溫泉(2025-01-25）-「溪降-溫泉」［🇹🇼新竹-尖石］</name><cmt>W-waterfall (瀑布）&#xA;S-slideway (滑瀑）&#xA;L-left(左岸）&#xA;R-right(右岸）&#xA;T-top(瀑頂）&#xA;M-middle(中繼點）&#xA;D-deep(深潭）&#xA;B-bolt(人工錨點）&#xA;N-nature(天然錨點）&#xA;PB-personal bolt (人力錨點）&#xA;DB-damaged bolt(損壞錨點）&#xA;TR-Traverse(橫移）&#xA;&#xA;Ex: &#xA;W1(M1-L)-B2-18m，D-5m&#xA;「瀑布1（中繼點1-左岸）-bolt有兩顆-使用繩長18米，深潭5公尺長」</cmt><desc>W-waterfall (瀑布）&#xA;S-slideway (滑瀑）&#xA;L-left(左岸）&#xA;R-right(右岸）&#xA;T-top(瀑頂）&#xA;M-middle(中繼點）&#xA;D-deep(深潭）&#xA;B-bolt(人工錨點）&#xA;N-nature(天然錨點）&#xA;PB-personal bolt (人力錨點）&#xA;DB-damaged bolt(損壞錨點）&#xA;TR-Traverse(橫移）&#xA;&#xA;Ex: &#xA;W1(M1-L)-B2-18m，D-5m&#xA;「瀑布1（中繼點1-左岸）-bolt有兩顆-使用繩長18米，深潭5公尺長」</desc><src>Hikingbook</src><link href="https://hikingbook.net/hikes/2025-1-25-%E6%99%A8%E9%96%93%E9%87%8D%E8%A3%9D%E7%99%BB%E5%B1%B1-c466dbff"><text>Hikingbook</text></link><trkseg><trkpt lat="24.64943596780246" lon="121.20561093720289"><ele>634.871345279333</ele><time>2025-01-25T02:42:18Z</time><src>Hikingbook</src><extensions><gpxhb:speed>0.330000</gpxhb:speed><gpxhb:course>252.773438</gpxhb:course></extensions></trkpt><trkpt lat="24.649387651609462" lon="121.20583205164064"><ele>622.7446349397582</ele><time>2025-01-25T02:42:47Z</time><src>Hikingbook</src><extensions><gpxhb:speed>0.340000</gpxhb:speed><gpxhb:course>117.421876</gpxhb:course></extensions></trkpt><trkpt lat="24.64889360054015" lon="121.20641552773378"><ele>658.7291053881113</ele><time>2025-01-25T02:44:05Z</time><src>Hikingbook</src><extensions><gpxhb:speed>1.021718</gpxhb:speed><gpxhb:course>118.974799</gpxhb:course></extensions></trkpt><trkpt lat="24.648888455876683" lon="121.20642763156276"><ele>658.7571944698389</ele><time>2025-01-25T02:44:06Z</time><src>Hikingbook</src><extensions><gpxhb:speed>1.124916</gpxhb:speed><gpxhb:course>121.166595</gpxhb:course></extensions></trkpt><trkpt lat="24.648734841449127" lon="121.20680572689375"><ele>660.823593441238</ele><time>2025-01-25T02:44:39Z</time><src>Hikingbook</src><extensions><gpxhb:speed>1.058150</gpxhb:speed><gpxhb:course>118.772900</gpxhb:course></extensions></trkpt><trkpt lat="24.648409798302826" lon="121.20683497338185"><ele>665.7286171792233</ele><time>2025-01-25T02:45:16Z</time><src>Hikingbook</src><extensions><gpxhb:speed>0.697374</gpxhb:speed><gpxhb:course>172.357013</gpxhb:course></extensions></trkpt><trkpt lat="24.64833760508675" lon="121.20678622143926"><ele>662.4644211253767</ele><time>2025-01-25T02:45:32Z</time><src>Hikingbook</src><extensions><gpxhb:speed>0.000000</gpxhb:speed><gpxhb:course>181.685658</gpxhb:course></extensions></trkpt></trkseg><trkseg><trkpt lat="24.64833760508675" lon="121.20678622143926"><ele>662.4644211253767</ele><time>2025-01-25T02:46:44Z</time><src>Hikingbook</src><extensions><gpxhb:speed>0.000000</gpxhb:speed><gpxhb:course>181.685658</gpxhb:course></extensions></trkpt><trkpt lat="24.64833119063936" lon="121.20671661521898"><ele>645.0515391039083</ele><time>2025-01-25T02:46:46Z</time><src>Hikingbook</src><extensions><gpxhb:speed>0.900000</gpxhb:speed><gpxhb:course>216.914060</gpxhb:course></extensions></trkpt><trkpt lat="24.64813896543804" lon="121.20663597048446"><ele>659.1965173915889</ele><time>2025-01-25T02:47:06Z</time><src>Hikingbook</src><extensions><gpxhb:speed>0.437183</gpxhb:speed><gpxhb:course>-1.000000</gpxhb:course></extensions></trkpt><trkpt lat="24.6478867975187" lon="121.20632355838306"><ele>665.1452104405284</ele><time>2025-01-25T02:48:03Z</time><src>Hikingbook</src><extensions><gpxhb:speed>0.532764</gpxhb:speed><gpxhb:course>255.837396</gpxhb:course></extensions></trkpt><trkpt lat="24.64777393672991" lon="121.2066019845537"><ele>670.3251432418641</ele><time>2025-01-25T02:49:03Z</time><src>Hikingbook</src><extensions><gpxhb:speed>0.952800</gpxhb:speed><gpxhb:course>131.494756</gpxhb:course></extensions></trkpt><trkpt lat="24.64770664327856" lon="121.20655324631676"><ele>676.4559461203438</ele><time>2025-01-25T02:49:21Z</time><src>Hikingbook</src><extensions><gpxhb:speed>0.945798</gpxhb:speed><gpxhb:course>193.842046</gpxhb:course></extensions></trkpt><trkpt lat="24.647612088739486" lon="121.20609616409158"><ele>682.4563747708825</ele><time>2025-01-25T02:50:13Z</time><src>Hikingbook</src><extensions><gpxhb:speed>1.172250</gpxhb:speed><gpxhb:course>276.141366</gpxhb:course></extensions></trkpt><trkpt lat="24.647609056885535" lon="121.20608905140968"><ele>682.6489695276877</ele><time>2025-01-25T02:50:14Z</time><src>Hikingbook</src><extensions><gpxhb:speed>1.000516</gpxhb:speed><gpxhb:course>276.552995</gpxhb:course></extensions></trkpt><trkpt lat="24.64760411492005" lon="121.20564606669132"><ele>689.5507053944198</ele><time>2025-01-25T02:50:56Z</time><src>Hikingbook</src><extensions><gpxhb:speed>1.090848</gpxhb:speed><gpxhb:course>280.534023</gpxhb:course></extensions></trkpt><trkpt lat="24.647797151726873" lon="121.20521597424943"><ele>695.0104595934404</ele><time>2025-01-25T02:51:47Z</time><src>Hikingbook</src><extensions><gpxhb:speed>0.677250</gpxhb:speed><gpxhb:course>287.923718</gpxhb:course></extensions></trkpt><trkpt lat="24.647791674847088" lon="121.2050655982221"><ele>700.8163793563552</ele><time>2025-01-25T02:52:13Z</time><src>Hikingbook</src><extensions><gpxhb:speed>0.991842</gpxhb:speed><gpxhb:course>295.361568</gpxhb:course></extensions></trkpt><trkpt lat="24.647786547697496" lon="121.20505797950644"><ele>701.1845224466588</ele><time>2025-01-25T02:52:14Z</time><src>Hikingbook</src><extensions><gpxhb:speed>0.811106</gpxhb:speed><gpxhb:course>290.057339</gpxhb:course></extensions></trkpt><trkpt lat="24.647697884898133" lon="121.2049818663787"><ele>706.8908855722038</ele><time>2025-01-25T02:52:37Z</time><src>Hikingbook</src><extensions><gpxhb:speed>0.663311</gpxhb:speed><gpxhb:course>194.731735</gpxhb:course></extensions></trkpt><trkpt lat="24.64773379674037" lon="121.20491925810602"><ele>707.3248021754904</ele><time>2025-01-25T02:53:09Z</time><src>Hikingbook</src><extensions><gpxhb:speed>0.000000</gpxhb:speed><gpxhb:course>228.573941</gpxhb:course></extensions></trkpt><trkpt lat="24.64762667592477" lon="121.20486875376957"><ele>708.2820084819829</ele><time>2025-01-25T02:53:25Z</time><src>Hikingbook</src><extensions><gpxhb:speed>0.432907</gpxhb:speed><gpxhb:course>224.595861</gpxhb:course></extensions></trkpt><trkpt lat="24.647521973417856" lon="121.20456901528266"><ele>710.3196894234522</ele><time>2025-01-25T02:54:00Z</time><src>Hikingbook</src><extensions><gpxhb:speed>1.123524</gpxhb:speed><gpxhb:course>252.328583</gpxhb:course></extensions></trkpt><trkpt lat="24.647212148522847" lon="121.20445091213743"><ele>713.282155389146</ele><time>2025-01-25T02:54:41Z</time><src>Hikingbook</src><extensions><gpxhb:speed>1.131711</gpxhb:speed><gpxhb:course>215.495205</gpxhb:course></extensions></trkpt><trkpt lat="24.647034645060625" lon="121.2042661038921"><ele>716.5010390188827</ele><time>2025-01-25T02:55:08Z</time><src>Hikingbook</src><extensions><gpxhb:speed>0.576349</gpxhb:speed><gpxhb:course>196.277946</gpxhb:course></extensions></trkpt><trkpt lat="24.64702403310486" lon="121.2042590110723"><ele>716.5809379117019</ele><time>2025-01-25T02:55:09Z</time><src>Hikingbook</src><extensions><gpxhb:speed>1.035723</gpxhb:speed><gpxhb:course>198.318237</gpxhb:course></extensions></trkpt><trkpt lat="24.646736373635502" lon="121.20430535879194"><ele>726.3689518134518</ele><time>2025-01-25T02:56:02Z</time><src>Hikingbook</src><extensions><gpxhb:speed>0.686940</gpxhb:speed><gpxhb:course>179.498597</gpxhb:course></extensions></trkpt><trkpt lat="24.64650671895187" lon="121.20409564121779"><ele>725.0903335634232</ele><time>2025-01-25T02:56:35Z</time><src>Hikingbook</src><extensions><gpxhb:speed>0.606565</gpxhb:speed><gpxhb:course>248.936275</gpxhb:course></extensions></trkpt><trkpt lat="24.64631901536421" lon="121.20406523953615"><ele>725.4784550705447</ele><time>2025-01-25T02:57:18Z</time><src>Hikingbook</src><extensions><gpxhb:speed>0.535271</gpxhb:speed><gpxhb:course>159.374854</gpxhb:course></extensions></trkpt><trkpt lat="24.646029774000226" lon="121.20429483990249"><ele>736.119202873288</ele><time>2025-01-25T02:58:26Z</time><src>Hikingbook</src><extensions><gpxhb:speed>0.571974</gpxhb:speed><gpxhb:course>212.309975</gpxhb:course></extensions></trkpt><trkpt lat="24.645960432737713" lon="121.20430256425492"><ele>739.8011049682153</ele><time>2025-01-25T02:58:45Z</time><src>Hikingbook</src><extensions><gpxhb:speed>0.553786</gpxhb:speed><gpxhb:course>159.896308</gpxhb:course></extensions></trkpt><trkpt lat="24.64598474338767" lon="121.2043358853138"><ele>731.8750605715591</ele><time>2025-01-25T02:59:53Z</time><src>Hikingbook</src><extensions><gpxhb:speed>0.460289</gpxhb:speed><gpxhb:course>295.763896</gpxhb:course></extensions></trkpt></trkseg><trkseg><trkpt lat="24.645690873927727" lon="121.20458046675095"><ele>787.8710134076475</ele><time>2025-01-25T03:34:32Z</time><src>Hikingbook</src><extensions><gpxhb:speed>0.000000</gpxhb:speed><gpxhb:course>295.312500</gpxhb:course></extensions></trkpt></trkseg><trkseg><trkpt lat="24.646156760862766" lon="121.20424080071888"><ele>733.3612109642946</ele><time>2025-01-25T03:53:10Z</time><src>Hikingbook</src><extensions><gpxhb:speed>0.205095</gpxhb:speed><gpxhb:course>267.799641</gpxhb:course></extensions></trkpt><trkpt lat="24.646249453817056" lon="121.20421968014254"><ele>733.5372284192812</ele><time>2025-01-25T03:53:26Z</time><src>Hikingbook</src><extensions><gpxhb:speed>1.356069</gpxhb:speed><gpxhb:course>303.016240</gpxhb:course></extensions></trkpt><trkpt lat="24.6462582892919" lon="121.20410532284235"><ele>729.7441708481049</ele><time>2025-01-25T03:53:58Z</time><src>Hikingbook</src><extensions><gpxhb:speed>0.470275</gpxhb:speed><gpxhb:course>227.381629</gpxhb:course></extensions></trkpt><trkpt lat="24.6463587978045" lon="121.20411588733957"><ele>727.9603975388885</ele><time>2025-01-25T03:54:14Z</time><src>Hikingbook</src><extensions><gpxhb:speed>0.371306</gpxhb:speed><gpxhb:course>336.945818</gpxhb:course></extensions></trkpt><trkpt lat="24.646362227827513" lon="121.20405256510742"><ele>725.6445725549047</ele><time>2025-01-25T03:54:32Z</time><src>Hikingbook</src><extensions><gpxhb:speed>0.686047</gpxhb:speed><gpxhb:course>249.829738</gpxhb:course></extensions></trkpt><trkpt lat="24.646270801823295" lon="121.2040318480141"><ele>725.4451945566843</ele><time>2025-01-25T03:54:54Z</time><src>Hikingbook</src><extensions><gpxhb:speed>1.041121</gpxhb:speed><gpxhb:course>184.277144</gpxhb:course></extensions></trkpt><trkpt lat="24.646187028765063" lon="121.2041553249863"><ele>728.1569379034286</ele><time>2025-01-25T03:55:09Z</time><src>Hikingbook</src><extensions><gpxhb:speed>0.118021</gpxhb:speed><gpxhb:course>119.790352</gpxhb:course></extensions></trkpt><trkpt lat="24.646117528107773" lon="121.20403597563607"><ele>727.6365289715781</ele><time>2025-01-25T03:55:25Z</time><src>Hikingbook</src><extensions><gpxhb:speed>1.860794</gpxhb:speed><gpxhb:course>234.042353</gpxhb:course></extensions></trkpt><trkpt lat="24.64598072608267" lon="121.20409617245603"><ele>724.4143550875904</ele><time>2025-01-25T03:55:59Z</time><src>Hikingbook</src><extensions><gpxhb:speed>0.000000</gpxhb:speed><gpxhb:course>191.782016</gpxhb:course></extensions></trkpt><trkpt lat="24.646009666393322" lon="121.20407075647134"><ele>724.0232217038753</ele><time>2025-01-25T03:56:43Z</time><src>Hikingbook</src><extensions><gpxhb:speed>0.315748</gpxhb:speed><gpxhb:course>141.629565</gpxhb:course></extensions></trkpt><trkpt lat="24.645876512242513" lon="121.20417676550878"><ele>725.151041781237</ele><time>2025-01-25T03:57:37Z</time><src>Hikingbook</src><extensions><gpxhb:speed>0.948193</gpxhb:speed><gpxhb:course>129.621852</gpxhb:course></extensions></trkpt><trkpt lat="24.64600471283598" lon="121.20423743023214"><ele>723.8392602525698</ele><time>2025-01-25T03:59:45Z</time><src>Hikingbook</src><extensions><gpxhb:speed>0.391058</gpxhb:speed><gpxhb:course>294.085210</gpxhb:course></extensions></trkpt></trkseg><trkseg><trkpt lat="24.64600471283598" lon="121.20423743023214"><ele>723.8392602525698</ele><time>2025-01-25T04:08:15Z</time><src>Hikingbook</src><extensions><gpxhb:speed>0.391058</gpxhb:speed><gpxhb:course>294.085210</gpxhb:course></extensions></trkpt><trkpt lat="24.64571317714381" lon="121.20458699868047"><ele>698.7457482426922</ele><time>2025-01-25T04:09:27Z</time><src>Hikingbook</src><extensions><gpxhb:speed>0.947913</gpxhb:speed><gpxhb:course>36.002676</gpxhb:course></extensions></trkpt><trkpt lat="24.645649454745136" lon="121.20463548152028"><ele>705.8877063556998</ele><time>2025-01-25T04:11:09Z</time><src>Hikingbook</src><extensions><gpxhb:speed>0.795137</gpxhb:speed><gpxhb:course>144.192839</gpxhb:course></extensions></trkpt><trkpt lat="24.645567645934094" lon="121.20450655182088"><ele>696.4740725941163</ele><time>2025-01-25T04:13:27Z</time><src>Hikingbook</src><extensions><gpxhb:speed>0.934783</gpxhb:speed><gpxhb:course>208.246666</gpxhb:course></extensions></trkpt></trkseg><trkseg><trkpt lat="24.645937304719812" lon="121.20453726248806"><ele>764.4534391326878</ele><time>2025-01-25T05:39:25Z</time><src>Hikingbook</src><extensions><gpxhb:speed>0.386824</gpxhb:speed><gpxhb:course>222.869090</gpxhb:course></extensions></trkpt></trkseg><trkseg><trkpt lat="24.645937304719812" lon="121.20453726248806"><ele>764.4534391326878</ele><time>2025-01-25T06:15:57Z</time><src>Hikingbook</src><extensions><gpxhb:speed>0.386824</gpxhb:speed><gpxhb:course>222.869090</gpxhb:course></extensions></trkpt><trkpt lat="24.64608841097906" lon="121.20401864961417"><ele>735.9583219827266</ele><time>2025-01-25T06:16:12Z</time><src>Hikingbook</src><extensions><gpxhb:speed>0.286129</gpxhb:speed><gpxhb:course>-1.000000</gpxhb:course></extensions></trkpt><trkpt lat="24.64620572212867" lon="121.20386698534789"><ele>733.9372812507085</ele><time>2025-01-25T06:16:39Z</time><src>Hikingbook</src><extensions><gpxhb:speed>0.461402</gpxhb:speed><gpxhb:course>-1.000000</gpxhb:course></extensions></trkpt><trkpt lat="24.646318527698686" lon="121.20387671868369"><ele>731.526025323565</ele><time>2025-01-25T06:17:08Z</time><src>Hikingbook</src><extensions><gpxhb:speed>0.494329</gpxhb:speed><gpxhb:course>-1.000000</gpxhb:course></extensions></trkpt><trkpt lat="24.646416391751078" lon="121.20368665949262"><ele>734.4069142654907</ele><time>2025-01-25T06:17:26Z</time><src>Hikingbook</src><extensions><gpxhb:speed>1.582334</gpxhb:speed><gpxhb:course>304.112146</gpxhb:course></extensions></trkpt><trkpt lat="24.646441660006353" lon="121.20363675819776"><ele>734.7140574553171</ele><time>2025-01-25T06:17:28Z</time><src>Hikingbook</src><extensions><gpxhb:speed>2.803721</gpxhb:speed><gpxhb:course>303.751184</gpxhb:course></extensions></trkpt><trkpt lat="24.646879005083406" lon="121.20392216229217"><ele>720.8480555548854</ele><time>2025-01-25T06:18:21Z</time><src>Hikingbook</src><extensions><gpxhb:speed>0.695613</gpxhb:speed><gpxhb:course>18.137469</gpxhb:course></extensions></trkpt><trkpt lat="24.646935000287936" lon="121.2041140891254"><ele>724.8178335125691</ele><time>2025-01-25T06:18:49Z</time><src>Hikingbook</src><extensions><gpxhb:speed>0.172700</gpxhb:speed><gpxhb:course>243.484717</gpxhb:course></extensions></trkpt><trkpt lat="24.647177890773573" lon="121.2041573982717"><ele>714.1059429781257</ele><time>2025-01-25T06:20:14Z</time><src>Hikingbook</src><extensions><gpxhb:speed>0.288588</gpxhb:speed><gpxhb:course>109.836081</gpxhb:course></extensions></trkpt><trkpt lat="24.647222132974555" lon="121.20406530084416"><ele>714.3883954120125</ele><time>2025-01-25T06:20:48Z</time><src>Hikingbook</src><extensions><gpxhb:speed>1.178919</gpxhb:speed><gpxhb:course>332.963833</gpxhb:course></extensions></trkpt><trkpt lat="24.6473570825627" lon="121.20411890723759"><ele>715.1028252134274</ele><time>2025-01-25T06:21:09Z</time><src>Hikingbook</src><extensions><gpxhb:speed>0.761110</gpxhb:speed><gpxhb:course>11.548090</gpxhb:course></extensions></trkpt><trkpt lat="24.647329184855213" lon="121.20406572833485"><ele>710.5152012409123</ele><time>2025-01-25T06:21:24Z</time><src>Hikingbook</src><extensions><gpxhb:speed>0.200221</gpxhb:speed><gpxhb:course>96.334154</gpxhb:course></extensions></trkpt><trkpt lat="24.647360910866276" lon="121.20408808939099"><ele>712.8871254282845</ele><time>2025-01-25T06:21:47Z</time><src>Hikingbook</src><extensions><gpxhb:speed>0.033829</gpxhb:speed><gpxhb:course>352.959462</gpxhb:course></extensions></trkpt><trkpt lat="24.647366649291637" lon="121.20407772706432"><ele>710.9601687167104</ele><time>2025-01-25T06:22:23Z</time><src>Hikingbook</src><extensions><gpxhb:speed>0.024848</gpxhb:speed><gpxhb:course>352.959464</gpxhb:course></extensions></trkpt><trkpt lat="24.64732967467536" lon="121.204124290435"><ele>701.928884027689</ele><time>2025-01-25T06:22:45Z</time><src>Hikingbook</src><extensions><gpxhb:speed>0.943257</gpxhb:speed><gpxhb:course>135.061804</gpxhb:course></extensions></trkpt><trkpt lat="24.647505585200797" lon="121.20416473786302"><ele>707.9179531613283</ele><time>2025-01-25T06:23:21Z</time><src>Hikingbook</src><extensions><gpxhb:speed>0.244163</gpxhb:speed><gpxhb:course>6.750055</gpxhb:course></extensions></trkpt><trkpt lat="24.64751983009881" lon="121.20394250019226"><ele>694.4949541468256</ele><time>2025-01-25T06:23:37Z</time><src>Hikingbook</src><extensions><gpxhb:speed>0.385895</gpxhb:speed><gpxhb:course>323.598963</gpxhb:course></extensions></trkpt><trkpt lat="24.647461819895586" lon="121.2040017251449"><ele>678.1740008250133</ele><time>2025-01-25T06:24:23Z</time><src>Hikingbook</src><extensions><gpxhb:speed>0.020544</gpxhb:speed><gpxhb:course>60.921515</gpxhb:course></extensions></trkpt><trkpt lat="24.64769540381313" lon="121.20408817286324"><ele>679.1839806980696</ele><time>2025-01-25T06:25:11Z</time><src>Hikingbook</src><extensions><gpxhb:speed>0.931021</gpxhb:speed><gpxhb:course>35.927420</gpxhb:course></extensions></trkpt><trkpt lat="24.647798978788455" lon="121.20428765390916"><ele>676.1185432428452</ele><time>2025-01-25T06:26:10Z</time><src>Hikingbook</src><extensions><gpxhb:speed>0.876649</gpxhb:speed><gpxhb:course>61.975511</gpxhb:course></extensions></trkpt><trkpt lat="24.64810708929561" lon="121.20437832167782"><ele>665.8718833136151</ele><time>2025-01-25T06:27:23Z</time><src>Hikingbook</src><extensions><gpxhb:speed>0.422149</gpxhb:speed><gpxhb:course>17.580198</gpxhb:course></extensions></trkpt><trkpt lat="24.648137721871212" lon="121.20447802793215"><ele>668.7047027794289</ele><time>2025-01-25T06:27:50Z</time><src>Hikingbook</src><extensions><gpxhb:speed>0.637585</gpxhb:speed><gpxhb:course>67.780039</gpxhb:course></extensions></trkpt></trkseg><trkseg><trkpt lat="24.648137721871212" lon="121.20447802793215"><ele>668.7047027794289</ele><time>2025-01-25T06:50:45Z</time><src>Hikingbook</src><extensions><gpxhb:speed>0.637585</gpxhb:speed><gpxhb:course>67.780039</gpxhb:course></extensions></trkpt><trkpt lat="24.648241792501434" lon="121.20471190869718"><ele>684.242148710632</ele><time>2025-01-25T06:50:47Z</time><src>Hikingbook</src><extensions><gpxhb:speed>0.000000</gpxhb:speed><gpxhb:course>-1.000000</gpxhb:course></extensions></trkpt><trkpt lat="24.64819785450393" lon="121.20495104054396"><ele>706.4342531598692</ele><time>2025-01-25T06:51:11Z</time><src>Hikingbook</src><extensions><gpxhb:speed>0.413121</gpxhb:speed><gpxhb:course>-1.000000</gpxhb:course></extensions></trkpt><trkpt lat="24.648104909688367" lon="121.20495483260117"><ele>703.0528551995443</ele><time>2025-01-25T06:51:27Z</time><src>Hikingbook</src><extensions><gpxhb:speed>0.308489</gpxhb:speed><gpxhb:course>-1.000000</gpxhb:course></extensions></trkpt><trkpt lat="24.648255444763794" lon="121.20511450672444"><ele>695.7594916186465</ele><time>2025-01-25T06:52:07Z</time><src>Hikingbook</src><extensions><gpxhb:speed>0.478009</gpxhb:speed><gpxhb:course>114.337983</gpxhb:course></extensions></trkpt><trkpt lat="24.64852088333281" lon="121.20524381239932"><ele>691.6712312501385</ele><time>2025-01-25T06:52:56Z</time><src>Hikingbook</src><extensions><gpxhb:speed>0.176131</gpxhb:speed><gpxhb:course>12.839707</gpxhb:course></extensions></trkpt><trkpt lat="24.64840199561948" lon="121.2055047897978"><ele>683.5578740619889</ele><time>2025-01-25T06:53:40Z</time><src>Hikingbook</src><extensions><gpxhb:speed>2.004044</gpxhb:speed><gpxhb:course>76.949795</gpxhb:course></extensions></trkpt><trkpt lat="24.648392291640892" lon="121.20553113748329"><ele>682.7916641390076</ele><time>2025-01-25T06:53:44Z</time><src>Hikingbook</src><extensions><gpxhb:speed>1.166263</gpxhb:speed><gpxhb:course>96.771229</gpxhb:course></extensions></trkpt><trkpt lat="24.648341591381453" lon="121.20555700827778"><ele>679.6818581867307</ele><time>2025-01-25T06:54:31Z</time><src>Hikingbook</src><extensions><gpxhb:speed>0.000000</gpxhb:speed><gpxhb:course>60.507248</gpxhb:course></extensions></trkpt><trkpt lat="24.64844557520538" lon="121.20551124645777"><ele>675.553388173283</ele><time>2025-01-25T06:55:56Z</time><src>Hikingbook</src><extensions><gpxhb:speed>0.339519</gpxhb:speed><gpxhb:course>330.545643</gpxhb:course></extensions></trkpt></trkseg><trkseg><trkpt lat="24.64844557520538" lon="121.20551124645777"><ele>675.553388173283</ele><time>2025-01-25T06:57:41Z</time><src>Hikingbook</src><extensions><gpxhb:speed>0.339519</gpxhb:speed><gpxhb:course>330.545643</gpxhb:course></extensions></trkpt><trkpt lat="24.64817499923326" lon="121.20543259169744"><ele>682.7888091661817</ele><time>2025-01-25T06:57:43Z</time><src>Hikingbook</src><extensions><gpxhb:speed>0.141941</gpxhb:speed><gpxhb:course>-1.000000</gpxhb:course></extensions></trkpt><trkpt lat="24.648328384073114" lon="121.20561112686939"><ele>678.850704612604</ele><time>2025-01-25T06:57:59Z</time><src>Hikingbook</src><extensions><gpxhb:speed>0.786944</gpxhb:speed><gpxhb:course>98.219948</gpxhb:course></extensions></trkpt><trkpt lat="24.64826081839625" lon="121.20620144125806"><ele>663.4824746214694</ele><time>2025-01-25T06:59:37Z</time><src>Hikingbook</src><extensions><gpxhb:speed>0.689602</gpxhb:speed><gpxhb:course>102.630618</gpxhb:course></extensions></trkpt><trkpt lat="24.64845818821591" lon="121.20630904874358"><ele>660.0550741571159</ele><time>2025-01-25T07:00:03Z</time><src>Hikingbook</src><extensions><gpxhb:speed>0.650229</gpxhb:speed><gpxhb:course>38.810717</gpxhb:course></extensions></trkpt><trkpt lat="24.648552830927592" lon="121.20623484237598"><ele>653.1823837472824</ele><time>2025-01-25T07:00:19Z</time><src>Hikingbook</src><extensions><gpxhb:speed>0.615911</gpxhb:speed><gpxhb:course>34.343839</gpxhb:course></extensions></trkpt><trkpt lat="24.648854669104736" lon="121.20620482214264"><ele>654.5489673001832</ele><time>2025-01-25T07:01:58Z</time><src>Hikingbook</src><extensions><gpxhb:speed>0.765054</gpxhb:speed><gpxhb:course>344.527667</gpxhb:course></extensions></trkpt><trkpt lat="24.64884279515656" lon="121.20605596543136"><ele>652.6582622380988</ele><time>2025-01-25T07:02:14Z</time><src>Hikingbook</src><extensions><gpxhb:speed>0.817011</gpxhb:speed><gpxhb:course>310.104411</gpxhb:course></extensions></trkpt><trkpt lat="24.64909225219078" lon="121.20602048774337"><ele>652.82767362609</ele><time>2025-01-25T07:03:25Z</time><src>Hikingbook</src><extensions><gpxhb:speed>0.075491</gpxhb:speed><gpxhb:course>10.172081</gpxhb:course></extensions></trkpt><trkpt lat="24.649331679041907" lon="121.20556695107149"><ele>655.6619777571478</ele><time>2025-01-25T07:04:59Z</time><src>Hikingbook</src><extensions><gpxhb:speed>1.049286</gpxhb:speed><gpxhb:course>280.543397</gpxhb:course></extensions></trkpt><trkpt lat="24.64947309996974" lon="121.20551892931975"><ele>656.1817481482827</ele><time>2025-01-25T07:05:15Z</time><src>Hikingbook</src><extensions><gpxhb:speed>0.916193</gpxhb:speed><gpxhb:course>306.994044</gpxhb:course></extensions></trkpt><trkpt lat="24.64948378201379" lon="121.20551572677327"><ele>655.8748609037781</ele><time>2025-01-25T07:05:16Z</time><src>Hikingbook</src><extensions><gpxhb:speed>0.923121</gpxhb:speed><gpxhb:course>310.046122</gpxhb:course></extensions></trkpt><trkpt lat="24.649750501732093" lon="121.20529056370982"><ele>657.9505270259045</ele><time>2025-01-25T07:05:49Z</time><src>Hikingbook</src><extensions><gpxhb:speed>0.759065</gpxhb:speed><gpxhb:course>325.539466</gpxhb:course></extensions></trkpt><trkpt lat="24.649825620894784" lon="121.20537589508331"><ele>659.7624513469846</ele><time>2025-01-25T07:06:09Z</time><src>Hikingbook</src><extensions><gpxhb:speed>1.121712</gpxhb:speed><gpxhb:course>75.192169</gpxhb:course></extensions></trkpt><trkpt lat="24.650129602147985" lon="121.20498683005599"><ele>649.1928430313656</ele><time>2025-01-25T07:07:21Z</time><src>Hikingbook</src><extensions><gpxhb:speed>1.449256</gpxhb:speed><gpxhb:course>332.776041</gpxhb:course></extensions></trkpt><trkpt lat="24.650263999313168" lon="121.20492186661065"><ele>650.4012582858583</ele><time>2025-01-25T07:07:38Z</time><src>Hikingbook</src><extensions><gpxhb:speed>0.986867</gpxhb:speed><gpxhb:course>325.433318</gpxhb:course></extensions></trkpt><trkpt lat="24.650275573676808" lon="121.20491606572399"><ele>650.6169159380481</ele><time>2025-01-25T07:07:39Z</time><src>Hikingbook</src><extensions><gpxhb:speed>1.085574</gpxhb:speed><gpxhb:course>326.723327</gpxhb:course></extensions></trkpt><trkpt lat="24.65025813687529" lon="121.20483657225277"><ele>645.6969002451876</ele><time>2025-01-25T07:07:55Z</time><src>Hikingbook</src><extensions><gpxhb:speed>0.660267</gpxhb:speed><gpxhb:course>292.124749</gpxhb:course></extensions></trkpt><trkpt lat="24.650494298348036" lon="121.20477415029016"><ele>645.0490462185686</ele><time>2025-01-25T07:08:26Z</time><src>Hikingbook</src><extensions><gpxhb:speed>0.504392</gpxhb:speed><gpxhb:course>359.355038</gpxhb:course></extensions></trkpt><trkpt lat="24.650575658994093" lon="121.20461841964173"><ele>639.0767417834642</ele><time>2025-01-25T07:09:05Z</time><src>Hikingbook</src><extensions><gpxhb:speed>0.425521</gpxhb:speed><gpxhb:course>335.334657</gpxhb:course></extensions></trkpt></trkseg></trk></gpx>