<?xml version="1.0" encoding="UTF-8"?>
<gpx version="1.1" creator="Hikingbook" xmlns:xsi="http://www.w3.org/2001/XMLSchema-instance" xmlns="http://www.topografix.com/GPX/1/1" xsi:schemaLocation="http://www.topografix.com/GPX/1/1 https://www.topografix.com/GPX/1/1/gpx.xsd https://hikingbook.net/xmlschemas/1/5 https:/hikingbook.net/xmlschemas/1/5/gpxhb.xsd" xmlns:gpxhb="https://hikingbook.net/xmlschemas/1/5"><metadata><name>💦🪢巴拉吾（2023-11-05）-「溪降」［🇹🇼台中-和平］</name><desc>大峽谷的美景，猶如出國一般，新鮮與渴望🤩</desc><author><name>Hikingbook</name><link href="https://hikingbook.net"><text>Hikingbook</text></link></author><link href="https://hikingbook.net/hikes/2023-11-5-%E5%B7%B4%E6%8B%89%E5%90%BE-1cbcd3fe"><text>Hikingbook</text></link><time>2026-07-15T22:54:56.890001027+08:00</time><keywords>Hikingbook,EzLife,Jimce,巴拉吾,南投,溯溪,垂降</keywords><extensions><gpxhb:postscript>成員：
Jimce、潾兒、小證、銘哲、Aston、丰丰哥、阿賢、鳳無雙、Donny宏源、毛毛相思雨、瓦旦（接駁大哥）

瀑布：
第一瀑48米
第二瀑10米
第三瀑25米


🌟需要接駁-
接駁大哥電話☎️：0918337399

攝影-
單眼📷：✅
空拍：❌沒訊號無法起飛，僅能低空飛行
Gopro、Instant360:⭕
️出峽谷地形可以拍攝，在峽谷地形內由於光線太暗，無法拍攝</gpxhb:postscript><gpxhb:loadweight>3.0</gpxhb:loadweight><gpxhb:fitnesslevel>1</gpxhb:fitnesslevel><gpxhb:activitytype>others</gpxhb:activitytype><gpxhb:trackimageurl>https://assets.hikingbook.net/users/60w3wu1it91y2jmwdxciziq/yib90cwkgq2gcavdjoh004w/0be8bb95-e0e4-4b42-bd2e-a9db45e4da6f.jpg</gpxhb:trackimageurl><gpxhb:source>Hikingbook</gpxhb:source></extensions></metadata><wpt lat="24.140499341316954" lon="120.93359663162468"><ele>991</ele><time>2023-11-05T00:27:48Z</time><name>00 A停車點</name><cmt>2023-11-05T08:27:48+08:00</cmt><desc>00 A停車點</desc><src>Hikingbook</src><link href="https://hikingbook.net/hikes/yIb90CwKgQ2GCavDJoH004w"><text>Hikingbook</text></link><extensions><gpxhb:weather>Clear</gpxhb:weather><gpxhb:speed>0.000000</gpxhb:speed><gpxhb:course>-1.000000</gpxhb:course></extensions></wpt><wpt lat="24.138369625456757" lon="120.93406836513516"><ele>941</ele><time>2023-11-05T00:52:41Z</time><name>01 右切</name><cmt>2023-11-05T08:52:41+08:00</cmt><desc>01 右切</desc><src>Hikingbook</src><link href="https://hikingbook.net/hikes/yIb90CwKgQ2GCavDJoH004w"><text>Hikingbook</text></link><extensions><gpxhb:weather>Clear</gpxhb:weather><gpxhb:speed>0.000000</gpxhb:speed><gpxhb:course>60.117188</gpxhb:course></extensions></wpt><wpt lat="24.13618568664696" lon="120.93358960349993"><ele>919</ele><time>2023-11-05T01:03:05Z</time><name>02 景色1</name><cmt>2023-11-05T09:03:05+08:00</cmt><desc>02 景色1</desc><src>Hikingbook</src><link href="https://hikingbook.net/hikes/yIb90CwKgQ2GCavDJoH004w"><text>Hikingbook</text></link><extensions><gpxhb:weather>Clear</gpxhb:weather><gpxhb:speed>0.000000</gpxhb:speed><gpxhb:course>211.619014</gpxhb:course></extensions></wpt><wpt lat="24.136024287004958" lon="120.93359117927956"><ele>915</ele><time>2023-11-05T01:04:48Z</time><name>03 等待隊友</name><cmt>2023-11-05T09:04:48+08:00</cmt><desc>03 等待隊友</desc><src>Hikingbook</src><link href="https://hikingbook.net/hikes/yIb90CwKgQ2GCavDJoH004w"><text>Hikingbook</text></link><extensions><gpxhb:weather>Clear</gpxhb:weather><gpxhb:speed>0.000000</gpxhb:speed><gpxhb:course>-1.000000</gpxhb:course></extensions></wpt><wpt lat="24.13596355824185" lon="120.93354499910113"><ele>910</ele><time>2023-11-05T01:14:46Z</time><name>04 繼續啟程</name><cmt>2023-11-05T09:14:46+08:00</cmt><desc>04 繼續啟程</desc><src>Hikingbook</src><link href="https://hikingbook.net/hikes/yIb90CwKgQ2GCavDJoH004w"><text>Hikingbook</text></link><extensions><gpxhb:weather>Clear</gpxhb:weather><gpxhb:speed>0.440000</gpxhb:speed><gpxhb:course>248.906250</gpxhb:course></extensions></wpt><wpt lat="24.132838295737837" lon="120.93284172447058"><ele>884</ele><time>2023-11-05T01:29:09Z</time><name>05 烤肉開始</name><cmt>2023-11-05T09:29:09+08:00</cmt><desc>05 烤肉開始</desc><src>Hikingbook</src><link href="https://hikingbook.net/hikes/yIb90CwKgQ2GCavDJoH004w"><text>Hikingbook</text></link><extensions><gpxhb:weather>Clear</gpxhb:weather><gpxhb:speed>0.000000</gpxhb:speed><gpxhb:course>221.700387</gpxhb:course></extensions></wpt><wpt lat="24.132970337682448" lon="120.93276405373781"><ele>898</ele><time>2023-11-05T05:31:23Z</time><name>06 第一主瀑-開始垂降</name><cmt>2023-11-05T13:31:23+08:00</cmt><desc>06 第一主瀑-開始垂降</desc><src>Hikingbook</src><link href="https://hikingbook.net/hikes/yIb90CwKgQ2GCavDJoH004w"><text>Hikingbook</text></link><extensions><gpxhb:weather>Clear</gpxhb:weather><gpxhb:speed>0.000000</gpxhb:speed><gpxhb:course>-1.000000</gpxhb:course></extensions></wpt><wpt lat="24.132626722589258" lon="120.9329613671833"><ele>949</ele><time>2023-11-05T06:49:18Z</time><name>07 第一主瀑-全體垂降完畢</name><cmt>2023-11-05T14:49:18+08:00</cmt><desc>07 第一主瀑-全體垂降完畢</desc><src>Hikingbook</src><link href="https://hikingbook.net/hikes/yIb90CwKgQ2GCavDJoH004w"><text>Hikingbook</text></link><extensions><gpxhb:weather>Clear</gpxhb:weather><gpxhb:speed>-1.000000</gpxhb:speed><gpxhb:course>-1.000000</gpxhb:course></extensions></wpt><wpt lat="24.159894983597475" lon="120.89091497835442"><ele>949</ele><time>2023-11-05T07:29:13Z</time><name>08 第二瀑-全體垂降完畢</name><cmt>2023-11-05T15:29:13+08:00</cmt><desc>08 第二瀑-全體垂降完畢</desc><src>Hikingbook</src><link href="https://hikingbook.net/hikes/yIb90CwKgQ2GCavDJoH004w"><text>Hikingbook</text></link><extensions><gpxhb:weather>Clear</gpxhb:weather><gpxhb:speed>0.000000</gpxhb:speed><gpxhb:course>0.000000</gpxhb:course></extensions></wpt><wpt lat="24.159894983597475" lon="120.89091497835442"><ele>949</ele><time>2023-11-05T07:30:15Z</time><name>09 第二瀑-拍照完畢</name><cmt>2023-11-05T15:30:15+08:00</cmt><desc>09 第二瀑-拍照完畢</desc><src>Hikingbook</src><link href="https://hikingbook.net/hikes/yIb90CwKgQ2GCavDJoH004w"><text>Hikingbook</text></link><extensions><gpxhb:weather>Clear</gpxhb:weather><gpxhb:speed>0.000000</gpxhb:speed><gpxhb:course>0.000000</gpxhb:course></extensions></wpt><wpt lat="24.159894983597475" lon="120.89091497835442"><ele>949</ele><time>2023-11-05T07:35:32Z</time><name>10 第三瀑-垂降開始</name><cmt>2023-11-05T15:35:32+08:00</cmt><desc>10 第三瀑-垂降開始</desc><src>Hikingbook</src><link href="https://hikingbook.net/hikes/yIb90CwKgQ2GCavDJoH004w"><text>Hikingbook</text></link><extensions><gpxhb:weather>Clear</gpxhb:weather><gpxhb:speed>0.000000</gpxhb:speed><gpxhb:course>0.000000</gpxhb:course></extensions></wpt><wpt lat="24.13169" lon="120.93312"><ele>949</ele><time>2023-11-05T08:14:05Z</time><name>11 第三瀑-全體垂降結束</name><cmt>2023-11-05T16:14:05+08:00</cmt><desc>11 第三瀑-全體垂降結束</desc><src>Hikingbook</src><link href="https://hikingbook.net/hikes/yIb90CwKgQ2GCavDJoH004w"><text>Hikingbook</text></link><extensions><gpxhb:weather>Clear</gpxhb:weather><gpxhb:speed>-1.000000</gpxhb:speed><gpxhb:course>-1.000000</gpxhb:course></extensions></wpt><wpt lat="24.13169" lon="120.93312"><ele>880</ele><time>2023-11-05T08:20:10Z</time><name>12 第三瀑-垂完拍照完畢</name><cmt>2023-11-05T16:20:10+08:00</cmt><desc>12 第三瀑-垂完拍照完畢</desc><src>Hikingbook</src><link href="https://hikingbook.net/hikes/yIb90CwKgQ2GCavDJoH004w"><text>Hikingbook</text></link><extensions><gpxhb:weather>Clear</gpxhb:weather><gpxhb:speed>-1.000000</gpxhb:speed><gpxhb:course>-1.000000</gpxhb:course></extensions></wpt><wpt lat="24.12910853836392" lon="120.93319727099552"><ele>772</ele><time>2023-11-05T08:34:54Z</time><name>13 滑水道</name><cmt>2023-11-05T16:34:54+08:00</cmt><desc>13 滑水道</desc><src>Hikingbook</src><link href="https://hikingbook.net/hikes/yIb90CwKgQ2GCavDJoH004w"><text>Hikingbook</text></link><extensions><gpxhb:weather>Clear</gpxhb:weather><gpxhb:speed>0.000000</gpxhb:speed><gpxhb:course>-1.000000</gpxhb:course></extensions></wpt><wpt lat="24.12809196811763" lon="120.93260912064677"><ele>758</ele><time>2023-11-05T09:01:12Z</time><name>14 上切點</name><cmt>2023-11-05T17:01:12+08:00</cmt><desc>14 上切點</desc><src>Hikingbook</src><link href="https://hikingbook.net/hikes/yIb90CwKgQ2GCavDJoH004w"><text>Hikingbook</text></link><extensions><gpxhb:weather>Clear</gpxhb:weather><gpxhb:speed>0.160615</gpxhb:speed><gpxhb:course>216.538472</gpxhb:course></extensions></wpt><wpt lat="24.128063814213156" lon="120.93257115550205"><ele>751</ele><time>2023-11-05T09:02:06Z</time><name>15 綁帶標記🏷️1</name><cmt>2023-11-05T17:02:06+08:00</cmt><desc>15 綁帶標記🏷️1</desc><src>Hikingbook</src><link href="https://hikingbook.net/hikes/yIb90CwKgQ2GCavDJoH004w"><text>Hikingbook</text></link><extensions><gpxhb:weather>Clear</gpxhb:weather><gpxhb:speed>0.217133</gpxhb:speed><gpxhb:course>173.048601</gpxhb:course></extensions></wpt><wpt lat="24.128015812584806" lon="120.93249452981202"><ele>753</ele><time>2023-11-05T09:02:42Z</time><name>16 綁帶標記🏷️2</name><cmt>2023-11-05T17:02:42+08:00</cmt><desc>16 綁帶標記🏷️2</desc><src>Hikingbook</src><link href="https://hikingbook.net/hikes/yIb90CwKgQ2GCavDJoH004w"><text>Hikingbook</text></link><extensions><gpxhb:weather>Clear</gpxhb:weather><gpxhb:speed>0.326194</gpxhb:speed><gpxhb:course>188.255737</gpxhb:course></extensions></wpt><wpt lat="24.12790981804092" lon="120.93236674079375"><ele>757</ele><time>2023-11-05T09:03:40Z</time><name>17 綁帶標記🏷️3</name><cmt>2023-11-05T17:03:40+08:00</cmt><desc>17 綁帶標記🏷️3</desc><src>Hikingbook</src><link href="https://hikingbook.net/hikes/yIb90CwKgQ2GCavDJoH004w"><text>Hikingbook</text></link><extensions><gpxhb:weather>Clear</gpxhb:weather><gpxhb:speed>0.000000</gpxhb:speed><gpxhb:course>219.419833</gpxhb:course></extensions></wpt><wpt lat="24.125735381531854" lon="120.93067704611872"><ele>734</ele><time>2023-11-05T09:10:34Z</time><name>18 上切路經1</name><cmt>2023-11-05T17:10:34+08:00</cmt><desc>18 上切路經1</desc><src>Hikingbook</src><link href="https://hikingbook.net/hikes/yIb90CwKgQ2GCavDJoH004w"><text>Hikingbook</text></link><extensions><gpxhb:weather>Clear</gpxhb:weather><gpxhb:speed>0.541032</gpxhb:speed><gpxhb:course>308.759112</gpxhb:course></extensions></wpt><wpt lat="24.125485297601102" lon="120.92934046993904"><ele>751</ele><time>2023-11-05T09:13:26Z</time><name>19 上切路經2</name><cmt>2023-11-05T17:13:26+08:00</cmt><desc>19 上切路經2</desc><src>Hikingbook</src><link href="https://hikingbook.net/hikes/yIb90CwKgQ2GCavDJoH004w"><text>Hikingbook</text></link><extensions><gpxhb:weather>Clear</gpxhb:weather><gpxhb:speed>0.918706</gpxhb:speed><gpxhb:course>278.474817</gpxhb:course></extensions></wpt><wpt lat="24.12802462385168" lon="120.92893658949217"><ele>819</ele><time>2023-11-05T09:29:30Z</time><name>20 B停車點</name><cmt>2023-11-05T17:29:30+08:00</cmt><desc>20 B停車點</desc><src>Hikingbook</src><link href="https://hikingbook.net/hikes/yIb90CwKgQ2GCavDJoH004w"><text>Hikingbook</text></link><extensions><gpxhb:weather>Clear</gpxhb:weather><gpxhb:speed>0.069340</gpxhb:speed><gpxhb:course>19.747453</gpxhb:course></extensions></wpt><trk><name>💦🪢巴拉吾（2023-11-05）-「溪降」［🇹🇼台中-和平］</name><cmt>大峽谷的美景，猶如出國一般，新鮮與渴望🤩</cmt><desc>大峽谷的美景，猶如出國一般，新鮮與渴望🤩</desc><src>Hikingbook</src><link href="https://hikingbook.net/hikes/2023-11-5-%E5%B7%B4%E6%8B%89%E5%90%BE-1cbcd3fe"><text>Hikingbook</text></link><trkseg><trkpt lat="24.14049561137003" lon="120.93359520670111"><ele>990.6585209649056</ele><time>2023-11-05T00:27:47Z</time><src>Hikingbook</src><extensions><gpxhb:speed>0.000000</gpxhb:speed><gpxhb:course>-1.000000</gpxhb:course></extensions></trkpt><trkpt lat="24.140538489026625" lon="120.93371985264277"><ele>998.0415008012425</ele><time>2023-11-05T00:28:10Z</time><src>Hikingbook</src><extensions><gpxhb:speed>0.742595</gpxhb:speed><gpxhb:course>30.868387</gpxhb:course></extensions></trkpt><trkpt lat="24.14070636041817" lon="120.93364398058984"><ele>997.4113556292895</ele><time>2023-11-05T00:28:34Z</time><src>Hikingbook</src><extensions><gpxhb:speed>1.690884</gpxhb:speed><gpxhb:course>353.749868</gpxhb:course></extensions></trkpt><trkpt lat="24.14070595308257" lon="120.93388551868553"><ele>992.1760196675447</ele><time>2023-11-05T00:30:08Z</time><src>Hikingbook</src><extensions><gpxhb:speed>0.511359</gpxhb:speed><gpxhb:course>133.871611</gpxhb:course></extensions></trkpt><trkpt lat="24.140452815419863" lon="120.9339595107659"><ele>987.1640926056342</ele><time>2023-11-05T00:30:52Z</time><src>Hikingbook</src><extensions><gpxhb:speed>0.416594</gpxhb:speed><gpxhb:course>151.146388</gpxhb:course></extensions></trkpt><trkpt lat="24.140446812306497" lon="120.9340802736724"><ele>987.890324420075</ele><time>2023-11-05T00:31:56Z</time><src>Hikingbook</src><extensions><gpxhb:speed>0.000000</gpxhb:speed><gpxhb:course>155.683941</gpxhb:course></extensions></trkpt><trkpt lat="24.14022912978385" lon="120.93399379833446"><ele>981.3626948804969</ele><time>2023-11-05T00:33:11Z</time><src>Hikingbook</src><extensions><gpxhb:speed>0.423536</gpxhb:speed><gpxhb:course>250.809155</gpxhb:course></extensions></trkpt><trkpt lat="24.139895207499872" lon="120.93415724567345"><ele>973.1956550567654</ele><time>2023-11-05T00:35:30Z</time><src>Hikingbook</src><extensions><gpxhb:speed>0.661751</gpxhb:speed><gpxhb:course>168.841934</gpxhb:course></extensions></trkpt><trkpt lat="24.139659273505515" lon="120.93396816440777"><ele>974.4478544009351</ele><time>2023-11-05T00:36:18Z</time><src>Hikingbook</src><extensions><gpxhb:speed>0.389471</gpxhb:speed><gpxhb:course>197.463675</gpxhb:course></extensions></trkpt><trkpt lat="24.139654009184216" lon="120.93396912867875"><ele>974.4989251693248</ele><time>2023-11-05T00:36:19Z</time><src>Hikingbook</src><extensions><gpxhb:speed>0.390659</gpxhb:speed><gpxhb:course>197.463676</gpxhb:course></extensions></trkpt><trkpt lat="24.13950322224763" lon="120.93391871546591"><ele>975.6474077878279</ele><time>2023-11-05T00:36:49Z</time><src>Hikingbook</src><extensions><gpxhb:speed>1.323510</gpxhb:speed><gpxhb:course>174.191597</gpxhb:course></extensions></trkpt><trkpt lat="24.139427127093576" lon="120.93402960018044"><ele>974.2352325479808</ele><time>2023-11-05T00:36:59Z</time><src>Hikingbook</src><extensions><gpxhb:speed>0.883813</gpxhb:speed><gpxhb:course>125.862210</gpxhb:course></extensions></trkpt><trkpt lat="24.138944825933375" lon="120.93402523909181"><ele>968.5233687261327</ele><time>2023-11-05T00:40:24Z</time><src>Hikingbook</src><extensions><gpxhb:speed>0.338125</gpxhb:speed><gpxhb:course>178.260893</gpxhb:course></extensions></trkpt><trkpt lat="24.138748033778054" lon="120.93393531409762"><ele>962.1656642861221</ele><time>2023-11-05T00:41:14Z</time><src>Hikingbook</src><extensions><gpxhb:speed>0.842148</gpxhb:speed><gpxhb:course>239.058538</gpxhb:course></extensions></trkpt><trkpt lat="24.138740491082313" lon="120.93392298969755"><ele>962.1856338413576</ele><time>2023-11-05T00:41:15Z</time><src>Hikingbook</src><extensions><gpxhb:speed>2.563732</gpxhb:speed><gpxhb:course>261.137963</gpxhb:course></extensions></trkpt><trkpt lat="24.138365603966623" lon="120.93403019119098"><ele>955.9949569096964</ele><time>2023-11-05T00:44:12Z</time><src>Hikingbook</src><extensions><gpxhb:speed>0.000000</gpxhb:speed><gpxhb:course>61.970208</gpxhb:course></extensions></trkpt></trkseg><trkseg><trkpt lat="24.138369751185305" lon="120.93406836513516"><ele>941.1748790740967</ele><time>2023-11-05T00:52:41Z</time><src>Hikingbook</src><extensions><gpxhb:speed>0.000000</gpxhb:speed><gpxhb:course>60.117188</gpxhb:course></extensions></trkpt><trkpt lat="24.138118106155726" lon="120.9340813454928"><ele>953.147691966295</ele><time>2023-11-05T00:53:56Z</time><src>Hikingbook</src><extensions><gpxhb:speed>0.455677</gpxhb:speed><gpxhb:course>167.633551</gpxhb:course></extensions></trkpt><trkpt lat="24.13803536775757" lon="120.93397752705832"><ele>948.4117944311763</ele><time>2023-11-05T00:54:25Z</time><src>Hikingbook</src><extensions><gpxhb:speed>1.168929</gpxhb:speed><gpxhb:course>242.263857</gpxhb:course></extensions></trkpt><trkpt lat="24.137672884989215" lon="120.93391284994844"><ele>941.2971836487012</ele><time>2023-11-05T00:56:04Z</time><src>Hikingbook</src><extensions><gpxhb:speed>0.238301</gpxhb:speed><gpxhb:course>121.587362</gpxhb:course></extensions></trkpt><trkpt lat="24.137509553365824" lon="120.93376370264086"><ele>939.1203428531037</ele><time>2023-11-05T00:56:52Z</time><src>Hikingbook</src><extensions><gpxhb:speed>0.372464</gpxhb:speed><gpxhb:course>221.314379</gpxhb:course></extensions></trkpt><trkpt lat="24.137505398993323" lon="120.93376028802534"><ele>938.9394011997467</ele><time>2023-11-05T00:56:53Z</time><src>Hikingbook</src><extensions><gpxhb:speed>0.518439</gpxhb:speed><gpxhb:course>221.314379</gpxhb:course></extensions></trkpt><trkpt lat="24.13739952129327" lon="120.93385456451006"><ele>936.9599893087702</ele><time>2023-11-05T00:57:18Z</time><src>Hikingbook</src><extensions><gpxhb:speed>0.801562</gpxhb:speed><gpxhb:course>196.465218</gpxhb:course></extensions></trkpt><trkpt lat="24.13720660040054" lon="120.93367587134674"><ele>930.1143278518645</ele><time>2023-11-05T00:58:20Z</time><src>Hikingbook</src><extensions><gpxhb:speed>0.653909</gpxhb:speed><gpxhb:course>215.885580</gpxhb:course></extensions></trkpt><trkpt lat="24.136597206015985" lon="120.93371811242443"><ele>920.1232213348261</ele><time>2023-11-05T01:00:51Z</time><src>Hikingbook</src><extensions><gpxhb:speed>0.000000</gpxhb:speed><gpxhb:course>224.499648</gpxhb:course></extensions></trkpt><trkpt lat="24.1365916653179" lon="120.93371573601344"><ele>920.2708127761974</ele><time>2023-11-05T01:00:52Z</time><src>Hikingbook</src><extensions><gpxhb:speed>0.088874</gpxhb:speed><gpxhb:course>225.481719</gpxhb:course></extensions></trkpt><trkpt lat="24.135961368222592" lon="120.93358419705594"><ele>918.5985341815419</ele><time>2023-11-05T01:04:07Z</time><src>Hikingbook</src><extensions><gpxhb:speed>0.537644</gpxhb:speed><gpxhb:course>157.788415</gpxhb:course></extensions></trkpt><trkpt lat="24.136024577737214" lon="120.93358849933685"><ele>914.2640066443074</ele><time>2023-11-05T01:05:22Z</time><src>Hikingbook</src><extensions><gpxhb:speed>0.000000</gpxhb:speed><gpxhb:course>81.529380</gpxhb:course></extensions></trkpt></trkseg><trkseg><trkpt lat="24.136012299008794" lon="120.93359160248276"><ele>909.6229991912842</ele><time>2023-11-05T01:06:19Z</time><src>Hikingbook</src><extensions><gpxhb:speed>0.000000</gpxhb:speed><gpxhb:course>-1.000000</gpxhb:course></extensions></trkpt><trkpt lat="24.135855879200893" lon="120.93353155626946"><ele>913.6861691422685</ele><time>2023-11-05T01:15:26Z</time><src>Hikingbook</src><extensions><gpxhb:speed>0.588245</gpxhb:speed><gpxhb:course>207.722146</gpxhb:course></extensions></trkpt><trkpt lat="24.135137064184306" lon="120.93334764896957"><ele>898.1773952131475</ele><time>2023-11-05T01:18:27Z</time><src>Hikingbook</src><extensions><gpxhb:speed>0.077787</gpxhb:speed><gpxhb:course>195.122481</gpxhb:course></extensions></trkpt><trkpt lat="24.13513624874528" lon="120.93335159149647"><ele>898.0923526275282</ele><time>2023-11-05T01:18:28Z</time><src>Hikingbook</src><extensions><gpxhb:speed>0.057808</gpxhb:speed><gpxhb:course>195.122481</gpxhb:course></extensions></trkpt><trkpt lat="24.13458111849088" lon="120.93329844242824"><ele>906.2164674316546</ele><time>2023-11-05T01:20:45Z</time><src>Hikingbook</src><extensions><gpxhb:speed>0.295485</gpxhb:speed><gpxhb:course>200.963383</gpxhb:course></extensions></trkpt><trkpt lat="24.134618808160095" lon="120.93314626052607"><ele>909.828460275616</ele><time>2023-11-05T01:21:03Z</time><src>Hikingbook</src><extensions><gpxhb:speed>0.273806</gpxhb:speed><gpxhb:course>308.187796</gpxhb:course></extensions></trkpt><trkpt lat="24.134393866369088" lon="120.93305808559758"><ele>910.072238143116</ele><time>2023-11-05T01:21:30Z</time><src>Hikingbook</src><extensions><gpxhb:speed>1.260895</gpxhb:speed><gpxhb:course>175.637776</gpxhb:course></extensions></trkpt><trkpt lat="24.134366252867675" lon="120.93282860528521"><ele>905.7546506768433</ele><time>2023-11-05T01:22:06Z</time><src>Hikingbook</src><extensions><gpxhb:speed>0.806287</gpxhb:speed><gpxhb:course>255.331962</gpxhb:course></extensions></trkpt><trkpt lat="24.134361862544335" lon="120.93281867623638"><ele>906.0462010128222</ele><time>2023-11-05T01:22:07Z</time><src>Hikingbook</src><extensions><gpxhb:speed>0.714268</gpxhb:speed><gpxhb:course>261.965790</gpxhb:course></extensions></trkpt><trkpt lat="24.134314507534796" lon="120.93268080694716"><ele>904.6317400110775</ele><time>2023-11-05T01:22:40Z</time><src>Hikingbook</src><extensions><gpxhb:speed>0.314927</gpxhb:speed><gpxhb:course>277.405960</gpxhb:course></extensions></trkpt><trkpt lat="24.134041629701596" lon="120.93269918854627"><ele>905.9292806122022</ele><time>2023-11-05T01:23:38Z</time><src>Hikingbook</src><extensions><gpxhb:speed>0.590244</gpxhb:speed><gpxhb:course>175.341531</gpxhb:course></extensions></trkpt><trkpt lat="24.13389009775342" lon="120.93282866475926"><ele>900.2340471696568</ele><time>2023-11-05T01:24:26Z</time><src>Hikingbook</src><extensions><gpxhb:speed>0.038525</gpxhb:speed><gpxhb:course>195.015353</gpxhb:course></extensions></trkpt><trkpt lat="24.133697901868643" lon="120.93282981016925"><ele>896.200335123616</ele><time>2023-11-05T01:25:09Z</time><src>Hikingbook</src><extensions><gpxhb:speed>0.035575</gpxhb:speed><gpxhb:course>193.506631</gpxhb:course></extensions></trkpt><trkpt lat="24.133647866839585" lon="120.9327277898918"><ele>893.9839832344061</ele><time>2023-11-05T01:25:26Z</time><src>Hikingbook</src><extensions><gpxhb:speed>0.963018</gpxhb:speed><gpxhb:course>244.329739</gpxhb:course></extensions></trkpt><trkpt lat="24.13345632163849" lon="120.93282759195247"><ele>888.4691307532937</ele><time>2023-11-05T01:26:18Z</time><src>Hikingbook</src><extensions><gpxhb:speed>0.625345</gpxhb:speed><gpxhb:course>184.170733</gpxhb:course></extensions></trkpt><trkpt lat="24.133448108067576" lon="120.93282726301756"><ele>888.5970028279677</ele><time>2023-11-05T01:26:19Z</time><src>Hikingbook</src><extensions><gpxhb:speed>0.757600</gpxhb:speed><gpxhb:course>174.129963</gpxhb:course></extensions></trkpt><trkpt lat="24.133213780595522" lon="120.93286195473921"><ele>888.8619016684095</ele><time>2023-11-05T01:27:03Z</time><src>Hikingbook</src><extensions><gpxhb:speed>0.227521</gpxhb:speed><gpxhb:course>146.198646</gpxhb:course></extensions></trkpt><trkpt lat="24.133109339751016" lon="120.93269042606286"><ele>891.4400157553351</ele><time>2023-11-05T01:27:52Z</time><src>Hikingbook</src><extensions><gpxhb:speed>1.472377</gpxhb:speed><gpxhb:course>254.670480</gpxhb:course></extensions></trkpt><trkpt lat="24.132929432994455" lon="120.93282233244481"><ele>887.2000950664784</ele><time>2023-11-05T01:28:18Z</time><src>Hikingbook</src><extensions><gpxhb:speed>0.925710</gpxhb:speed><gpxhb:course>163.619625</gpxhb:course></extensions></trkpt><trkpt lat="24.132838742464738" lon="120.93271975221431"><ele>883.5530914961003</ele><time>2023-11-05T01:28:38Z</time><src>Hikingbook</src><extensions><gpxhb:speed>0.184698</gpxhb:speed><gpxhb:course>198.330325</gpxhb:course></extensions></trkpt><trkpt lat="24.13282706918662" lon="120.9328486657678"><ele>884.9738565133939</ele><time>2023-11-05T01:29:05Z</time><src>Hikingbook</src><extensions><gpxhb:speed>0.000000</gpxhb:speed><gpxhb:course>221.700387</gpxhb:course></extensions></trkpt></trkseg><trkseg><trkpt lat="24.132973304235133" lon="120.93276580842206"><ele>898.9222953496501</ele><time>2023-11-05T05:31:18Z</time><src>Hikingbook</src><extensions><gpxhb:speed>0.000000</gpxhb:speed><gpxhb:course>-1.000000</gpxhb:course></extensions></trkpt><trkpt lat="24.132918649563035" lon="120.93270432803018"><ele>895.7100769723764</ele><time>2023-11-05T05:33:42Z</time><src>Hikingbook</src><extensions><gpxhb:speed>1.327790</gpxhb:speed><gpxhb:course>177.355516</gpxhb:course></extensions></trkpt><trkpt lat="24.13258002459254" lon="120.93299881846104"><ele>908.2722662332857</ele><time>2023-11-05T05:45:41Z</time><src>Hikingbook</src><extensions><gpxhb:speed>0.551681</gpxhb:speed><gpxhb:course>185.629126</gpxhb:course></extensions></trkpt><trkpt lat="24.13239579506829" lon="120.93308899063247"><ele>889.3455203158614</ele><time>2023-11-05T05:47:00Z</time><src>Hikingbook</src><extensions><gpxhb:speed>0.724631</gpxhb:speed><gpxhb:course>105.051214</gpxhb:course></extensions></trkpt><trkpt lat="24.132624309275506" lon="120.9329227607533"><ele>884.8465262702132</ele><time>2023-11-05T05:47:32Z</time><src>Hikingbook</src><extensions><gpxhb:speed>2.188540</gpxhb:speed><gpxhb:course>327.214065</gpxhb:course></extensions></trkpt></trkseg><trkseg></trkseg><trkseg><trkpt lat="24.13136218676019" lon="120.93273287650283"><ele>866.2173587789256</ele><time>2023-11-05T08:13:26Z</time><src>Hikingbook</src><extensions><gpxhb:speed>0.200000</gpxhb:speed><gpxhb:course>-1.000000</gpxhb:course></extensions></trkpt></trkseg><trkseg><trkpt lat="24.13145211681917" lon="120.93294174526764"><ele>880.3703157613054</ele><time>2023-11-05T08:20:10Z</time><src>Hikingbook</src><extensions><gpxhb:speed>0.000000</gpxhb:speed><gpxhb:course>24.164067</gpxhb:course></extensions></trkpt><trkpt lat="24.13159090626256" lon="120.93327694822202"><ele>876.5926361113369</ele><time>2023-11-05T08:20:23Z</time><src>Hikingbook</src><extensions><gpxhb:speed>0.000000</gpxhb:speed><gpxhb:course>157.883497</gpxhb:course></extensions></trkpt><trkpt lat="24.1314317069829" lon="120.93296420257927"><ele>873.5089481526065</ele><time>2023-11-05T08:20:52Z</time><src>Hikingbook</src><extensions><gpxhb:speed>0.105409</gpxhb:speed><gpxhb:course>-1.000000</gpxhb:course></extensions></trkpt><trkpt lat="24.13148347924746" lon="120.93320544960136"><ele>858.9405073937867</ele><time>2023-11-05T08:21:16Z</time><src>Hikingbook</src><extensions><gpxhb:speed>1.325985</gpxhb:speed><gpxhb:course>77.657544</gpxhb:course></extensions></trkpt><trkpt lat="24.131373375568977" lon="120.9331375773465"><ele>865.2162886135587</ele><time>2023-11-05T08:21:32Z</time><src>Hikingbook</src><extensions><gpxhb:speed>1.160937</gpxhb:speed><gpxhb:course>213.390995</gpxhb:course></extensions></trkpt><trkpt lat="24.131344094689222" lon="120.9334402268877"><ele>859.4246311468642</ele><time>2023-11-05T08:21:57Z</time><src>Hikingbook</src><extensions><gpxhb:speed>1.044354</gpxhb:speed><gpxhb:course>-1.000000</gpxhb:course></extensions></trkpt><trkpt lat="24.131366851585632" lon="120.93336953331412"><ele>849.3343877494115</ele><time>2023-11-05T08:22:03Z</time><src>Hikingbook</src><extensions><gpxhb:speed>2.833726</gpxhb:speed><gpxhb:course>-1.000000</gpxhb:course></extensions></trkpt><trkpt lat="24.130923522333138" lon="120.93323029191701"><ele>833.4088046589852</ele><time>2023-11-05T08:25:08Z</time><src>Hikingbook</src><extensions><gpxhb:speed>0.049603</gpxhb:speed><gpxhb:course>172.031696</gpxhb:course></extensions></trkpt><trkpt lat="24.13079479908315" lon="120.93323062950158"><ele>832.224571053151</ele><time>2023-11-05T08:26:06Z</time><src>Hikingbook</src><extensions><gpxhb:speed>0.542591</gpxhb:speed><gpxhb:course>175.435508</gpxhb:course></extensions></trkpt><trkpt lat="24.130637903874213" lon="120.93338248529074"><ele>824.2061906046087</ele><time>2023-11-05T08:26:42Z</time><src>Hikingbook</src><extensions><gpxhb:speed>0.562197</gpxhb:speed><gpxhb:course>162.702821</gpxhb:course></extensions></trkpt><trkpt lat="24.130632740945142" lon="120.93337912035334"><ele>823.2577333000967</ele><time>2023-11-05T08:26:43Z</time><src>Hikingbook</src><extensions><gpxhb:speed>1.408835</gpxhb:speed><gpxhb:course>-1.000000</gpxhb:course></extensions></trkpt><trkpt lat="24.13000911331422" lon="120.93373005352005"><ele>803.0691767329423</ele><time>2023-11-05T08:29:41Z</time><src>Hikingbook</src><extensions><gpxhb:speed>0.400241</gpxhb:speed><gpxhb:course>231.233201</gpxhb:course></extensions></trkpt><trkpt lat="24.12979289417452" lon="120.93374548593063"><ele>791.9874868912931</ele><time>2023-11-05T08:30:20Z</time><src>Hikingbook</src><extensions><gpxhb:speed>0.550942</gpxhb:speed><gpxhb:course>175.449262</gpxhb:course></extensions></trkpt><trkpt lat="24.129783690262858" lon="120.93374690034024"><ele>791.5819774991845</ele><time>2023-11-05T08:30:21Z</time><src>Hikingbook</src><extensions><gpxhb:speed>0.877553</gpxhb:speed><gpxhb:course>154.253728</gpxhb:course></extensions></trkpt><trkpt lat="24.129203921017027" lon="120.93322221726642"><ele>774.15548430416</ele><time>2023-11-05T08:33:59Z</time><src>Hikingbook</src><extensions><gpxhb:speed>0.074383</gpxhb:speed><gpxhb:course>188.591899</gpxhb:course></extensions></trkpt><trkpt lat="24.128992037709555" lon="120.93327236268148"><ele>770.9727770822709</ele><time>2023-11-05T08:37:06Z</time><src>Hikingbook</src><extensions><gpxhb:speed>0.027240</gpxhb:speed><gpxhb:course>-1.000000</gpxhb:course></extensions></trkpt><trkpt lat="24.12899026841838" lon="120.93327303251489"><ele>770.8104231748543</ele><time>2023-11-05T08:37:07Z</time><src>Hikingbook</src><extensions><gpxhb:speed>0.197497</gpxhb:speed><gpxhb:course>-1.000000</gpxhb:course></extensions></trkpt></trkseg><trkseg><trkpt lat="24.129061133240654" lon="120.93314556810616"><ele>770.0047411667183</ele><time>2023-11-05T08:53:21Z</time><src>Hikingbook</src><extensions><gpxhb:speed>0.164289</gpxhb:speed><gpxhb:course>281.807120</gpxhb:course></extensions></trkpt><trkpt lat="24.128870581735114" lon="120.93328434374799"><ele>770.772539906042</ele><time>2023-11-05T08:54:33Z</time><src>Hikingbook</src><extensions><gpxhb:speed>0.760000</gpxhb:speed><gpxhb:course>183.867187</gpxhb:course></extensions></trkpt><trkpt lat="24.12869703772993" lon="120.93304808502049"><ele>774.186563097595</ele><time>2023-11-05T08:56:26Z</time><src>Hikingbook</src><extensions><gpxhb:speed>0.000000</gpxhb:speed><gpxhb:course>201.907694</gpxhb:course></extensions></trkpt><trkpt lat="24.128620261740775" lon="120.93319436286107"><ele>772.9444334405779</ele><time>2023-11-05T08:57:20Z</time><src>Hikingbook</src><extensions><gpxhb:speed>0.356102</gpxhb:speed><gpxhb:course>231.184755</gpxhb:course></extensions></trkpt><trkpt lat="24.12859580123302" lon="120.93299872287518"><ele>773.7444525156106</ele><time>2023-11-05T08:57:46Z</time><src>Hikingbook</src><extensions><gpxhb:speed>0.171985</gpxhb:speed><gpxhb:course>211.567763</gpxhb:course></extensions></trkpt><trkpt lat="24.128555548712352" lon="120.93306565467424"><ele>771.0160845703856</ele><time>2023-11-05T08:58:04Z</time><src>Hikingbook</src><extensions><gpxhb:speed>0.317334</gpxhb:speed><gpxhb:course>90.028674</gpxhb:course></extensions></trkpt><trkpt lat="24.1282856828505" lon="120.93264000965785"><ele>766.0229744376902</ele><time>2023-11-05T09:00:31Z</time><src>Hikingbook</src><extensions><gpxhb:speed>0.619941</gpxhb:speed><gpxhb:course>209.112084</gpxhb:course></extensions></trkpt><trkpt lat="24.128275146560448" lon="120.93264120685537"><ele>766.2311878641252</ele><time>2023-11-05T09:00:32Z</time><src>Hikingbook</src><extensions><gpxhb:speed>0.830456</gpxhb:speed><gpxhb:course>181.727957</gpxhb:course></extensions></trkpt><trkpt lat="24.128070352097573" lon="120.93262265208125"><ele>752.3651689734477</ele><time>2023-11-05T09:01:43Z</time><src>Hikingbook</src><extensions><gpxhb:speed>0.217253</gpxhb:speed><gpxhb:course>173.048607</gpxhb:course></extensions></trkpt><trkpt lat="24.128036526485488" lon="120.93249980207896"><ele>751.7810801309516</ele><time>2023-11-05T09:02:41Z</time><src>Hikingbook</src><extensions><gpxhb:speed>0.589952</gpxhb:speed><gpxhb:course>162.003187</gpxhb:course></extensions></trkpt><trkpt lat="24.12790823440014" lon="120.93237524719433"><ele>757.9304415058815</ele><time>2023-11-05T09:03:32Z</time><src>Hikingbook</src><extensions><gpxhb:speed>0.040777</gpxhb:speed><gpxhb:course>235.681210</gpxhb:course></extensions></trkpt><trkpt lat="24.127778870676188" lon="120.93239798053612"><ele>750.9818859529996</ele><time>2023-11-05T09:04:19Z</time><src>Hikingbook</src><extensions><gpxhb:speed>0.986868</gpxhb:speed><gpxhb:course>169.915289</gpxhb:course></extensions></trkpt><trkpt lat="24.127531059117846" lon="120.93207533950219"><ele>755.9643421764213</ele><time>2023-11-05T09:05:56Z</time><src>Hikingbook</src><extensions><gpxhb:speed>1.220975</gpxhb:speed><gpxhb:course>198.729074</gpxhb:course></extensions></trkpt><trkpt lat="24.12752255490817" lon="120.9320726703098"><ele>756.1722037516097</ele><time>2023-11-05T09:05:57Z</time><src>Hikingbook</src><extensions><gpxhb:speed>0.916573</gpxhb:speed><gpxhb:course>193.670408</gpxhb:course></extensions></trkpt><trkpt lat="24.127310018123712" lon="120.93179607460934"><ele>754.567818720783</ele><time>2023-11-05T09:06:27Z</time><src>Hikingbook</src><extensions><gpxhb:speed>1.045661</gpxhb:speed><gpxhb:course>247.643846</gpxhb:course></extensions></trkpt><trkpt lat="24.12684636308578" lon="120.93171847753477"><ele>743.9926492326871</ele><time>2023-11-05T09:07:16Z</time><src>Hikingbook</src><extensions><gpxhb:speed>0.731198</gpxhb:speed><gpxhb:course>199.694693</gpxhb:course></extensions></trkpt><trkpt lat="24.12672925950717" lon="120.93158234795568"><ele>738.9797560553873</ele><time>2023-11-05T09:07:33Z</time><src>Hikingbook</src><extensions><gpxhb:speed>0.945921</gpxhb:speed><gpxhb:course>193.283229</gpxhb:course></extensions></trkpt><trkpt lat="24.126721492756918" lon="120.93158227972765"><ele>739.166838861916</ele><time>2023-11-05T09:07:34Z</time><src>Hikingbook</src><extensions><gpxhb:speed>0.048774</gpxhb:speed><gpxhb:course>194.950725</gpxhb:course></extensions></trkpt><trkpt lat="24.12594496684868" lon="120.93107813272174"><ele>737.9226016590618</ele><time>2023-11-05T09:09:35Z</time><src>Hikingbook</src><extensions><gpxhb:speed>0.907472</gpxhb:speed><gpxhb:course>234.833494</gpxhb:course></extensions></trkpt><trkpt lat="24.125940801343123" lon="120.93107152620809"><ele>737.6813314391597</ele><time>2023-11-05T09:09:36Z</time><src>Hikingbook</src><extensions><gpxhb:speed>0.871088</gpxhb:speed><gpxhb:course>226.127142</gpxhb:course></extensions></trkpt><trkpt lat="24.12577218408698" lon="120.93096924853081"><ele>731.6398796237231</ele><time>2023-11-05T09:10:08Z</time><src>Hikingbook</src><extensions><gpxhb:speed>0.601264</gpxhb:speed><gpxhb:course>247.561512</gpxhb:course></extensions></trkpt><trkpt lat="24.125707881489046" lon="120.93044864787436"><ele>741.2370297736558</ele><time>2023-11-05T09:11:11Z</time><src>Hikingbook</src><extensions><gpxhb:speed>0.756351</gpxhb:speed><gpxhb:course>258.360786</gpxhb:course></extensions></trkpt><trkpt lat="24.12555208138277" lon="120.93017356468744"><ele>743.4155489532873</ele><time>2023-11-05T09:11:54Z</time><src>Hikingbook</src><extensions><gpxhb:speed>0.871069</gpxhb:speed><gpxhb:course>209.601832</gpxhb:course></extensions></trkpt><trkpt lat="24.125547155585803" lon="120.93016923569482"><ele>743.394216195499</ele><time>2023-11-05T09:11:55Z</time><src>Hikingbook</src><extensions><gpxhb:speed>0.653444</gpxhb:speed><gpxhb:course>215.213973</gpxhb:course></extensions></trkpt><trkpt lat="24.125487028140675" lon="120.92930879031805"><ele>751.6933121824425</ele><time>2023-11-05T09:13:37Z</time><src>Hikingbook</src><extensions><gpxhb:speed>1.751656</gpxhb:speed><gpxhb:course>248.978707</gpxhb:course></extensions></trkpt><trkpt lat="24.125668639810755" lon="120.92918958923573"><ele>755.001668840564</ele><time>2023-11-05T09:13:56Z</time><src>Hikingbook</src><extensions><gpxhb:speed>0.427340</gpxhb:speed><gpxhb:course>306.485843</gpxhb:course></extensions></trkpt><trkpt lat="24.125669718153535" lon="120.9291804851118"><ele>755.208530871834</ele><time>2023-11-05T09:13:57Z</time><src>Hikingbook</src><extensions><gpxhb:speed>0.690803</gpxhb:speed><gpxhb:course>273.371081</gpxhb:course></extensions></trkpt><trkpt lat="24.125679598560197" lon="120.9289112691701"><ele>764.5801172907874</ele><time>2023-11-05T09:14:50Z</time><src>Hikingbook</src><extensions><gpxhb:speed>0.389587</gpxhb:speed><gpxhb:course>289.692463</gpxhb:course></extensions></trkpt><trkpt lat="24.12579581457237" lon="120.92882975862938"><ele>765.4734669800843</ele><time>2023-11-05T09:15:04Z</time><src>Hikingbook</src><extensions><gpxhb:speed>0.924374</gpxhb:speed><gpxhb:course>17.217125</gpxhb:course></extensions></trkpt><trkpt lat="24.125776293256894" lon="120.92952015482332"><ele>769.0669815798163</ele><time>2023-11-05T09:16:09Z</time><src>Hikingbook</src><extensions><gpxhb:speed>1.243143</gpxhb:speed><gpxhb:course>108.056833</gpxhb:course></extensions></trkpt><trkpt lat="24.12609485273376" lon="120.93005115863991"><ele>775.7028208801105</ele><time>2023-11-05T09:17:17Z</time><src>Hikingbook</src><extensions><gpxhb:speed>0.443141</gpxhb:speed><gpxhb:course>77.663156</gpxhb:course></extensions></trkpt><trkpt lat="24.126094760517514" lon="120.93006405777308"><ele>775.606926488297</ele><time>2023-11-05T09:17:18Z</time><src>Hikingbook</src><extensions><gpxhb:speed>0.467369</gpxhb:speed><gpxhb:course>59.378363</gpxhb:course></extensions></trkpt><trkpt lat="24.126207256005415" lon="120.93039418215258"><ele>773.755229221476</ele><time>2023-11-05T09:17:57Z</time><src>Hikingbook</src><extensions><gpxhb:speed>1.026539</gpxhb:speed><gpxhb:course>61.888883</gpxhb:course></extensions></trkpt><trkpt lat="24.12658132490424" lon="120.93069138545752"><ele>780.6183072310957</ele><time>2023-11-05T09:19:01Z</time><src>Hikingbook</src><extensions><gpxhb:speed>0.601787</gpxhb:speed><gpxhb:course>20.636181</gpxhb:course></extensions></trkpt><trkpt lat="24.126605971466933" lon="120.9306051138983"><ele>790.4374824597386</ele><time>2023-11-05T09:20:35Z</time><src>Hikingbook</src><extensions><gpxhb:speed>0.000000</gpxhb:speed><gpxhb:course>229.448591</gpxhb:course></extensions></trkpt></trkseg><trkseg><trkpt lat="24.126621511098367" lon="120.93060948538562"><ele>789.0057117678225</ele><time>2023-11-05T09:22:28Z</time><src>Hikingbook</src><extensions><gpxhb:speed>0.000000</gpxhb:speed><gpxhb:course>279.658160</gpxhb:course></extensions></trkpt><trkpt lat="24.126485639747244" lon="120.93029779162939"><ele>793.2766969553484</ele><time>2023-11-05T09:23:06Z</time><src>Hikingbook</src><extensions><gpxhb:speed>0.600041</gpxhb:speed><gpxhb:course>272.790115</gpxhb:course></extensions></trkpt><trkpt lat="24.126474616152716" lon="120.92962275720308"><ele>801.2457265442754</ele><time>2023-11-05T09:24:25Z</time><src>Hikingbook</src><extensions><gpxhb:speed>0.409637</gpxhb:speed><gpxhb:course>294.031471</gpxhb:course></extensions></trkpt><trkpt lat="24.12647637066864" lon="120.9296179049711"><ele>801.475448696935</ele><time>2023-11-05T09:24:26Z</time><src>Hikingbook</src><extensions><gpxhb:speed>0.354578</gpxhb:speed><gpxhb:course>294.031472</gpxhb:course></extensions></trkpt><trkpt lat="24.126274059676927" lon="120.92936838682614"><ele>800.1023890291772</ele><time>2023-11-05T09:25:07Z</time><src>Hikingbook</src><extensions><gpxhb:speed>1.418460</gpxhb:speed><gpxhb:course>257.052827</gpxhb:course></extensions></trkpt><trkpt lat="24.126433717232104" lon="120.9291631033625"><ele>796.9775848177488</ele><time>2023-11-05T09:25:31Z</time><src>Hikingbook</src><extensions><gpxhb:speed>0.623580</gpxhb:speed><gpxhb:course>0.098596</gpxhb:course></extensions></trkpt><trkpt lat="24.12698331399101" lon="120.92930268543445"><ele>806.0447188491972</ele><time>2023-11-05T09:26:55Z</time><src>Hikingbook</src><extensions><gpxhb:speed>0.782117</gpxhb:speed><gpxhb:course>18.731478</gpxhb:course></extensions></trkpt><trkpt lat="24.12730886732745" lon="120.92920639012674"><ele>812.1233498785261</ele><time>2023-11-05T09:27:43Z</time><src>Hikingbook</src><extensions><gpxhb:speed>0.801910</gpxhb:speed><gpxhb:course>344.302964</gpxhb:course></extensions></trkpt><trkpt lat="24.127314848159905" lon="120.92920296186446"><ele>812.4616025737234</ele><time>2023-11-05T09:27:44Z</time><src>Hikingbook</src><extensions><gpxhb:speed>0.694173</gpxhb:speed><gpxhb:course>342.340684</gpxhb:course></extensions></trkpt><trkpt lat="24.127951712236555" lon="120.92893167523553"><ele>820.2178323190601</ele><time>2023-11-05T09:29:17Z</time><src>Hikingbook</src><extensions><gpxhb:speed>0.709041</gpxhb:speed><gpxhb:course>325.728654</gpxhb:course></extensions></trkpt></trkseg></trk></gpx>