<?xml version="1.0" encoding="UTF-8"?>
<gpx version="1.1" creator="Hikingbook" xmlns:xsi="http://www.w3.org/2001/XMLSchema-instance" xmlns="http://www.topografix.com/GPX/1/1" xsi:schemaLocation="http://www.topografix.com/GPX/1/1 https://www.topografix.com/GPX/1/1/gpx.xsd https://hikingbook.net/xmlschemas/1/5 https:/hikingbook.net/xmlschemas/1/5/gpxhb.xsd" xmlns:gpxhb="https://hikingbook.net/xmlschemas/1/5"><metadata><name>🪢帖比倫（全段）-（2025-12-28）-「溪降」［🇹🇼南投-仁愛］</name><desc>&#xA;---&#xA;W-waterfall (瀑布）&#xA;S-slideway (滑瀑）&#xA;L-left(左岸）&#xA;TL-TopLeft(高左岸）&#xA;BL-BottomLeft(低左岸）&#xA;R-right(右岸）&#xA;TR-TopRight(高右岸）&#xA;BR-BottomRight(低右岸）&#xA;C-center(中岸）&#xA;&#xA;WT-waterfalltop(瀑頂）&#xA;WB-waterfallbottom(瀑底）&#xA;M-middle(中繼點）&#xA;D-deep(深潭）&#xA;G-guide (滑降）&#xA;B-bolt(人工錨點）&#xA;N-nature(天然錨點）&#xA;PB-personal bolt (人力錨點）&#xA;DB-damaged bolt(損壞錨點）&#xA;RB-removal bolt(可拆錨點）&#xA;TR-Traverse(橫移）&#xA;&#xA;Ex: &#xA;W1(M1-L)-B2-18m，D-5m&#xA;「瀑布1（中繼點1-左岸）-bolt有兩顆-使用繩長18米，深潭5公尺長」&#xA;&#xA;成員（6）：&#xA;jimce、&#xA;野彥、&#xA;鬼仔、&#xA;小卷、&#xA;輝哥、&#xA;小草&#xA;&#xA;裝備：&#xA;&#xA;繩(3)- &#xA;新達（7.5）*60、&#xA;CE4Y-Adrena（6.0）*30、&#xA;新達（7.5）*30&#xA;拋繩包（7.0）*15&#xA;&#xA;急救包-&#xA;&#xA;電鑽*1&#xA;Bolt（M8)*5&#xA;可移除bolt(m8)*6&#xA;&#xA;砍刀*1&#xA;鋸子*1&#xA;&#xA;無線電-&#xA;頻率：&#xA;   長距-144.52000&#xA;   短距-457.51250&#xA;&#xA;啞音：&#xA;&#xA;攝影器材：&#xA;1.)DJI mini 5 pro&#xA;&#xA;&#xA;</desc><author><name>Hikingbook</name><link href="https://hikingbook.net"><text>Hikingbook</text></link></author><link href="https://hikingbook.net/hikes/2025-12-28-%E6%99%A8%E9%96%93%E9%87%8D%E8%A3%9D%E7%99%BB%E5%B1%B1-3572d363"><text>Hikingbook</text></link><time>2026-07-02T21:50:50.496710118+08:00</time><keywords>Hikingbook,EzLife ,Jimce,Taiwan,帖比倫,南投,仁愛</keywords><extensions><gpxhb:postscript>1.）
瑞岩部落鱒魚場林老闆
0932323038</gpxhb:postscript><gpxhb:loadweight>10.0</gpxhb:loadweight><gpxhb:fitnesslevel>1</gpxhb:fitnesslevel><gpxhb:activitytype>others</gpxhb:activitytype><gpxhb:trackimageurl>https://assets.hikingbook.net/users/60w3wu1it91y2jmwdxciziq/jfendhsmsuyabd7hzcuplg/c2f44ae7-48cc-422d-b2b8-80921248b005.jpg</gpxhb:trackimageurl><gpxhb:device>Apple iPhone 13 Pro</gpxhb:device><gpxhb:source>Hikingbook</gpxhb:source></extensions></metadata><wpt lat="24.157254011392737" lon="121.16076062444705"><ele>1299</ele><time>2025-12-27T23:53:27Z</time><name>00 Start</name><cmt>2025-12-28T07:53:27+08:00</cmt><desc>00 Start</desc><src>Hikingbook</src><link href="https://hikingbook.net/hikes/JfEndHSmSuyabD7HzcUpLg"><text>Hikingbook</text></link><extensions><gpxhb:weather>Clear</gpxhb:weather><gpxhb:speed>0.000000</gpxhb:speed><gpxhb:course>-1.000000</gpxhb:course></extensions></wpt><wpt lat="24.158379679140328" lon="121.15663162417181"><ele>1283</ele><time>2025-12-28T00:06:00Z</time><name>01 錯過叉路（請往右）</name><cmt>2025-12-28T08:06:00+08:00</cmt><desc>01 錯過叉路（請往右）</desc><src>Hikingbook</src><link href="https://hikingbook.net/hikes/JfEndHSmSuyabD7HzcUpLg"><text>Hikingbook</text></link><extensions><gpxhb:weather>Clear</gpxhb:weather><gpxhb:speed>-1.000000</gpxhb:speed><gpxhb:course>-1.000000</gpxhb:course></extensions></wpt><wpt lat="24.15937729802915" lon="121.15478006662747"><ele>1279</ele><time>2025-12-28T00:18:24Z</time><name>02 走錯路，上切為原本路徑</name><cmt>2025-12-28T08:18:24+08:00</cmt><desc>02 走錯路，上切為原本路徑</desc><src>Hikingbook</src><link href="https://hikingbook.net/hikes/JfEndHSmSuyabD7HzcUpLg"><text>Hikingbook</text></link><extensions><gpxhb:weather>Clear</gpxhb:weather><gpxhb:speed>0.000000</gpxhb:speed><gpxhb:course>12.302316</gpxhb:course></extensions></wpt><wpt lat="24.160407648753512" lon="121.14980333621183"><ele>1261</ele><time>2025-12-28T00:36:46Z</time><name>03 溪谷</name><cmt>2025-12-28T08:36:46+08:00</cmt><desc>03 溪谷</desc><src>Hikingbook</src><link href="https://hikingbook.net/hikes/JfEndHSmSuyabD7HzcUpLg"><text>Hikingbook</text></link><extensions><gpxhb:weather>Clear</gpxhb:weather><gpxhb:speed>0.000000</gpxhb:speed><gpxhb:course>142.654204</gpxhb:course></extensions></wpt><wpt lat="24.159156282132557" lon="121.15333961790996"><ele>1252</ele><time>2025-12-28T00:49:11Z</time><name>04 W1(WT-L-B1-15m,D2m)</name><cmt>2025-12-28T08:49:11+08:00</cmt><desc>04 W1(WT-L-B1-15m,D2m)</desc><src>Hikingbook</src><link href="https://hikingbook.net/hikes/JfEndHSmSuyabD7HzcUpLg"><text>Hikingbook</text></link><extensions><gpxhb:weather>Clear</gpxhb:weather><gpxhb:speed>0.114801</gpxhb:speed><gpxhb:course>149.248070</gpxhb:course></extensions></wpt><wpt lat="24.15895402898673" lon="121.15338253799933"><ele>1254</ele><time>2025-12-28T01:04:50Z</time><name>05 W2(M1-L-B1-25m,D3m)</name><cmt>2025-12-28T09:04:50+08:00</cmt><desc>05 W2(M1-L-B1-25m,D3m)</desc><src>Hikingbook</src><link href="https://hikingbook.net/hikes/JfEndHSmSuyabD7HzcUpLg"><text>Hikingbook</text></link><extensions><gpxhb:weather>Clear</gpxhb:weather><gpxhb:speed>0.000000</gpxhb:speed><gpxhb:course>-1.000000</gpxhb:course></extensions></wpt><wpt lat="24.15906031033735" lon="121.1533319419286"><ele>1340</ele><time>2025-12-28T01:24:00Z</time><name>06 W2(WT-L-B2-5m,D4m)</name><cmt>2025-12-28T09:24:00+08:00</cmt><desc>06 W2(WT-L-B2-5m,D4m)</desc><src>Hikingbook</src><link href="https://hikingbook.net/hikes/JfEndHSmSuyabD7HzcUpLg"><text>Hikingbook</text></link><extensions><gpxhb:weather>Clear</gpxhb:weather><gpxhb:speed>-1.000000</gpxhb:speed><gpxhb:course>-1.000000</gpxhb:course></extensions></wpt><wpt lat="24.1587139194071" lon="121.15356579932514"><ele>1215</ele><time>2025-12-28T01:41:27Z</time><name>07 W3(WT-L-B1-3m)</name><cmt>2025-12-28T09:41:27+08:00</cmt><desc>07 W3(WT-L-B1-3m)</desc><src>Hikingbook</src><link href="https://hikingbook.net/hikes/JfEndHSmSuyabD7HzcUpLg"><text>Hikingbook</text></link><extensions><gpxhb:weather>Clear</gpxhb:weather><gpxhb:speed>0.499151</gpxhb:speed><gpxhb:course>187.927667</gpxhb:course></extensions></wpt><wpt lat="24.1587336606488" lon="121.15354750236072"><ele>1253</ele><time>2025-12-28T01:45:23Z</time><name>08 W3(WT-L-B2-4m,D2m)</name><cmt>2025-12-28T09:45:23+08:00</cmt><desc>08 W3(WT-L-B2-4m,D2m)</desc><src>Hikingbook</src><link href="https://hikingbook.net/hikes/JfEndHSmSuyabD7HzcUpLg"><text>Hikingbook</text></link><extensions><gpxhb:weather>Clear</gpxhb:weather><gpxhb:speed>0.133439</gpxhb:speed><gpxhb:course>-1.000000</gpxhb:course></extensions></wpt><wpt lat="24.158734634164233" lon="121.15375265349002"><ele>1216</ele><time>2025-12-28T01:51:53Z</time><name>09 W4(WT-L-B1-3m)</name><cmt>2025-12-28T09:51:53+08:00</cmt><desc>09 W4(WT-L-B1-3m)</desc><src>Hikingbook</src><link href="https://hikingbook.net/hikes/JfEndHSmSuyabD7HzcUpLg"><text>Hikingbook</text></link><extensions><gpxhb:weather>Clear</gpxhb:weather><gpxhb:speed>0.327913</gpxhb:speed><gpxhb:course>289.439485</gpxhb:course></extensions></wpt><wpt lat="24.158736099504274" lon="121.1538411957409"><ele>1236</ele><time>2025-12-28T02:01:56Z</time><name>10 W4(M1-L-B1-5m,D6m)</name><cmt>2025-12-28T10:01:56+08:00</cmt><desc>10 W4(M1-L-B1-5m,D6m)</desc><src>Hikingbook</src><link href="https://hikingbook.net/hikes/JfEndHSmSuyabD7HzcUpLg"><text>Hikingbook</text></link><extensions><gpxhb:weather>Clear</gpxhb:weather><gpxhb:speed>0.000000</gpxhb:speed><gpxhb:course>-1.000000</gpxhb:course></extensions></wpt><wpt lat="24.1583794938583" lon="121.15454159963325"><ele>1244</ele><time>2025-12-28T02:37:33Z</time><name>11 W5(WT-L-B1-3m) 「帖比倫瀑布」</name><cmt>2025-12-28T10:37:33+08:00</cmt><desc>11 W5(WT-L-B1-3m) 「帖比倫瀑布」</desc><src>Hikingbook</src><link href="https://hikingbook.net/hikes/JfEndHSmSuyabD7HzcUpLg"><text>Hikingbook</text></link><extensions><gpxhb:weather>Clear</gpxhb:weather><gpxhb:speed>0.000000</gpxhb:speed><gpxhb:course>53.390127</gpxhb:course></extensions></wpt><wpt lat="24.158316507256" lon="121.15449897219389"><ele>1246</ele><time>2025-12-28T02:39:01Z</time><name>12 W5(WT-L-B2-8m,D5m)「帖比倫瀑布」</name><cmt>2025-12-28T10:39:01+08:00</cmt><desc>12 W5(WT-L-B2-8m,D5m)「帖比倫瀑布」</desc><src>Hikingbook</src><link href="https://hikingbook.net/hikes/JfEndHSmSuyabD7HzcUpLg"><text>Hikingbook</text></link><extensions><gpxhb:weather>Clear</gpxhb:weather><gpxhb:speed>0.000000</gpxhb:speed><gpxhb:course>-1.000000</gpxhb:course></extensions></wpt><wpt lat="24.153071556197713" lon="121.16242320306154"><ele>1184</ele><time>2025-12-28T04:44:00Z</time><name>13 主瀑練白水完畢離開🏃</name><cmt>2025-12-28T12:44:00+08:00</cmt><desc>13 主瀑練白水完畢離開🏃</desc><src>Hikingbook</src><link href="https://hikingbook.net/hikes/JfEndHSmSuyabD7HzcUpLg"><text>Hikingbook</text></link><extensions><gpxhb:weather>Clear</gpxhb:weather><gpxhb:speed>0.156921</gpxhb:speed><gpxhb:course>100.208090</gpxhb:course></extensions></wpt><wpt lat="24.153053738085262" lon="121.16246480018575"><ele>1182</ele><time>2025-12-28T04:45:18Z</time><name>14 W6(WT-L-B2-5m)</name><cmt>2025-12-28T12:45:18+08:00</cmt><desc>14 W6(WT-L-B2-5m)</desc><src>Hikingbook</src><link href="https://hikingbook.net/hikes/JfEndHSmSuyabD7HzcUpLg"><text>Hikingbook</text></link><extensions><gpxhb:weather>Clear</gpxhb:weather><gpxhb:speed>0.666956</gpxhb:speed><gpxhb:course>208.351122</gpxhb:course></extensions></wpt><wpt lat="24.152969972799397" lon="121.16248724884997"><ele>1180</ele><time>2025-12-28T04:46:30Z</time><name>15 W6(M1-L-B1-3m)</name><cmt>2025-12-28T12:46:30+08:00</cmt><desc>15 W6(M1-L-B1-3m)</desc><src>Hikingbook</src><link href="https://hikingbook.net/hikes/JfEndHSmSuyabD7HzcUpLg"><text>Hikingbook</text></link><extensions><gpxhb:weather>Clear</gpxhb:weather><gpxhb:speed>0.360701</gpxhb:speed><gpxhb:course>61.515711</gpxhb:course></extensions></wpt><wpt lat="24.152940638044036" lon="121.16247475876985"><ele>1186</ele><time>2025-12-28T04:48:39Z</time><name>16 W6(M2-L-B1-3m,D4m,白水)</name><cmt>2025-12-28T12:48:39+08:00</cmt><desc>16 W6(M2-L-B1-3m,D4m,白水)</desc><src>Hikingbook</src><link href="https://hikingbook.net/hikes/JfEndHSmSuyabD7HzcUpLg"><text>Hikingbook</text></link><extensions><gpxhb:weather>Clear</gpxhb:weather><gpxhb:speed>3.693488</gpxhb:speed><gpxhb:course>-1.000000</gpxhb:course></extensions></wpt><wpt lat="24.152657772961504" lon="121.16278484019577"><ele>1179</ele><time>2025-12-28T04:54:47Z</time><name>17 D5m,跳水,白水</name><cmt>2025-12-28T12:54:47+08:00</cmt><desc>17 D5m,跳水,白水</desc><src>Hikingbook</src><link href="https://hikingbook.net/hikes/JfEndHSmSuyabD7HzcUpLg"><text>Hikingbook</text></link><extensions><gpxhb:weather>Clear</gpxhb:weather><gpxhb:speed>0.160759</gpxhb:speed><gpxhb:course>-1.000000</gpxhb:course></extensions></wpt><wpt lat="24.15267105344458" lon="121.16286093112072"><ele>1181</ele><time>2025-12-28T04:55:03Z</time><name>18 D4m,跳水,白水</name><cmt>2025-12-28T12:55:03+08:00</cmt><desc>18 D4m,跳水,白水</desc><src>Hikingbook</src><link href="https://hikingbook.net/hikes/JfEndHSmSuyabD7HzcUpLg"><text>Hikingbook</text></link><extensions><gpxhb:weather>Clear</gpxhb:weather><gpxhb:speed>0.000000</gpxhb:speed><gpxhb:course>163.715252</gpxhb:course></extensions></wpt><wpt lat="24.152666218601308" lon="121.16292298782724"><ele>1172</ele><time>2025-12-28T05:01:26Z</time><name>19 W7(WT-R-B1-6m)</name><cmt>2025-12-28T13:01:26+08:00</cmt><desc>19 W7(WT-R-B1-6m)</desc><src>Hikingbook</src><link href="https://hikingbook.net/hikes/JfEndHSmSuyabD7HzcUpLg"><text>Hikingbook</text></link><extensions><gpxhb:weather>Clear</gpxhb:weather><gpxhb:speed>0.000000</gpxhb:speed><gpxhb:course>-1.000000</gpxhb:course></extensions></wpt><wpt lat="24.152600672111276" lon="121.16298568446297"><ele>1159</ele><time>2025-12-28T05:04:30Z</time><name>20 W7(M1-R-B2-5m,D3m,白水)</name><cmt>2025-12-28T13:04:30+08:00</cmt><desc>20 W7(M1-R-B2-5m,D3m,白水)</desc><src>Hikingbook</src><link href="https://hikingbook.net/hikes/JfEndHSmSuyabD7HzcUpLg"><text>Hikingbook</text></link><extensions><gpxhb:weather>Clear</gpxhb:weather><gpxhb:speed>0.000000</gpxhb:speed><gpxhb:course>-1.000000</gpxhb:course></extensions></wpt><wpt lat="24.15231543595358" lon="121.1634757743414"><ele>1188</ele><time>2025-12-28T05:36:42Z</time><name>21 W8(WT-R-B1-6m,D3m)</name><cmt>2025-12-28T13:36:42+08:00</cmt><desc>21 W8(WT-R-B1-6m,D3m)</desc><src>Hikingbook</src><link href="https://hikingbook.net/hikes/JfEndHSmSuyabD7HzcUpLg"><text>Hikingbook</text></link><extensions><gpxhb:weather>Clear</gpxhb:weather><gpxhb:speed>0.720000</gpxhb:speed><gpxhb:course>129.726562</gpxhb:course></extensions></wpt><wpt lat="24.15248483095311" lon="121.16364409392051"><ele>1162</ele><time>2025-12-28T05:42:48Z</time><name>22 D4m,跳水</name><cmt>2025-12-28T13:42:48+08:00</cmt><desc>22 D4m,跳水</desc><src>Hikingbook</src><link href="https://hikingbook.net/hikes/JfEndHSmSuyabD7HzcUpLg"><text>Hikingbook</text></link><extensions><gpxhb:weather>Clear</gpxhb:weather><gpxhb:speed>0.404533</gpxhb:speed><gpxhb:course>-1.000000</gpxhb:course></extensions></wpt><wpt lat="24.152560522795092" lon="121.16377048205692"><ele>1150</ele><time>2025-12-28T05:48:52Z</time><name>23 D4m,跳水,白水</name><cmt>2025-12-28T13:48:52+08:00</cmt><desc>23 D4m,跳水,白水</desc><src>Hikingbook</src><link href="https://hikingbook.net/hikes/JfEndHSmSuyabD7HzcUpLg"><text>Hikingbook</text></link><extensions><gpxhb:weather>Clear</gpxhb:weather><gpxhb:speed>0.000000</gpxhb:speed><gpxhb:course>-1.000000</gpxhb:course></extensions></wpt><wpt lat="24.152328702717497" lon="121.16403656678138"><ele>1175</ele><time>2025-12-28T05:59:27Z</time><name>24 D5m,跳水,白水</name><cmt>2025-12-28T13:59:27+08:00</cmt><desc>24 D5m,跳水,白水</desc><src>Hikingbook</src><link href="https://hikingbook.net/hikes/JfEndHSmSuyabD7HzcUpLg"><text>Hikingbook</text></link><extensions><gpxhb:weather>Clear</gpxhb:weather><gpxhb:speed>0.123703</gpxhb:speed><gpxhb:course>-1.000000</gpxhb:course></extensions></wpt><wpt lat="24.152164069021023" lon="121.16429124958825"><ele>1162</ele><time>2025-12-28T06:06:43Z</time><name>25 D6m,跳水,白水</name><cmt>2025-12-28T14:06:43+08:00</cmt><desc>25 D6m,跳水,白水</desc><src>Hikingbook</src><link href="https://hikingbook.net/hikes/JfEndHSmSuyabD7HzcUpLg"><text>Hikingbook</text></link><extensions><gpxhb:weather>Clear</gpxhb:weather><gpxhb:speed>0.000000</gpxhb:speed><gpxhb:course>12.355617</gpxhb:course></extensions></wpt><wpt lat="24.15206124207259" lon="121.16459859130313"><ele>1146</ele><time>2025-12-28T06:10:42Z</time><name>26 D4m,跳水,白水</name><cmt>2025-12-28T14:10:42+08:00</cmt><desc>26 D4m,跳水,白水</desc><src>Hikingbook</src><link href="https://hikingbook.net/hikes/JfEndHSmSuyabD7HzcUpLg"><text>Hikingbook</text></link><extensions><gpxhb:weather>Clear</gpxhb:weather><gpxhb:speed>0.049794</gpxhb:speed><gpxhb:course>8.365272</gpxhb:course></extensions></wpt><wpt lat="24.1521729715881" lon="121.16489989645362"><ele>1144</ele><time>2025-12-28T06:15:19Z</time><name>27 休息開始</name><cmt>2025-12-28T14:15:19+08:00</cmt><desc>27 休息開始</desc><src>Hikingbook</src><link href="https://hikingbook.net/hikes/JfEndHSmSuyabD7HzcUpLg"><text>Hikingbook</text></link><extensions><gpxhb:weather>Clear</gpxhb:weather><gpxhb:speed>0.406717</gpxhb:speed><gpxhb:course>-1.000000</gpxhb:course></extensions></wpt><wpt lat="24.151960671901843" lon="121.16518316801745"><ele>1129</ele><time>2025-12-28T06:44:58Z</time><name>28 休息完畢</name><cmt>2025-12-28T14:44:58+08:00</cmt><desc>28 休息完畢</desc><src>Hikingbook</src><link href="https://hikingbook.net/hikes/JfEndHSmSuyabD7HzcUpLg"><text>Hikingbook</text></link><extensions><gpxhb:weather>Clear</gpxhb:weather><gpxhb:speed>0.610000</gpxhb:speed><gpxhb:course>75.234375</gpxhb:course></extensions></wpt><wpt lat="24.15001377288121" lon="121.16841269476555"><ele>1081</ele><time>2025-12-28T07:04:22Z</time><name>29 End</name><cmt>2025-12-28T15:04:22+08:00</cmt><desc>29 End</desc><src>Hikingbook</src><link href="https://hikingbook.net/hikes/JfEndHSmSuyabD7HzcUpLg"><text>Hikingbook</text></link><extensions><gpxhb:weather>Clear</gpxhb:weather><gpxhb:speed>0.078259</gpxhb:speed><gpxhb:course>236.904339</gpxhb:course></extensions></wpt><trk><name>🪢帖比倫（全段）-（2025-12-28）-「溪降」［🇹🇼南投-仁愛］</name><cmt>&#xA;---&#xA;W-waterfall (瀑布）&#xA;S-slideway (滑瀑）&#xA;L-left(左岸）&#xA;TL-TopLeft(高左岸）&#xA;BL-BottomLeft(低左岸）&#xA;R-right(右岸）&#xA;TR-TopRight(高右岸）&#xA;BR-BottomRight(低右岸）&#xA;C-center(中岸）&#xA;&#xA;WT-waterfalltop(瀑頂）&#xA;WB-waterfallbottom(瀑底）&#xA;M-middle(中繼點）&#xA;D-deep(深潭）&#xA;G-guide (滑降）&#xA;B-bolt(人工錨點）&#xA;N-nature(天然錨點）&#xA;PB-personal bolt (人力錨點）&#xA;DB-damaged bolt(損壞錨點）&#xA;RB-removal bolt(可拆錨點）&#xA;TR-Traverse(橫移）&#xA;&#xA;Ex: &#xA;W1(M1-L)-B2-18m，D-5m&#xA;「瀑布1（中繼點1-左岸）-bolt有兩顆-使用繩長18米，深潭5公尺長」&#xA;&#xA;成員（6）：&#xA;jimce、&#xA;野彥、&#xA;鬼仔、&#xA;小卷、&#xA;輝哥、&#xA;小草&#xA;&#xA;裝備：&#xA;&#xA;繩(3)- &#xA;新達（7.5）*60、&#xA;CE4Y-Adrena（6.0）*30、&#xA;新達（7.5）*30&#xA;拋繩包（7.0）*15&#xA;&#xA;急救包-&#xA;&#xA;電鑽*1&#xA;Bolt（M8)*5&#xA;可移除bolt(m8)*6&#xA;&#xA;砍刀*1&#xA;鋸子*1&#xA;&#xA;無線電-&#xA;頻率：&#xA;   長距-144.52000&#xA;   短距-457.51250&#xA;&#xA;啞音：&#xA;&#xA;攝影器材：&#xA;1.)DJI mini 5 pro&#xA;&#xA;&#xA;</cmt><desc>&#xA;---&#xA;W-waterfall (瀑布）&#xA;S-slideway (滑瀑）&#xA;L-left(左岸）&#xA;TL-TopLeft(高左岸）&#xA;BL-BottomLeft(低左岸）&#xA;R-right(右岸）&#xA;TR-TopRight(高右岸）&#xA;BR-BottomRight(低右岸）&#xA;C-center(中岸）&#xA;&#xA;WT-waterfalltop(瀑頂）&#xA;WB-waterfallbottom(瀑底）&#xA;M-middle(中繼點）&#xA;D-deep(深潭）&#xA;G-guide (滑降）&#xA;B-bolt(人工錨點）&#xA;N-nature(天然錨點）&#xA;PB-personal bolt (人力錨點）&#xA;DB-damaged bolt(損壞錨點）&#xA;RB-removal bolt(可拆錨點）&#xA;TR-Traverse(橫移）&#xA;&#xA;Ex: &#xA;W1(M1-L)-B2-18m，D-5m&#xA;「瀑布1（中繼點1-左岸）-bolt有兩顆-使用繩長18米，深潭5公尺長」&#xA;&#xA;成員（6）：&#xA;jimce、&#xA;野彥、&#xA;鬼仔、&#xA;小卷、&#xA;輝哥、&#xA;小草&#xA;&#xA;裝備：&#xA;&#xA;繩(3)- &#xA;新達（7.5）*60、&#xA;CE4Y-Adrena（6.0）*30、&#xA;新達（7.5）*30&#xA;拋繩包（7.0）*15&#xA;&#xA;急救包-&#xA;&#xA;電鑽*1&#xA;Bolt（M8)*5&#xA;可移除bolt(m8)*6&#xA;&#xA;砍刀*1&#xA;鋸子*1&#xA;&#xA;無線電-&#xA;頻率：&#xA;   長距-144.52000&#xA;   短距-457.51250&#xA;&#xA;啞音：&#xA;&#xA;攝影器材：&#xA;1.)DJI mini 5 pro&#xA;&#xA;&#xA;</desc><src>Hikingbook</src><link href="https://hikingbook.net/hikes/2025-12-28-%E6%99%A8%E9%96%93%E9%87%8D%E8%A3%9D%E7%99%BB%E5%B1%B1-3572d363"><text>Hikingbook</text></link><trkseg><trkpt lat="24.15725304695593" lon="121.16075685056389"><ele>1299.091324774366</ele><time>2025-12-27T23:53:28Z</time><src>Hikingbook</src><extensions><gpxhb:speed>0.000000</gpxhb:speed><gpxhb:course>-1.000000</gpxhb:course></extensions></trkpt><trkpt lat="24.15721839660192" lon="121.1608365082352"><ele>1299.2864645337686</ele><time>2025-12-27T23:53:40Z</time><src>Hikingbook</src><extensions><gpxhb:speed>0.830000</gpxhb:speed><gpxhb:course>140.273440</gpxhb:course></extensions></trkpt><trkpt lat="24.157099357027775" lon="121.16028888546805"><ele>1286.65818052327</ele><time>2025-12-27T23:54:20Z</time><src>Hikingbook</src><extensions><gpxhb:speed>1.278463</gpxhb:speed><gpxhb:course>279.112635</gpxhb:course></extensions></trkpt><trkpt lat="24.157231612679393" lon="121.1597717825766"><ele>1277.1578489199483</ele><time>2025-12-27T23:55:00Z</time><src>Hikingbook</src><extensions><gpxhb:speed>1.067998</gpxhb:speed><gpxhb:course>299.488989</gpxhb:course></extensions></trkpt><trkpt lat="24.157236683841784" lon="121.15976165957672"><ele>1276.992475506774</ele><time>2025-12-27T23:55:01Z</time><src>Hikingbook</src><extensions><gpxhb:speed>1.018024</gpxhb:speed><gpxhb:course>297.174104</gpxhb:course></extensions></trkpt><trkpt lat="24.157727425694187" lon="121.15943006040094"><ele>1276.2409437865304</ele><time>2025-12-27T23:56:05Z</time><src>Hikingbook</src><extensions><gpxhb:speed>1.209456</gpxhb:speed><gpxhb:course>334.596864</gpxhb:course></extensions></trkpt><trkpt lat="24.157936094621256" lon="121.15911002251022"><ele>1275.0094549382186</ele><time>2025-12-27T23:56:41Z</time><src>Hikingbook</src><extensions><gpxhb:speed>1.159273</gpxhb:speed><gpxhb:course>290.460883</gpxhb:course></extensions></trkpt><trkpt lat="24.157941043730403" lon="121.15909889871682"><ele>1275.0335896015665</ele><time>2025-12-27T23:56:42Z</time><src>Hikingbook</src><extensions><gpxhb:speed>0.944749</gpxhb:speed><gpxhb:course>298.519528</gpxhb:course></extensions></trkpt><trkpt lat="24.1581784109361" lon="121.15879793939807"><ele>1269.9254394599218</ele><time>2025-12-27T23:57:26Z</time><src>Hikingbook</src><extensions><gpxhb:speed>0.250889</gpxhb:speed><gpxhb:course>335.763155</gpxhb:course></extensions></trkpt><trkpt lat="24.158277773211765" lon="121.15851567109925"><ele>1261.0226231677427</ele><time>2025-12-27T23:58:06Z</time><src>Hikingbook</src><extensions><gpxhb:speed>1.322757</gpxhb:speed><gpxhb:course>278.182865</gpxhb:course></extensions></trkpt><trkpt lat="24.158142716814506" lon="121.15836644849405"><ele>1253.7796978073989</ele><time>2025-12-27T23:58:24Z</time><src>Hikingbook</src><extensions><gpxhb:speed>1.170706</gpxhb:speed><gpxhb:course>208.807314</gpxhb:course></extensions></trkpt><trkpt lat="24.1576341013857" lon="121.15816320601176"><ele>1240.2906932147332</ele><time>2025-12-27T23:59:10Z</time><src>Hikingbook</src><extensions><gpxhb:speed>1.411570</gpxhb:speed><gpxhb:course>200.472045</gpxhb:course></extensions></trkpt><trkpt lat="24.157624105357744" lon="121.15815970902456"><ele>1239.9107877563445</ele><time>2025-12-27T23:59:11Z</time><src>Hikingbook</src><extensions><gpxhb:speed>1.214679</gpxhb:speed><gpxhb:course>198.201288</gpxhb:course></extensions></trkpt><trkpt lat="24.15758407408467" lon="121.15813625033455"><ele>1239.371822785315</ele><time>2025-12-27T23:59:14Z</time><src>Hikingbook</src><extensions><gpxhb:speed>1.236514</gpxhb:speed><gpxhb:course>212.601913</gpxhb:course></extensions></trkpt><trkpt lat="24.157725202997387" lon="121.15773313153288"><ele>1238.985242572113</ele><time>2025-12-27T23:59:51Z</time><src>Hikingbook</src><extensions><gpxhb:speed>1.319256</gpxhb:speed><gpxhb:course>301.132906</gpxhb:course></extensions></trkpt><trkpt lat="24.157985561297306" lon="121.1573647317705"><ele>1236.296282679044</ele><time>2025-12-28T00:00:33Z</time><src>Hikingbook</src><extensions><gpxhb:speed>0.556367</gpxhb:speed><gpxhb:course>323.157155</gpxhb:course></extensions></trkpt><trkpt lat="24.15802953773415" lon="121.15715294283082"><ele>1232.767149416422</ele><time>2025-12-28T00:00:49Z</time><src>Hikingbook</src><extensions><gpxhb:speed>1.343736</gpxhb:speed><gpxhb:course>283.559618</gpxhb:course></extensions></trkpt><trkpt lat="24.158031001176184" lon="121.15713634865386"><ele>1232.3151672605359</ele><time>2025-12-28T00:00:50Z</time><src>Hikingbook</src><extensions><gpxhb:speed>1.297475</gpxhb:speed><gpxhb:course>287.363899</gpxhb:course></extensions></trkpt><trkpt lat="24.158047162024708" lon="121.15692502093714"><ele>1228.814329536493</ele><time>2025-12-28T00:01:09Z</time><src>Hikingbook</src><extensions><gpxhb:speed>0.072875</gpxhb:speed><gpxhb:course>325.191440</gpxhb:course></extensions></trkpt><trkpt lat="24.15833787088758" lon="121.15670704955095"><ele>1232.513855447419</ele><time>2025-12-28T00:01:44Z</time><src>Hikingbook</src><extensions><gpxhb:speed>1.166533</gpxhb:speed><gpxhb:course>333.771031</gpxhb:course></extensions></trkpt><trkpt lat="24.158400716160767" lon="121.15659367172155"><ele>1238.9188519190384</ele><time>2025-12-28T00:01:58Z</time><src>Hikingbook</src><extensions><gpxhb:speed>1.187902</gpxhb:speed><gpxhb:course>316.607049</gpxhb:course></extensions></trkpt><trkpt lat="24.15831262823342" lon="121.15644514784563"><ele>1234.533787158213</ele><time>2025-12-28T00:02:19Z</time><src>Hikingbook</src><extensions><gpxhb:speed>0.839799</gpxhb:speed><gpxhb:course>223.843124</gpxhb:course></extensions></trkpt><trkpt lat="24.158352469689067" lon="121.15621035816986"><ele>1229.6439071842265</ele><time>2025-12-28T00:02:42Z</time><src>Hikingbook</src><extensions><gpxhb:speed>1.473213</gpxhb:speed><gpxhb:course>275.209844</gpxhb:course></extensions></trkpt><trkpt lat="24.158354180979725" lon="121.15619511030684"><ele>1229.516388545058</ele><time>2025-12-28T00:02:43Z</time><src>Hikingbook</src><extensions><gpxhb:speed>1.455753</gpxhb:speed><gpxhb:course>275.686732</gpxhb:course></extensions></trkpt><trkpt lat="24.158277221036958" lon="121.1560703530525"><ele>1226.0811314467367</ele><time>2025-12-28T00:03:13Z</time><src>Hikingbook</src><extensions><gpxhb:speed>1.518307</gpxhb:speed><gpxhb:course>253.370719</gpxhb:course></extensions></trkpt><trkpt lat="24.158294678630238" lon="121.15575749620913"><ele>1224.1294499317453</ele><time>2025-12-28T00:03:36Z</time><src>Hikingbook</src><extensions><gpxhb:speed>1.024044</gpxhb:speed><gpxhb:course>280.984739</gpxhb:course></extensions></trkpt><trkpt lat="24.15836524863211" lon="121.15562504770018"><ele>1227.3518650540348</ele><time>2025-12-28T00:04:23Z</time><src>Hikingbook</src><extensions><gpxhb:speed>0.691948</gpxhb:speed><gpxhb:course>9.475927</gpxhb:course></extensions></trkpt><trkpt lat="24.158215411175245" lon="121.15553892692984"><ele>1222.6687614768994</ele><time>2025-12-28T00:04:51Z</time><src>Hikingbook</src><extensions><gpxhb:speed>0.877299</gpxhb:speed><gpxhb:course>239.715777</gpxhb:course></extensions></trkpt><trkpt lat="24.158303631426236" lon="121.15505552600199"><ele>1228.5882408353386</ele><time>2025-12-28T00:05:36Z</time><src>Hikingbook</src><extensions><gpxhb:speed>0.669822</gpxhb:speed><gpxhb:course>288.812403</gpxhb:course></extensions></trkpt><trkpt lat="24.1583066457054" lon="121.15503522411788"><ele>1228.7475426162614</ele><time>2025-12-28T00:05:38Z</time><src>Hikingbook</src><extensions><gpxhb:speed>0.883991</gpxhb:speed><gpxhb:course>290.676981</gpxhb:course></extensions></trkpt><trkpt lat="24.15830363137697" lon="121.15499321819506"><ele>1229.3627750787919</ele><time>2025-12-28T00:05:42Z</time><src>Hikingbook</src><extensions><gpxhb:speed>1.522415</gpxhb:speed><gpxhb:course>272.858737</gpxhb:course></extensions></trkpt><trkpt lat="24.158341510148023" lon="121.15503323290861"><ele>1230.7587484348808</ele><time>2025-12-28T00:06:56Z</time><src>Hikingbook</src><extensions><gpxhb:speed>0.041804</gpxhb:speed><gpxhb:course>267.336186</gpxhb:course></extensions></trkpt><trkpt lat="24.158550079836505" lon="121.15492154102145"><ele>1242.5281411196827</ele><time>2025-12-28T00:08:40Z</time><src>Hikingbook</src><extensions><gpxhb:speed>0.332217</gpxhb:speed><gpxhb:course>305.302794</gpxhb:course></extensions></trkpt><trkpt lat="24.15859602025058" lon="121.15483933448068"><ele>1243.4011103395062</ele><time>2025-12-28T00:09:07Z</time><src>Hikingbook</src><extensions><gpxhb:speed>0.877972</gpxhb:speed><gpxhb:course>276.120440</gpxhb:course></extensions></trkpt><trkpt lat="24.158724308519588" lon="121.15484366944894"><ele>1250.2986404469045</ele><time>2025-12-28T00:10:23Z</time><src>Hikingbook</src><extensions><gpxhb:speed>0.081735</gpxhb:speed><gpxhb:course>293.281230</gpxhb:course></extensions></trkpt><trkpt lat="24.15866174338105" lon="121.15492347923377"><ele>1252.3090761240624</ele><time>2025-12-28T00:10:49Z</time><src>Hikingbook</src><extensions><gpxhb:speed>0.167031</gpxhb:speed><gpxhb:course>293.281269</gpxhb:course></extensions></trkpt><trkpt lat="24.158705292896443" lon="121.15493943473027"><ele>1253.5533204981543</ele><time>2025-12-28T00:11:05Z</time><src>Hikingbook</src><extensions><gpxhb:speed>0.214846</gpxhb:speed><gpxhb:course>293.281265</gpxhb:course></extensions></trkpt><trkpt lat="24.158896270478174" lon="121.15480741807248"><ele>1261.386092410248</ele><time>2025-12-28T00:15:39Z</time><src>Hikingbook</src><extensions><gpxhb:speed>0.982427</gpxhb:speed><gpxhb:course>313.581303</gpxhb:course></extensions></trkpt><trkpt lat="24.159195884651083" lon="121.15485062464114"><ele>1269.3225612942144</ele><time>2025-12-28T00:16:18Z</time><src>Hikingbook</src><extensions><gpxhb:speed>0.413168</gpxhb:speed><gpxhb:course>38.507802</gpxhb:course></extensions></trkpt><trkpt lat="24.159207428342302" lon="121.1548560067026"><ele>1269.4328580171984</ele><time>2025-12-28T00:16:22Z</time><src>Hikingbook</src><extensions><gpxhb:speed>0.427984</gpxhb:speed><gpxhb:course>35.871373</gpxhb:course></extensions></trkpt><trkpt lat="24.15924738085495" lon="121.15488199333518"><ele>1269.221646031027</ele><time>2025-12-28T00:16:26Z</time><src>Hikingbook</src><extensions><gpxhb:speed>1.164000</gpxhb:speed><gpxhb:course>30.140928</gpxhb:course></extensions></trkpt><trkpt lat="24.15941393230542" lon="121.1547500778373"><ele>1275.610482559014</ele><time>2025-12-28T00:17:03Z</time><src>Hikingbook</src><extensions><gpxhb:speed>0.227743</gpxhb:speed><gpxhb:course>344.965330</gpxhb:course></extensions></trkpt><trkpt lat="24.159397203509766" lon="121.15468440242351"><ele>1277.2778411103275</ele><time>2025-12-28T00:17:51Z</time><src>Hikingbook</src><extensions><gpxhb:speed>0.022166</gpxhb:speed><gpxhb:course>308.424352</gpxhb:course></extensions></trkpt><trkpt lat="24.159383349925548" lon="121.15477446130313"><ele>1279.8926116084965</ele><time>2025-12-28T00:18:14Z</time><src>Hikingbook</src><extensions><gpxhb:speed>0.000000</gpxhb:speed><gpxhb:course>308.424388</gpxhb:course></extensions></trkpt></trkseg><trkseg><trkpt lat="24.159383349925548" lon="121.15477446130313"><ele>1279.8926116084965</ele><time>2025-12-28T00:23:18Z</time><src>Hikingbook</src><extensions><gpxhb:speed>0.000000</gpxhb:speed><gpxhb:course>308.424388</gpxhb:course></extensions></trkpt><trkpt lat="24.159340235408866" lon="121.15480887073456"><ele>1280.4879012353827</ele><time>2025-12-28T00:23:20Z</time><src>Hikingbook</src><extensions><gpxhb:speed>0.740000</gpxhb:speed><gpxhb:course>289.335938</gpxhb:course></extensions></trkpt><trkpt lat="24.159542063815962" lon="121.1543855992072"><ele>1276.2408211357829</ele><time>2025-12-28T00:23:38Z</time><src>Hikingbook</src><extensions><gpxhb:speed>1.350000</gpxhb:speed><gpxhb:course>273.164057</gpxhb:course></extensions></trkpt><trkpt lat="24.159554017495317" lon="121.15416594650148"><ele>1280.3707324280278</ele><time>2025-12-28T00:24:02Z</time><src>Hikingbook</src><extensions><gpxhb:speed>1.221359</gpxhb:speed><gpxhb:course>265.193315</gpxhb:course></extensions></trkpt><trkpt lat="24.15976314084695" lon="121.15385896255692"><ele>1282.755616175784</ele><time>2025-12-28T00:24:41Z</time><src>Hikingbook</src><extensions><gpxhb:speed>0.712549</gpxhb:speed><gpxhb:course>295.699721</gpxhb:course></extensions></trkpt><trkpt lat="24.159765058074935" lon="121.1537593575537"><ele>1281.5149374594325</ele><time>2025-12-28T00:24:52Z</time><src>Hikingbook</src><extensions><gpxhb:speed>1.107411</gpxhb:speed><gpxhb:course>292.496645</gpxhb:course></extensions></trkpt><trkpt lat="24.15978768454137" lon="121.15355213431107"><ele>1281.6199993139328</ele><time>2025-12-28T00:25:13Z</time><src>Hikingbook</src><extensions><gpxhb:speed>0.272022</gpxhb:speed><gpxhb:course>288.694434</gpxhb:course></extensions></trkpt><trkpt lat="24.159967310066598" lon="121.15346907615276"><ele>1285.38843255647</ele><time>2025-12-28T00:26:13Z</time><src>Hikingbook</src><extensions><gpxhb:speed>0.870534</gpxhb:speed><gpxhb:course>307.489759</gpxhb:course></extensions></trkpt><trkpt lat="24.160298125315375" lon="121.15294557320829"><ele>1293.1512870593488</ele><time>2025-12-28T00:27:11Z</time><src>Hikingbook</src><extensions><gpxhb:speed>0.943551</gpxhb:speed><gpxhb:course>302.219327</gpxhb:course></extensions></trkpt><trkpt lat="24.160331949847098" lon="121.15291232753628"><ele>1293.2957217925468</ele><time>2025-12-28T00:27:14Z</time><src>Hikingbook</src><extensions><gpxhb:speed>1.261749</gpxhb:speed><gpxhb:course>319.880573</gpxhb:course></extensions></trkpt><trkpt lat="24.160429890246263" lon="121.15274305607801"><ele>1296.1998918336922</ele><time>2025-12-28T00:27:32Z</time><src>Hikingbook</src><extensions><gpxhb:speed>1.133042</gpxhb:speed><gpxhb:course>307.824766</gpxhb:course></extensions></trkpt><trkpt lat="24.1607603127052" lon="121.15247012067864"><ele>1304.0560608333872</ele><time>2025-12-28T00:28:18Z</time><src>Hikingbook</src><extensions><gpxhb:speed>1.035222</gpxhb:speed><gpxhb:course>303.675220</gpxhb:course></extensions></trkpt><trkpt lat="24.160865792779266" lon="121.15209688282359"><ele>1306.338977226263</ele><time>2025-12-28T00:28:52Z</time><src>Hikingbook</src><extensions><gpxhb:speed>1.239949</gpxhb:speed><gpxhb:course>284.785989</gpxhb:course></extensions></trkpt><trkpt lat="24.160870410712814" lon="121.15208320967271"><ele>1306.435843677169</ele><time>2025-12-28T00:28:53Z</time><src>Hikingbook</src><extensions><gpxhb:speed>1.330244</gpxhb:speed><gpxhb:course>288.441072</gpxhb:course></extensions></trkpt><trkpt lat="24.160953311903715" lon="121.15170732523907"><ele>1302.7202444513232</ele><time>2025-12-28T00:29:27Z</time><src>Hikingbook</src><extensions><gpxhb:speed>0.786481</gpxhb:speed><gpxhb:course>268.892732</gpxhb:course></extensions></trkpt><trkpt lat="24.160890762042058" lon="121.15172394251627"><ele>1303.4646799599375</ele><time>2025-12-28T00:29:42Z</time><src>Hikingbook</src><extensions><gpxhb:speed>0.126625</gpxhb:speed><gpxhb:course>266.335427</gpxhb:course></extensions></trkpt><trkpt lat="24.160858410205293" lon="121.1514913922241"><ele>1297.5920045241016</ele><time>2025-12-28T00:30:18Z</time><src>Hikingbook</src><extensions><gpxhb:speed>1.064155</gpxhb:speed><gpxhb:course>270.596114</gpxhb:course></extensions></trkpt><trkpt lat="24.160913868050628" lon="121.15133186473216"><ele>1291.2895593993608</ele><time>2025-12-28T00:30:36Z</time><src>Hikingbook</src><extensions><gpxhb:speed>0.861782</gpxhb:speed><gpxhb:course>293.728437</gpxhb:course></extensions></trkpt><trkpt lat="24.160824992672676" lon="121.151392934843"><ele>1285.8031402169424</ele><time>2025-12-28T00:30:52Z</time><src>Hikingbook</src><extensions><gpxhb:speed>0.608919</gpxhb:speed><gpxhb:course>148.053127</gpxhb:course></extensions></trkpt><trkpt lat="24.160838042415417" lon="121.15127045971856"><ele>1280.995666563121</ele><time>2025-12-28T00:31:10Z</time><src>Hikingbook</src><extensions><gpxhb:speed>0.501158</gpxhb:speed><gpxhb:course>310.823545</gpxhb:course></extensions></trkpt><trkpt lat="24.1609956652823" lon="121.15109657920746"><ele>1278.8393234473044</ele><time>2025-12-28T00:31:30Z</time><src>Hikingbook</src><extensions><gpxhb:speed>0.847660</gpxhb:speed><gpxhb:course>331.260357</gpxhb:course></extensions></trkpt><trkpt lat="24.161002374715363" lon="121.15109048022923"><ele>1278.873868511765</ele><time>2025-12-28T00:31:31Z</time><src>Hikingbook</src><extensions><gpxhb:speed>0.758817</gpxhb:speed><gpxhb:course>318.562146</gpxhb:course></extensions></trkpt><trkpt lat="24.160928868855294" lon="121.15094632548046"><ele>1279.8811961027286</ele><time>2025-12-28T00:32:03Z</time><src>Hikingbook</src><extensions><gpxhb:speed>0.000000</gpxhb:speed><gpxhb:course>247.037364</gpxhb:course></extensions></trkpt><trkpt lat="24.16093953646791" lon="121.15095488607837"><ele>1271.1484156310487</ele><time>2025-12-28T00:32:50Z</time><src>Hikingbook</src><extensions><gpxhb:speed>0.990000</gpxhb:speed><gpxhb:course>159.960938</gpxhb:course></extensions></trkpt><trkpt lat="24.16068271550191" lon="121.15040542424863"><ele>1266.1180697677958</ele><time>2025-12-28T00:33:57Z</time><src>Hikingbook</src><extensions><gpxhb:speed>1.136283</gpxhb:speed><gpxhb:course>271.083646</gpxhb:course></extensions></trkpt><trkpt lat="24.1606593396931" lon="121.15010035876493"><ele>1263.5287031267437</ele><time>2025-12-28T00:34:27Z</time><src>Hikingbook</src><extensions><gpxhb:speed>0.614930</gpxhb:speed><gpxhb:course>253.234235</gpxhb:course></extensions></trkpt><trkpt lat="24.160499899410805" lon="121.15004125218302"><ele>1261.4726062732138</ele><time>2025-12-28T00:35:02Z</time><src>Hikingbook</src><extensions><gpxhb:speed>0.486210</gpxhb:speed><gpxhb:course>193.209476</gpxhb:course></extensions></trkpt><trkpt lat="24.160493813588953" lon="121.1500298517688"><ele>1261.8233718167128</ele><time>2025-12-28T00:35:03Z</time><src>Hikingbook</src><extensions><gpxhb:speed>0.940918</gpxhb:speed><gpxhb:course>201.682852</gpxhb:course></extensions></trkpt><trkpt lat="24.160454749286398" lon="121.1498228675224"><ele>1259.874292818057</ele><time>2025-12-28T00:35:34Z</time><src>Hikingbook</src><extensions><gpxhb:speed>0.673683</gpxhb:speed><gpxhb:course>285.075558</gpxhb:course></extensions></trkpt><trkpt lat="24.160410512610373" lon="121.1498252865495"><ele>1260.9573389687782</ele><time>2025-12-28T00:36:28Z</time><src>Hikingbook</src><extensions><gpxhb:speed>0.140464</gpxhb:speed><gpxhb:course>142.654213</gpxhb:course></extensions></trkpt></trkseg><trkseg><trkpt lat="24.160410512610373" lon="121.1498252865495"><ele>1260.9573389687782</ele><time>2025-12-28T00:38:15Z</time><src>Hikingbook</src><extensions><gpxhb:speed>0.140464</gpxhb:speed><gpxhb:course>142.654213</gpxhb:course></extensions></trkpt><trkpt lat="24.16042274764301" lon="121.14974044794072"><ele>1257.9963510761593</ele><time>2025-12-28T00:38:16Z</time><src>Hikingbook</src><extensions><gpxhb:speed>2.970000</gpxhb:speed><gpxhb:course>180.000000</gpxhb:course></extensions></trkpt><trkpt lat="24.160424471111238" lon="121.1499145514471"><ele>1256.2554753509412</ele><time>2025-12-28T00:38:40Z</time><src>Hikingbook</src><extensions><gpxhb:speed>0.540000</gpxhb:speed><gpxhb:course>-1.000000</gpxhb:course></extensions></trkpt><trkpt lat="24.160103674984356" lon="121.15019168190658"><ele>1258.0071694045312</ele><time>2025-12-28T00:39:53Z</time><src>Hikingbook</src><extensions><gpxhb:speed>0.438914</gpxhb:speed><gpxhb:course>126.477807</gpxhb:course></extensions></trkpt><trkpt lat="24.16005049780604" lon="121.15040734453692"><ele>1255.901603354299</ele><time>2025-12-28T00:40:28Z</time><src>Hikingbook</src><extensions><gpxhb:speed>0.541375</gpxhb:speed><gpxhb:course>121.662861</gpxhb:course></extensions></trkpt><trkpt lat="24.15994478713096" lon="121.15042203347659"><ele>1256.2872587695758</ele><time>2025-12-28T00:40:45Z</time><src>Hikingbook</src><extensions><gpxhb:speed>0.492814</gpxhb:speed><gpxhb:course>151.792772</gpxhb:course></extensions></trkpt><trkpt lat="24.15982531006006" lon="121.15058672053534"><ele>1254.6349381413143</ele><time>2025-12-28T00:41:11Z</time><src>Hikingbook</src><extensions><gpxhb:speed>0.772396</gpxhb:speed><gpxhb:course>129.748488</gpxhb:course></extensions></trkpt><trkpt lat="24.15981099353084" lon="121.1506072237214"><ele>1254.5382695198182</ele><time>2025-12-28T00:41:14Z</time><src>Hikingbook</src><extensions><gpxhb:speed>0.702992</gpxhb:speed><gpxhb:course>130.618057</gpxhb:course></extensions></trkpt><trkpt lat="24.159733699511193" lon="121.15067610571396"><ele>1254.5552776724653</ele><time>2025-12-28T00:41:25Z</time><src>Hikingbook</src><extensions><gpxhb:speed>1.249448</gpxhb:speed><gpxhb:course>131.577734</gpxhb:course></extensions></trkpt><trkpt lat="24.159740586093733" lon="121.15083452634121"><ele>1250.9198382740426</ele><time>2025-12-28T00:41:43Z</time><src>Hikingbook</src><extensions><gpxhb:speed>0.605433</gpxhb:speed><gpxhb:course>105.983107</gpxhb:course></extensions></trkpt><trkpt lat="24.159954803646414" lon="121.15130639300622"><ele>1246.2431882013252</ele><time>2025-12-28T00:42:52Z</time><src>Hikingbook</src><extensions><gpxhb:speed>0.879252</gpxhb:speed><gpxhb:course>73.994609</gpxhb:course></extensions></trkpt><trkpt lat="24.159881600917984" lon="121.15156342263602"><ele>1244.88386586472</ele><time>2025-12-28T00:43:21Z</time><src>Hikingbook</src><extensions><gpxhb:speed>0.254415</gpxhb:speed><gpxhb:course>121.607453</gpxhb:course></extensions></trkpt><trkpt lat="24.15979312333686" lon="121.15159195469023"><ele>1239.3394705261496</ele><time>2025-12-28T00:43:37Z</time><src>Hikingbook</src><extensions><gpxhb:speed>0.944954</gpxhb:speed><gpxhb:course>146.345520</gpxhb:course></extensions></trkpt><trkpt lat="24.159757507475025" lon="121.15174106444164"><ele>1240.9290964499253</ele><time>2025-12-28T00:43:53Z</time><src>Hikingbook</src><extensions><gpxhb:speed>0.604886</gpxhb:speed><gpxhb:course>124.910733</gpxhb:course></extensions></trkpt><trkpt lat="24.159595470513406" lon="121.15203701104343"><ele>1237.7584868450551</ele><time>2025-12-28T00:44:32Z</time><src>Hikingbook</src><extensions><gpxhb:speed>0.796936</gpxhb:speed><gpxhb:course>136.549110</gpxhb:course></extensions></trkpt><trkpt lat="24.15939894736192" lon="121.15216821091319"><ele>1237.4900245884376</ele><time>2025-12-28T00:45:02Z</time><src>Hikingbook</src><extensions><gpxhb:speed>0.589951</gpxhb:speed><gpxhb:course>178.862606</gpxhb:course></extensions></trkpt><trkpt lat="24.159181592820257" lon="121.15252919054745"><ele>1237.426147944705</ele><time>2025-12-28T00:45:58Z</time><src>Hikingbook</src><extensions><gpxhb:speed>0.497673</gpxhb:speed><gpxhb:course>165.996708</gpxhb:course></extensions></trkpt><trkpt lat="24.159168123905975" lon="121.15255164262184"><ele>1236.7580496595292</ele><time>2025-12-28T00:46:02Z</time><src>Hikingbook</src><extensions><gpxhb:speed>0.594954</gpxhb:speed><gpxhb:course>113.492032</gpxhb:course></extensions></trkpt><trkpt lat="24.159144815805053" lon="121.15274435913713"><ele>1241.2436924947992</ele><time>2025-12-28T00:46:29Z</time><src>Hikingbook</src><extensions><gpxhb:speed>0.525224</gpxhb:speed><gpxhb:course>78.306630</gpxhb:course></extensions></trkpt><trkpt lat="24.159234891601695" lon="121.15287093053058"><ele>1242.4910058509565</ele><time>2025-12-28T00:46:59Z</time><src>Hikingbook</src><extensions><gpxhb:speed>0.608931</gpxhb:speed><gpxhb:course>60.919320</gpxhb:course></extensions></trkpt><trkpt lat="24.15928124879753" lon="121.15323376587936"><ele>1246.8699815341581</ele><time>2025-12-28T00:48:18Z</time><src>Hikingbook</src><extensions><gpxhb:speed>0.762576</gpxhb:speed><gpxhb:course>94.049108</gpxhb:course></extensions></trkpt><trkpt lat="24.15918468592827" lon="121.15336581211284"><ele>1253.0254360983622</ele><time>2025-12-28T00:48:39Z</time><src>Hikingbook</src><extensions><gpxhb:speed>0.636513</gpxhb:speed><gpxhb:course>133.719062</gpxhb:course></extensions></trkpt></trkseg><trkseg><trkpt lat="24.15918468592827" lon="121.15336581211284"><ele>1253.0254360983622</ele><time>2025-12-28T01:41:18Z</time><src>Hikingbook</src><extensions><gpxhb:speed>0.636513</gpxhb:speed><gpxhb:course>133.719062</gpxhb:course></extensions></trkpt><trkpt lat="24.15876176241474" lon="121.15355410111117"><ele>1214.772580336908</ele><time>2025-12-28T01:41:20Z</time><src>Hikingbook</src><extensions><gpxhb:speed>0.000000</gpxhb:speed><gpxhb:course>286.743766</gpxhb:course></extensions></trkpt></trkseg><trkseg><trkpt lat="24.158466701860632" lon="121.1543700815069"><ele>1261.9876868926387</ele><time>2025-12-28T02:33:13Z</time><src>Hikingbook</src><extensions><gpxhb:speed>0.200000</gpxhb:speed><gpxhb:course>-1.000000</gpxhb:course></extensions></trkpt><trkpt lat="24.158543839751566" lon="121.1542356406083"><ele>1229.8046582772943</ele><time>2025-12-28T02:33:50Z</time><src>Hikingbook</src><extensions><gpxhb:speed>1.909550</gpxhb:speed><gpxhb:course>-1.000000</gpxhb:course></extensions></trkpt><trkpt lat="24.158355560895806" lon="121.15424220744009"><ele>1247.408790795894</ele><time>2025-12-28T02:34:22Z</time><src>Hikingbook</src><extensions><gpxhb:speed>0.439917</gpxhb:speed><gpxhb:course>62.606418</gpxhb:course></extensions></trkpt><trkpt lat="24.15847060286361" lon="121.15439032426382"><ele>1245.3175027749219</ele><time>2025-12-28T02:35:02Z</time><src>Hikingbook</src><extensions><gpxhb:speed>1.651459</gpxhb:speed><gpxhb:course>-1.000000</gpxhb:course></extensions></trkpt><trkpt lat="24.15831263059874" lon="121.15440222567402"><ele>1247.8802511175804</ele><time>2025-12-28T02:35:24Z</time><src>Hikingbook</src><extensions><gpxhb:speed>1.348344</gpxhb:speed><gpxhb:course>179.031490</gpxhb:course></extensions></trkpt><trkpt lat="24.15840271842126" lon="121.15448291853176"><ele>1252.6194512685481</ele><time>2025-12-28T02:35:44Z</time><src>Hikingbook</src><extensions><gpxhb:speed>1.018683</gpxhb:speed><gpxhb:course>-1.000000</gpxhb:course></extensions></trkpt><trkpt lat="24.158353243042047" lon="121.15458794124267"><ele>1253.1346097265462</ele><time>2025-12-28T02:36:03Z</time><src>Hikingbook</src><extensions><gpxhb:speed>0.110981</gpxhb:speed><gpxhb:course>-1.000000</gpxhb:course></extensions></trkpt><trkpt lat="24.15834921712093" lon="121.15439911942313"><ele>1240.1910727790694</ele><time>2025-12-28T02:36:55Z</time><src>Hikingbook</src><extensions><gpxhb:speed>0.427467</gpxhb:speed><gpxhb:course>67.012128</gpxhb:course></extensions></trkpt><trkpt lat="24.158408284359826" lon="121.15450613475176"><ele>1238.4965543702128</ele><time>2025-12-28T02:37:23Z</time><src>Hikingbook</src><extensions><gpxhb:speed>0.766657</gpxhb:speed><gpxhb:course>21.883677</gpxhb:course></extensions></trkpt></trkseg><trkseg><trkpt lat="24.158408284359826" lon="121.15450613475176"><ele>1238.4965543702128</ele><time>2025-12-28T02:39:31Z</time><src>Hikingbook</src><extensions><gpxhb:speed>0.766657</gpxhb:speed><gpxhb:course>21.883677</gpxhb:course></extensions></trkpt></trkseg><trkseg><trkpt lat="24.158408284359826" lon="121.15450613475176"><ele>1238.4965543702128</ele><time>2025-12-28T03:55:11Z</time><src>Hikingbook</src><extensions><gpxhb:speed>0.766657</gpxhb:speed><gpxhb:course>21.883677</gpxhb:course></extensions></trkpt><trkpt lat="24.15800039930977" lon="121.1547473809087"><ele>1226.9757267858506</ele><time>2025-12-28T03:55:13Z</time><src>Hikingbook</src><extensions><gpxhb:speed>0.260000</gpxhb:speed><gpxhb:course>337.500000</gpxhb:course></extensions></trkpt><trkpt lat="24.15815957212107" lon="121.1549202811557"><ele>1218.212243959401</ele><time>2025-12-28T03:56:12Z</time><src>Hikingbook</src><extensions><gpxhb:speed>1.419177</gpxhb:speed><gpxhb:course>97.581247</gpxhb:course></extensions></trkpt><trkpt lat="24.158056479080674" lon="121.15492544533265"><ele>1215.5505114409718</ele><time>2025-12-28T03:56:28Z</time><src>Hikingbook</src><extensions><gpxhb:speed>0.000000</gpxhb:speed><gpxhb:course>156.545644</gpxhb:course></extensions></trkpt><trkpt lat="24.15809031172827" lon="121.15544491414028"><ele>1217.1105576951534</ele><time>2025-12-28T03:58:10Z</time><src>Hikingbook</src><extensions><gpxhb:speed>0.417368</gpxhb:speed><gpxhb:course>114.771643</gpxhb:course></extensions></trkpt><trkpt lat="24.15808237537074" lon="121.15546114752036"><ele>1217.458989734372</ele><time>2025-12-28T03:58:12Z</time><src>Hikingbook</src><extensions><gpxhb:speed>0.683747</gpxhb:speed><gpxhb:course>116.965828</gpxhb:course></extensions></trkpt><trkpt lat="24.15804962792295" lon="121.15563989506599"><ele>1214.1965876301629</ele><time>2025-12-28T03:59:03Z</time><src>Hikingbook</src><extensions><gpxhb:speed>0.730813</gpxhb:speed><gpxhb:course>126.768582</gpxhb:course></extensions></trkpt><trkpt lat="24.157946058435222" lon="121.15577012969239"><ele>1214.9231189974455</ele><time>2025-12-28T03:59:18Z</time><src>Hikingbook</src><extensions><gpxhb:speed>0.497017</gpxhb:speed><gpxhb:course>134.748198</gpxhb:course></extensions></trkpt><trkpt lat="24.157919340148837" lon="121.15601334163009"><ele>1204.6185958260396</ele><time>2025-12-28T03:59:58Z</time><src>Hikingbook</src><extensions><gpxhb:speed>0.932386</gpxhb:speed><gpxhb:course>93.126571</gpxhb:course></extensions></trkpt><trkpt lat="24.15770242366563" lon="121.15618662805143"><ele>1202.2434161156148</ele><time>2025-12-28T04:00:40Z</time><src>Hikingbook</src><extensions><gpxhb:speed>1.506150</gpxhb:speed><gpxhb:course>152.103882</gpxhb:course></extensions></trkpt><trkpt lat="24.15764758225413" lon="121.15632855153108"><ele>1199.418676076779</ele><time>2025-12-28T04:00:59Z</time><src>Hikingbook</src><extensions><gpxhb:speed>0.540567</gpxhb:speed><gpxhb:course>138.730646</gpxhb:course></extensions></trkpt><trkpt lat="24.157640693442087" lon="121.15633412166619"><ele>1199.366545868864</ele><time>2025-12-28T04:01:00Z</time><src>Hikingbook</src><extensions><gpxhb:speed>1.051650</gpxhb:speed><gpxhb:course>140.651349</gpxhb:course></extensions></trkpt><trkpt lat="24.157442174033825" lon="121.15660484081945"><ele>1195.6928417056477</ele><time>2025-12-28T04:02:03Z</time><src>Hikingbook</src><extensions><gpxhb:speed>0.730863</gpxhb:speed><gpxhb:course>137.501843</gpxhb:course></extensions></trkpt><trkpt lat="24.156948688886402" lon="121.15697339432222"><ele>1188.1217767441233</ele><time>2025-12-28T04:03:24Z</time><src>Hikingbook</src><extensions><gpxhb:speed>0.338331</gpxhb:speed><gpxhb:course>133.277707</gpxhb:course></extensions></trkpt><trkpt lat="24.15692936262906" lon="121.15698594101764"><ele>1186.1638969322673</ele><time>2025-12-28T04:03:34Z</time><src>Hikingbook</src><extensions><gpxhb:speed>0.805809</gpxhb:speed><gpxhb:course>122.357033</gpxhb:course></extensions></trkpt><trkpt lat="24.15676937522285" lon="121.15730791235632"><ele>1185.832068048555</ele><time>2025-12-28T04:05:05Z</time><src>Hikingbook</src><extensions><gpxhb:speed>0.986035</gpxhb:speed><gpxhb:course>-1.000000</gpxhb:course></extensions></trkpt><trkpt lat="24.156699188624778" lon="121.15795617619662"><ele>1187.142986545238</ele><time>2025-12-28T04:08:04Z</time><src>Hikingbook</src><extensions><gpxhb:speed>0.441688</gpxhb:speed><gpxhb:course>107.560665</gpxhb:course></extensions></trkpt><trkpt lat="24.156625283423047" lon="121.15799723835012"><ele>1188.6590883805295</ele><time>2025-12-28T04:08:20Z</time><src>Hikingbook</src><extensions><gpxhb:speed>0.630446</gpxhb:speed><gpxhb:course>177.433005</gpxhb:course></extensions></trkpt><trkpt lat="24.15627918926362" lon="121.15842858058777"><ele>1182.3374658584091</ele><time>2025-12-28T04:10:10Z</time><src>Hikingbook</src><extensions><gpxhb:speed>1.181953</gpxhb:speed><gpxhb:course>106.456642</gpxhb:course></extensions></trkpt><trkpt lat="24.15614202524498" lon="121.15884081857483"><ele>1185.1020643631202</ele><time>2025-12-28T04:11:06Z</time><src>Hikingbook</src><extensions><gpxhb:speed>0.838015</gpxhb:speed><gpxhb:course>95.723528</gpxhb:course></extensions></trkpt><trkpt lat="24.156140862495498" lon="121.15884914422291"><ele>1185.2794296479417</ele><time>2025-12-28T04:11:07Z</time><src>Hikingbook</src><extensions><gpxhb:speed>0.570298</gpxhb:speed><gpxhb:course>113.139252</gpxhb:course></extensions></trkpt><trkpt lat="24.155985893942947" lon="121.15909713032474"><ele>1187.979182249719</ele><time>2025-12-28T04:12:33Z</time><src>Hikingbook</src><extensions><gpxhb:speed>0.499326</gpxhb:speed><gpxhb:course>138.537599</gpxhb:course></extensions></trkpt><trkpt lat="24.15584111741109" lon="121.15917221916754"><ele>1183.9694062514113</ele><time>2025-12-28T04:13:11Z</time><src>Hikingbook</src><extensions><gpxhb:speed>0.463384</gpxhb:speed><gpxhb:course>131.626558</gpxhb:course></extensions></trkpt><trkpt lat="24.15579327537644" lon="121.15929956126094"><ele>1183.917607521606</ele><time>2025-12-28T04:13:45Z</time><src>Hikingbook</src><extensions><gpxhb:speed>0.643611</gpxhb:speed><gpxhb:course>134.916286</gpxhb:course></extensions></trkpt><trkpt lat="24.15569361293363" lon="121.15931456671173"><ele>1183.4242552384198</ele><time>2025-12-28T04:14:12Z</time><src>Hikingbook</src><extensions><gpxhb:speed>0.483567</gpxhb:speed><gpxhb:course>203.497722</gpxhb:course></extensions></trkpt><trkpt lat="24.1556339285262" lon="121.15947850602005"><ele>1181.945570487577</ele><time>2025-12-28T04:14:48Z</time><src>Hikingbook</src><extensions><gpxhb:speed>0.575239</gpxhb:speed><gpxhb:course>107.250798</gpxhb:course></extensions></trkpt><trkpt lat="24.15551170017483" lon="121.15955906823235"><ele>1181.814815366278</ele><time>2025-12-28T04:15:12Z</time><src>Hikingbook</src><extensions><gpxhb:speed>0.669947</gpxhb:speed><gpxhb:course>152.925688</gpxhb:course></extensions></trkpt><trkpt lat="24.155503664113787" lon="121.15956312616456"><ele>1181.6130149056435</ele><time>2025-12-28T04:15:13Z</time><src>Hikingbook</src><extensions><gpxhb:speed>0.706252</gpxhb:speed><gpxhb:course>144.982987</gpxhb:course></extensions></trkpt><trkpt lat="24.1554209525661" lon="121.15966996467475"><ele>1179.7954915366536</ele><time>2025-12-28T04:15:48Z</time><src>Hikingbook</src><extensions><gpxhb:speed>0.092592</gpxhb:speed><gpxhb:course>183.174929</gpxhb:course></extensions></trkpt></trkseg><trkseg><trkpt lat="24.1554209525661" lon="121.15966996467475"><ele>1179.7954915366536</ele><time>2025-12-28T04:25:22Z</time><src>Hikingbook</src><extensions><gpxhb:speed>0.092592</gpxhb:speed><gpxhb:course>183.174929</gpxhb:course></extensions></trkpt><trkpt lat="24.155640508185027" lon="121.15940069409764"><ele>1104.338439907791</ele><time>2025-12-28T04:25:23Z</time><src>Hikingbook</src><extensions><gpxhb:speed>2.370000</gpxhb:speed><gpxhb:course>152.226562</gpxhb:course></extensions></trkpt><trkpt lat="24.155285617383704" lon="121.15985502355309"><ele>1175.6437356526976</ele><time>2025-12-28T04:26:16Z</time><src>Hikingbook</src><extensions><gpxhb:speed>1.010248</gpxhb:speed><gpxhb:course>174.565721</gpxhb:course></extensions></trkpt><trkpt lat="24.154958898547672" lon="121.16051640572691"><ele>1179.6334102782264</ele><time>2025-12-28T04:27:29Z</time><src>Hikingbook</src><extensions><gpxhb:speed>0.519983</gpxhb:speed><gpxhb:course>123.376541</gpxhb:course></extensions></trkpt><trkpt lat="24.15494917880766" lon="121.16052498202237"><ele>1178.9932362786224</ele><time>2025-12-28T04:27:31Z</time><src>Hikingbook</src><extensions><gpxhb:speed>1.022549</gpxhb:speed><gpxhb:course>123.995294</gpxhb:course></extensions></trkpt><trkpt lat="24.15482145810508" lon="121.16058521705145"><ele>1178.1466770165014</ele><time>2025-12-28T04:27:53Z</time><src>Hikingbook</src><extensions><gpxhb:speed>0.401729</gpxhb:speed><gpxhb:course>151.398165</gpxhb:course></extensions></trkpt><trkpt lat="24.154730291776346" lon="121.16076314558522"><ele>1178.1880291056063</ele><time>2025-12-28T04:28:38Z</time><src>Hikingbook</src><extensions><gpxhb:speed>0.723217</gpxhb:speed><gpxhb:course>152.434521</gpxhb:course></extensions></trkpt><trkpt lat="24.15451313740001" lon="121.16070789826762"><ele>1172.9387915201737</ele><time>2025-12-28T04:29:02Z</time><src>Hikingbook</src><extensions><gpxhb:speed>0.570297</gpxhb:speed><gpxhb:course>183.815549</gpxhb:course></extensions></trkpt><trkpt lat="24.154129943498166" lon="121.16099882924175"><ele>1164.526147381722</ele><time>2025-12-28T04:30:14Z</time><src>Hikingbook</src><extensions><gpxhb:speed>0.367919</gpxhb:speed><gpxhb:course>144.446190</gpxhb:course></extensions></trkpt><trkpt lat="24.154125618108683" lon="121.16100437839278"><ele>1164.6952683118416</ele><time>2025-12-28T04:30:15Z</time><src>Hikingbook</src><extensions><gpxhb:speed>1.166734</gpxhb:speed><gpxhb:course>148.739031</gpxhb:course></extensions></trkpt><trkpt lat="24.153716312706276" lon="121.16128549109976"><ele>1155.8999857529698</ele><time>2025-12-28T04:31:40Z</time><src>Hikingbook</src><extensions><gpxhb:speed>0.566338</gpxhb:speed><gpxhb:course>-1.000000</gpxhb:course></extensions></trkpt><trkpt lat="24.153445211395628" lon="121.16167977925755"><ele>1160.4795271685605</ele><time>2025-12-28T04:33:27Z</time><src>Hikingbook</src><extensions><gpxhb:speed>1.093258</gpxhb:speed><gpxhb:course>138.065170</gpxhb:course></extensions></trkpt><trkpt lat="24.153437943938517" lon="121.16168875181292"><ele>1160.4869983010906</ele><time>2025-12-28T04:33:28Z</time><src>Hikingbook</src><extensions><gpxhb:speed>0.947197</gpxhb:speed><gpxhb:course>143.642314</gpxhb:course></extensions></trkpt><trkpt lat="24.153313089382358" lon="121.16194591901188"><ele>1165.7444284681208</ele><time>2025-12-28T04:34:19Z</time><src>Hikingbook</src><extensions><gpxhb:speed>0.761484</gpxhb:speed><gpxhb:course>148.053555</gpxhb:course></extensions></trkpt><trkpt lat="24.15337412596632" lon="121.16206199947068"><ele>1166.8447471523782</ele><time>2025-12-28T04:34:47Z</time><src>Hikingbook</src><extensions><gpxhb:speed>0.560609</gpxhb:speed><gpxhb:course>57.081201</gpxhb:course></extensions></trkpt><trkpt lat="24.153353971292045" lon="121.16221630569879"><ele>1169.5168407516564</ele><time>2025-12-28T04:36:12Z</time><src>Hikingbook</src><extensions><gpxhb:speed>0.477004</gpxhb:speed><gpxhb:course>-1.000000</gpxhb:course></extensions></trkpt><trkpt lat="24.15328359797392" lon="121.16214535264712"><ele>1182.3872027764576</ele><time>2025-12-28T04:36:31Z</time><src>Hikingbook</src><extensions><gpxhb:speed>0.000000</gpxhb:speed><gpxhb:course>294.271576</gpxhb:course></extensions></trkpt></trkseg><trkseg><trkpt lat="24.15328359797392" lon="121.16214535264712"><ele>1182.3872027764576</ele><time>2025-12-28T04:42:07Z</time><src>Hikingbook</src><extensions><gpxhb:speed>0.000000</gpxhb:speed><gpxhb:course>294.271576</gpxhb:course></extensions></trkpt><trkpt lat="24.15322065387779" lon="121.16222231664972"><ele>1144.003463292307</ele><time>2025-12-28T04:42:09Z</time><src>Hikingbook</src><extensions><gpxhb:speed>0.000000</gpxhb:speed><gpxhb:course>-1.000000</gpxhb:course></extensions></trkpt><trkpt lat="24.153267512446536" lon="121.16227657579086"><ele>1136.4666505070818</ele><time>2025-12-28T04:42:28Z</time><src>Hikingbook</src><extensions><gpxhb:speed>0.210000</gpxhb:speed><gpxhb:course>-1.000000</gpxhb:course></extensions></trkpt><trkpt lat="24.153082868142203" lon="121.16220430667137"><ele>1141.3953809408893</ele><time>2025-12-28T04:43:08Z</time><src>Hikingbook</src><extensions><gpxhb:speed>2.960000</gpxhb:speed><gpxhb:course>212.695306</gpxhb:course></extensions></trkpt><trkpt lat="24.15302013754253" lon="121.16231730267296"><ele>1176.2688213854276</ele><time>2025-12-28T04:43:26Z</time><src>Hikingbook</src><extensions><gpxhb:speed>2.401244</gpxhb:speed><gpxhb:course>-1.000000</gpxhb:course></extensions></trkpt><trkpt lat="24.153085667276265" lon="121.16251288278733"><ele>1174.409554027283</ele><time>2025-12-28T04:44:37Z</time><src>Hikingbook</src><extensions><gpxhb:speed>0.845683</gpxhb:speed><gpxhb:course>-1.000000</gpxhb:course></extensions></trkpt><trkpt lat="24.15299626192219" lon="121.16240076010385"><ele>1180.4700152907858</ele><time>2025-12-28T04:45:26Z</time><src>Hikingbook</src><extensions><gpxhb:speed>0.113333</gpxhb:speed><gpxhb:course>-1.000000</gpxhb:course></extensions></trkpt><trkpt lat="24.152926128003138" lon="121.16240532963043"><ele>1183.6702837107052</ele><time>2025-12-28T04:46:01Z</time><src>Hikingbook</src><extensions><gpxhb:speed>0.734527</gpxhb:speed><gpxhb:course>223.931255</gpxhb:course></extensions></trkpt><trkpt lat="24.1530304774467" lon="121.16250120221807"><ele>1177.6295591594132</ele><time>2025-12-28T04:46:45Z</time><src>Hikingbook</src><extensions><gpxhb:speed>0.880740</gpxhb:speed><gpxhb:course>45.568645</gpxhb:course></extensions></trkpt><trkpt lat="24.15299128676571" lon="121.16243622312743"><ele>1181.833037793765</ele><time>2025-12-28T04:47:01Z</time><src>Hikingbook</src><extensions><gpxhb:speed>1.326044</gpxhb:speed><gpxhb:course>267.592711</gpxhb:course></extensions></trkpt><trkpt lat="24.15297544757586" lon="121.16251586763664"><ele>1176.0906462049581</ele><time>2025-12-28T04:47:17Z</time><src>Hikingbook</src><extensions><gpxhb:speed>0.349663</gpxhb:speed><gpxhb:course>-1.000000</gpxhb:course></extensions></trkpt><trkpt lat="24.152943484808883" lon="121.16243264550124"><ele>1177.6957966450825</ele><time>2025-12-28T04:47:50Z</time><src>Hikingbook</src><extensions><gpxhb:speed>0.112869</gpxhb:speed><gpxhb:course>325.102290</gpxhb:course></extensions></trkpt><trkpt lat="24.15295286301203" lon="121.16249253597333"><ele>1178.5175071156098</ele><time>2025-12-28T04:48:06Z</time><src>Hikingbook</src><extensions><gpxhb:speed>0.122804</gpxhb:speed><gpxhb:course>-1.000000</gpxhb:course></extensions></trkpt><trkpt lat="24.152837490082963" lon="121.16245539808419"><ele>1172.7666269451322</ele><time>2025-12-28T04:49:22Z</time><src>Hikingbook</src><extensions><gpxhb:speed>6.120522</gpxhb:speed><gpxhb:course>-1.000000</gpxhb:course></extensions></trkpt><trkpt lat="24.152684512063477" lon="121.16267666086884"><ele>1175.7873869491414</ele><time>2025-12-28T04:51:50Z</time><src>Hikingbook</src><extensions><gpxhb:speed>0.000000</gpxhb:speed><gpxhb:course>-1.000000</gpxhb:course></extensions></trkpt><trkpt lat="24.15281834483409" lon="121.16282115263255"><ele>1191.7000909903104</ele><time>2025-12-28T04:52:08Z</time><src>Hikingbook</src><extensions><gpxhb:speed>0.118382</gpxhb:speed><gpxhb:course>-1.000000</gpxhb:course></extensions></trkpt><trkpt lat="24.152801809901842" lon="121.16274474723726"><ele>1166.0809308281807</ele><time>2025-12-28T04:52:24Z</time><src>Hikingbook</src><extensions><gpxhb:speed>0.000000</gpxhb:speed><gpxhb:course>-1.000000</gpxhb:course></extensions></trkpt><trkpt lat="24.152725322203548" lon="121.16278930069473"><ele>1183.7842398365087</ele><time>2025-12-28T04:52:40Z</time><src>Hikingbook</src><extensions><gpxhb:speed>0.084645</gpxhb:speed><gpxhb:course>-1.000000</gpxhb:course></extensions></trkpt><trkpt lat="24.152756960364094" lon="121.16272549032449"><ele>1170.7915585667654</ele><time>2025-12-28T04:52:56Z</time><src>Hikingbook</src><extensions><gpxhb:speed>0.000000</gpxhb:speed><gpxhb:course>-1.000000</gpxhb:course></extensions></trkpt><trkpt lat="24.152673239179045" lon="121.16267136208022"><ele>1171.150113044821</ele><time>2025-12-28T04:53:28Z</time><src>Hikingbook</src><extensions><gpxhb:speed>0.277835</gpxhb:speed><gpxhb:course>256.868240</gpxhb:course></extensions></trkpt><trkpt lat="24.15281263791736" lon="121.16278882204737"><ele>1173.9328492772058</ele><time>2025-12-28T04:53:48Z</time><src>Hikingbook</src><extensions><gpxhb:speed>0.000000</gpxhb:speed><gpxhb:course>36.158153</gpxhb:course></extensions></trkpt><trkpt lat="24.152690263256297" lon="121.16289444274585"><ele>1164.999091616322</ele><time>2025-12-28T04:54:38Z</time><src>Hikingbook</src><extensions><gpxhb:speed>4.293744</gpxhb:speed><gpxhb:course>-1.000000</gpxhb:course></extensions></trkpt><trkpt lat="24.15268376108411" lon="121.16291280056845"><ele>1169.59052647353</ele><time>2025-12-28T04:54:39Z</time><src>Hikingbook</src><extensions><gpxhb:speed>1.742474</gpxhb:speed><gpxhb:course>143.048315</gpxhb:course></extensions></trkpt><trkpt lat="24.1526532090407" lon="121.16285686456492"><ele>1181.0238197054375</ele><time>2025-12-28T04:55:01Z</time><src>Hikingbook</src><extensions><gpxhb:speed>0.337176</gpxhb:speed><gpxhb:course>163.715248</gpxhb:course></extensions></trkpt><trkpt lat="24.152704442549172" lon="121.1629091034369"><ele>1177.6007980215957</ele><time>2025-12-28T04:55:19Z</time><src>Hikingbook</src><extensions><gpxhb:speed>0.000000</gpxhb:speed><gpxhb:course>201.785230</gpxhb:course></extensions></trkpt></trkseg><trkseg><trkpt lat="24.152704442549172" lon="121.1629091034369"><ele>1177.6007980215957</ele><time>2025-12-28T05:01:25Z</time><src>Hikingbook</src><extensions><gpxhb:speed>0.000000</gpxhb:speed><gpxhb:course>201.785230</gpxhb:course></extensions></trkpt><trkpt lat="24.152497327604834" lon="121.16285680025116"><ele>1156.8419487611463</ele><time>2025-12-28T05:01:27Z</time><src>Hikingbook</src><extensions><gpxhb:speed>0.000000</gpxhb:speed><gpxhb:course>-1.000000</gpxhb:course></extensions></trkpt></trkseg><trkseg><trkpt lat="24.152497327604834" lon="121.16285680025116"><ele>1156.8419487611463</ele><time>2025-12-28T05:36:42Z</time><src>Hikingbook</src><extensions><gpxhb:speed>0.000000</gpxhb:speed><gpxhb:course>-1.000000</gpxhb:course></extensions></trkpt><trkpt lat="24.15232599413203" lon="121.16347502316665"><ele>1188.2281402813849</ele><time>2025-12-28T05:36:44Z</time><src>Hikingbook</src><extensions><gpxhb:speed>0.720000</gpxhb:speed><gpxhb:course>129.726562</gpxhb:course></extensions></trkpt><trkpt lat="24.152574679892496" lon="121.16328671314767"><ele>1172.0593213609836</ele><time>2025-12-28T05:37:10Z</time><src>Hikingbook</src><extensions><gpxhb:speed>0.225716</gpxhb:speed><gpxhb:course>-1.000000</gpxhb:course></extensions></trkpt><trkpt lat="24.152557040204915" lon="121.16334128492632"><ele>1180.2192311661197</ele><time>2025-12-28T05:37:37Z</time><src>Hikingbook</src><extensions><gpxhb:speed>0.119225</gpxhb:speed><gpxhb:course>-1.000000</gpxhb:course></extensions></trkpt><trkpt lat="24.152455205578377" lon="121.1634297984932"><ele>1183.2239475014917</ele><time>2025-12-28T05:38:11Z</time><src>Hikingbook</src><extensions><gpxhb:speed>0.000000</gpxhb:speed><gpxhb:course>-1.000000</gpxhb:course></extensions></trkpt><trkpt lat="24.152446861790867" lon="121.1635315167225"><ele>1175.8038609571045</ele><time>2025-12-28T05:38:43Z</time><src>Hikingbook</src><extensions><gpxhb:speed>0.254561</gpxhb:speed><gpxhb:course>-1.000000</gpxhb:course></extensions></trkpt><trkpt lat="24.15248212467031" lon="121.16347802602421"><ele>1176.3249616517821</ele><time>2025-12-28T05:38:58Z</time><src>Hikingbook</src><extensions><gpxhb:speed>0.215046</gpxhb:speed><gpxhb:course>-1.000000</gpxhb:course></extensions></trkpt><trkpt lat="24.152293606897853" lon="121.16345716159486"><ele>1179.0501616976037</ele><time>2025-12-28T05:40:09Z</time><src>Hikingbook</src><extensions><gpxhb:speed>0.000000</gpxhb:speed><gpxhb:course>-1.000000</gpxhb:course></extensions></trkpt><trkpt lat="24.15250061143715" lon="121.1633875766071"><ele>1179.089780119949</ele><time>2025-12-28T05:41:18Z</time><src>Hikingbook</src><extensions><gpxhb:speed>0.000000</gpxhb:speed><gpxhb:course>313.229546</gpxhb:course></extensions></trkpt><trkpt lat="24.15250387899267" lon="121.16351454386218"><ele>1177.6032282626293</ele><time>2025-12-28T05:41:34Z</time><src>Hikingbook</src><extensions><gpxhb:speed>0.224747</gpxhb:speed><gpxhb:course>318.874770</gpxhb:course></extensions></trkpt><trkpt lat="24.15249524125711" lon="121.16338078531716"><ele>1177.3018952683094</ele><time>2025-12-28T05:42:02Z</time><src>Hikingbook</src><extensions><gpxhb:speed>0.740529</gpxhb:speed><gpxhb:course>286.537542</gpxhb:course></extensions></trkpt><trkpt lat="24.152460328946475" lon="121.16365554889377"><ele>1167.3582919846897</ele><time>2025-12-28T05:42:44Z</time><src>Hikingbook</src><extensions><gpxhb:speed>0.794319</gpxhb:speed><gpxhb:course>86.383408</gpxhb:course></extensions></trkpt><trkpt lat="24.152583772365574" lon="121.16345438668637"><ele>1158.5368449149287</ele><time>2025-12-28T05:43:43Z</time><src>Hikingbook</src><extensions><gpxhb:speed>0.107009</gpxhb:speed><gpxhb:course>-1.000000</gpxhb:course></extensions></trkpt><trkpt lat="24.15263046210596" lon="121.16348584505202"><ele>1171.6182855699324</ele><time>2025-12-28T05:44:18Z</time><src>Hikingbook</src><extensions><gpxhb:speed>0.173626</gpxhb:speed><gpxhb:course>-1.000000</gpxhb:course></extensions></trkpt><trkpt lat="24.152609611294096" lon="121.16359502883387"><ele>1174.712383169479</ele><time>2025-12-28T05:44:34Z</time><src>Hikingbook</src><extensions><gpxhb:speed>1.452846</gpxhb:speed><gpxhb:course>104.084843</gpxhb:course></extensions></trkpt><trkpt lat="24.15238964174445" lon="121.16377301144703"><ele>1172.9460540205664</ele><time>2025-12-28T05:45:20Z</time><src>Hikingbook</src><extensions><gpxhb:speed>0.000000</gpxhb:speed><gpxhb:course>-1.000000</gpxhb:course></extensions></trkpt><trkpt lat="24.152425478522503" lon="121.1638678608632"><ele>1175.197888073666</ele><time>2025-12-28T05:45:36Z</time><src>Hikingbook</src><extensions><gpxhb:speed>0.000000</gpxhb:speed><gpxhb:course>-1.000000</gpxhb:course></extensions></trkpt><trkpt lat="24.152593165314155" lon="121.16374183545298"><ele>1176.9107362611942</ele><time>2025-12-28T05:45:52Z</time><src>Hikingbook</src><extensions><gpxhb:speed>0.000000</gpxhb:speed><gpxhb:course>-1.000000</gpxhb:course></extensions></trkpt></trkseg><trkseg><trkpt lat="24.152332606056714" lon="121.16393150539491"><ele>1176.112776360981</ele><time>2025-12-28T05:52:47Z</time><src>Hikingbook</src><extensions><gpxhb:speed>0.000000</gpxhb:speed><gpxhb:course>-1.000000</gpxhb:course></extensions></trkpt><trkpt lat="24.152243183843154" lon="121.16367643045996"><ele>1181.48009438335</ele><time>2025-12-28T05:53:16Z</time><src>Hikingbook</src><extensions><gpxhb:speed>0.602050</gpxhb:speed><gpxhb:course>47.130512</gpxhb:course></extensions></trkpt><trkpt lat="24.152451326267027" lon="121.16377105978557"><ele>1175.339316094991</ele><time>2025-12-28T05:53:32Z</time><src>Hikingbook</src><extensions><gpxhb:speed>0.124487</gpxhb:speed><gpxhb:course>-1.000000</gpxhb:course></extensions></trkpt><trkpt lat="24.15207142428823" lon="121.16406289227157"><ele>1177.0551156575134</ele><time>2025-12-28T05:54:39Z</time><src>Hikingbook</src><extensions><gpxhb:speed>0.666502</gpxhb:speed><gpxhb:course>-1.000000</gpxhb:course></extensions></trkpt><trkpt lat="24.15203986821601" lon="121.16408300774962"><ele>1175.91886385967</ele><time>2025-12-28T05:54:40Z</time><src>Hikingbook</src><extensions><gpxhb:speed>0.526109</gpxhb:speed><gpxhb:course>-1.000000</gpxhb:course></extensions></trkpt><trkpt lat="24.152128956813616" lon="121.16395756891993"><ele>1173.0705175119463</ele><time>2025-12-28T05:55:54Z</time><src>Hikingbook</src><extensions><gpxhb:speed>1.332453</gpxhb:speed><gpxhb:course>315.748568</gpxhb:course></extensions></trkpt><trkpt lat="24.152082204420203" lon="121.16398701857794"><ele>1141.0648632614339</ele><time>2025-12-28T05:56:53Z</time><src>Hikingbook</src><extensions><gpxhb:speed>0.000000</gpxhb:speed><gpxhb:course>-1.000000</gpxhb:course></extensions></trkpt><trkpt lat="24.152369998524737" lon="121.16407993125476"><ele>1172.3693637466258</ele><time>2025-12-28T05:57:12Z</time><src>Hikingbook</src><extensions><gpxhb:speed>0.000000</gpxhb:speed><gpxhb:course>-1.000000</gpxhb:course></extensions></trkpt></trkseg><trkseg><trkpt lat="24.152369998524737" lon="121.16407993125476"><ele>1172.3693637466258</ele><time>2025-12-28T06:03:40Z</time><src>Hikingbook</src><extensions><gpxhb:speed>0.000000</gpxhb:speed><gpxhb:course>-1.000000</gpxhb:course></extensions></trkpt><trkpt lat="24.152350935197916" lon="121.16398975364964"><ele>1173.645329769769</ele><time>2025-12-28T06:03:46Z</time><src>Hikingbook</src><extensions><gpxhb:speed>0.330000</gpxhb:speed><gpxhb:course>-1.000000</gpxhb:course></extensions></trkpt><trkpt lat="24.152384002404343" lon="121.1640287637516"><ele>1129.8222453051994</ele><time>2025-12-28T06:04:02Z</time><src>Hikingbook</src><extensions><gpxhb:speed>0.000000</gpxhb:speed><gpxhb:course>-1.000000</gpxhb:course></extensions></trkpt><trkpt lat="24.151825581520278" lon="121.16425455394773"><ele>1121.7516051017192</ele><time>2025-12-28T06:05:52Z</time><src>Hikingbook</src><extensions><gpxhb:speed>0.770000</gpxhb:speed><gpxhb:course>188.789062</gpxhb:course></extensions></trkpt><trkpt lat="24.152258462969936" lon="121.16419867918158"><ele>1115.6568907983897</ele><time>2025-12-28T06:06:08Z</time><src>Hikingbook</src><extensions><gpxhb:speed>0.000000</gpxhb:speed><gpxhb:course>323.470802</gpxhb:course></extensions></trkpt><trkpt lat="24.152233857140494" lon="121.1642686323929"><ele>1145.6347228768602</ele><time>2025-12-28T06:06:24Z</time><src>Hikingbook</src><extensions><gpxhb:speed>0.000000</gpxhb:speed><gpxhb:course>-1.000000</gpxhb:course></extensions></trkpt><trkpt lat="24.152138116748056" lon="121.16424606587374"><ele>1157.9369817878478</ele><time>2025-12-28T06:07:09Z</time><src>Hikingbook</src><extensions><gpxhb:speed>0.379395</gpxhb:speed><gpxhb:course>251.697165</gpxhb:course></extensions></trkpt><trkpt lat="24.1520662824281" lon="121.16438149249178"><ele>1165.6216108451533</ele><time>2025-12-28T06:08:08Z</time><src>Hikingbook</src><extensions><gpxhb:speed>1.369127</gpxhb:speed><gpxhb:course>-1.000000</gpxhb:course></extensions></trkpt><trkpt lat="24.15201596674159" lon="121.16436858329466"><ele>1158.3497458638558</ele><time>2025-12-28T06:08:29Z</time><src>Hikingbook</src><extensions><gpxhb:speed>0.041372</gpxhb:speed><gpxhb:course>154.118752</gpxhb:course></extensions></trkpt><trkpt lat="24.152124884557246" lon="121.16459173728764"><ele>1149.458106187974</ele><time>2025-12-28T06:09:54Z</time><src>Hikingbook</src><extensions><gpxhb:speed>0.000000</gpxhb:speed><gpxhb:course>-1.000000</gpxhb:course></extensions></trkpt><trkpt lat="24.15198675433994" lon="121.1646291560299"><ele>1159.6271064774492</ele><time>2025-12-28T06:10:22Z</time><src>Hikingbook</src><extensions><gpxhb:speed>0.173957</gpxhb:speed><gpxhb:course>148.610784</gpxhb:course></extensions></trkpt><trkpt lat="24.152100041785374" lon="121.1646151808193"><ele>1145.6631417563979</ele><time>2025-12-28T06:10:39Z</time><src>Hikingbook</src><extensions><gpxhb:speed>0.299875</gpxhb:speed><gpxhb:course>8.365277</gpxhb:course></extensions></trkpt></trkseg><trkseg><trkpt lat="24.152100041785374" lon="121.1646151808193"><ele>1145.6631417563979</ele><time>2025-12-28T06:14:07Z</time><src>Hikingbook</src><extensions><gpxhb:speed>0.299875</gpxhb:speed><gpxhb:course>8.365277</gpxhb:course></extensions></trkpt><trkpt lat="24.15200065836961" lon="121.1646822811701"><ele>1147.140210446956</ele><time>2025-12-28T06:14:09Z</time><src>Hikingbook</src><extensions><gpxhb:speed>1.461689</gpxhb:speed><gpxhb:course>2.682145</gpxhb:course></extensions></trkpt><trkpt lat="24.152143058516113" lon="121.16487246948829"><ele>1143.298973318537</ele><time>2025-12-28T06:14:35Z</time><src>Hikingbook</src><extensions><gpxhb:speed>0.946291</gpxhb:speed><gpxhb:course>-1.000000</gpxhb:course></extensions></trkpt><trkpt lat="24.15199396459119" lon="121.16495379861306"><ele>1145.7542390096776</ele><time>2025-12-28T06:16:19Z</time><src>Hikingbook</src><extensions><gpxhb:speed>0.100070</gpxhb:speed><gpxhb:course>-1.000000</gpxhb:course></extensions></trkpt><trkpt lat="24.152053438793132" lon="121.16499732556633"><ele>1142.1809138166227</ele><time>2025-12-28T06:16:37Z</time><src>Hikingbook</src><extensions><gpxhb:speed>0.465972</gpxhb:speed><gpxhb:course>-1.000000</gpxhb:course></extensions></trkpt><trkpt lat="24.15200790548363" lon="121.16490904928652"><ele>1113.8302317702198</ele><time>2025-12-28T06:16:53Z</time><src>Hikingbook</src><extensions><gpxhb:speed>2.200000</gpxhb:speed><gpxhb:course>135.703131</gpxhb:course></extensions></trkpt><trkpt lat="24.151946266630013" lon="121.16515397478489"><ele>1128.9053584707062</ele><time>2025-12-28T06:18:09Z</time><src>Hikingbook</src><extensions><gpxhb:speed>0.080398</gpxhb:speed><gpxhb:course>-1.000000</gpxhb:course></extensions></trkpt><trkpt lat="24.15199102740364" lon="121.16504384579733"><ele>1146.299564745515</ele><time>2025-12-28T06:18:40Z</time><src>Hikingbook</src><extensions><gpxhb:speed>0.000000</gpxhb:speed><gpxhb:course>-1.000000</gpxhb:course></extensions></trkpt><trkpt lat="24.15200448778757" lon="121.16509895800023"><ele>1138.487423272459</ele><time>2025-12-28T06:19:53Z</time><src>Hikingbook</src><extensions><gpxhb:speed>0.936567</gpxhb:speed><gpxhb:course>-1.000000</gpxhb:course></extensions></trkpt></trkseg><trkseg><trkpt lat="24.15200448778757" lon="121.16509895800023"><ele>1138.487423272459</ele><time>2025-12-28T06:44:58Z</time><src>Hikingbook</src><extensions><gpxhb:speed>0.936567</gpxhb:speed><gpxhb:course>-1.000000</gpxhb:course></extensions></trkpt><trkpt lat="24.151998685894668" lon="121.16532214562153"><ele>1128.8996960430202</ele><time>2025-12-28T06:45:00Z</time><src>Hikingbook</src><extensions><gpxhb:speed>0.780000</gpxhb:speed><gpxhb:course>93.515625</gpxhb:course></extensions></trkpt><trkpt lat="24.15193109084895" lon="121.16512606807072"><ele>1118.5796268032036</ele><time>2025-12-28T06:45:16Z</time><src>Hikingbook</src><extensions><gpxhb:speed>0.590000</gpxhb:speed><gpxhb:course>268.593748</gpxhb:course></extensions></trkpt><trkpt lat="24.1519477962872" lon="121.1653184444876"><ele>1128.049775504982</ele><time>2025-12-28T06:45:36Z</time><src>Hikingbook</src><extensions><gpxhb:speed>0.467567</gpxhb:speed><gpxhb:course>-1.000000</gpxhb:course></extensions></trkpt><trkpt lat="24.15184415187449" lon="121.1653927790439"><ele>1118.8527832769405</ele><time>2025-12-28T06:46:22Z</time><src>Hikingbook</src><extensions><gpxhb:speed>0.031026</gpxhb:speed><gpxhb:course>-1.000000</gpxhb:course></extensions></trkpt><trkpt lat="24.151862628641467" lon="121.16535285512607"><ele>1116.2137888538302</ele><time>2025-12-28T06:46:47Z</time><src>Hikingbook</src><extensions><gpxhb:speed>0.000000</gpxhb:speed><gpxhb:course>-1.000000</gpxhb:course></extensions></trkpt><trkpt lat="24.15180060462579" lon="121.16550215996449"><ele>1114.489213479259</ele><time>2025-12-28T06:47:26Z</time><src>Hikingbook</src><extensions><gpxhb:speed>0.593269</gpxhb:speed><gpxhb:course>115.430872</gpxhb:course></extensions></trkpt><trkpt lat="24.151860972468846" lon="121.16565031748985"><ele>1112.018074542815</ele><time>2025-12-28T06:48:51Z</time><src>Hikingbook</src><extensions><gpxhb:speed>0.015349</gpxhb:speed><gpxhb:course>90.227441</gpxhb:course></extensions></trkpt><trkpt lat="24.15186432168009" lon="121.16567061294884"><ele>1112.3187083357802</ele><time>2025-12-28T06:49:16Z</time><src>Hikingbook</src><extensions><gpxhb:speed>0.000000</gpxhb:speed><gpxhb:course>90.227447</gpxhb:course></extensions></trkpt><trkpt lat="24.151894365890758" lon="121.16564379364951"><ele>1113.7373451798326</ele><time>2025-12-28T06:49:36Z</time><src>Hikingbook</src><extensions><gpxhb:speed>0.037034</gpxhb:speed><gpxhb:course>90.227408</gpxhb:course></extensions></trkpt><trkpt lat="24.151945369760874" lon="121.16575217465535"><ele>1112.9701254469169</ele><time>2025-12-28T06:50:08Z</time><src>Hikingbook</src><extensions><gpxhb:speed>0.412850</gpxhb:speed><gpxhb:course>76.510551</gpxhb:course></extensions></trkpt><trkpt lat="24.151807937397884" lon="121.16634978906045"><ele>1107.639450957557</ele><time>2025-12-28T06:51:37Z</time><src>Hikingbook</src><extensions><gpxhb:speed>0.972548</gpxhb:speed><gpxhb:course>103.960214</gpxhb:course></extensions></trkpt><trkpt lat="24.151596756145125" lon="121.16662383870622"><ele>1105.3735579647016</ele><time>2025-12-28T06:52:26Z</time><src>Hikingbook</src><extensions><gpxhb:speed>0.771661</gpxhb:speed><gpxhb:course>130.916322</gpxhb:course></extensions></trkpt><trkpt lat="24.1515915134815" lon="121.16663365185224"><ele>1105.4482207740139</ele><time>2025-12-28T06:52:27Z</time><src>Hikingbook</src><extensions><gpxhb:speed>0.803363</gpxhb:speed><gpxhb:course>115.574706</gpxhb:course></extensions></trkpt><trkpt lat="24.151419193882834" lon="121.16695439812045"><ele>1107.3825877720585</ele><time>2025-12-28T06:53:19Z</time><src>Hikingbook</src><extensions><gpxhb:speed>0.671729</gpxhb:speed><gpxhb:course>134.622665</gpxhb:course></extensions></trkpt><trkpt lat="24.151334033507208" lon="121.16682011872427"><ele>1102.7434447670985</ele><time>2025-12-28T06:56:30Z</time><src>Hikingbook</src><extensions><gpxhb:speed>0.340412</gpxhb:speed><gpxhb:course>242.311907</gpxhb:course></extensions></trkpt><trkpt lat="24.150940286004726" lon="121.16734237004843"><ele>1096.0541966991073</ele><time>2025-12-28T06:57:46Z</time><src>Hikingbook</src><extensions><gpxhb:speed>1.169915</gpxhb:speed><gpxhb:course>126.475856</gpxhb:course></extensions></trkpt><trkpt lat="24.15093381956231" lon="121.1673512050402"><ele>1095.9266060740624</ele><time>2025-12-28T06:57:47Z</time><src>Hikingbook</src><extensions><gpxhb:speed>1.144341</gpxhb:speed><gpxhb:course>125.114471</gpxhb:course></extensions></trkpt><trkpt lat="24.15070754323278" lon="121.16765937985353"><ele>1094.1395349070006</ele><time>2025-12-28T06:59:42Z</time><src>Hikingbook</src><extensions><gpxhb:speed>0.168781</gpxhb:speed><gpxhb:course>124.033871</gpxhb:course></extensions></trkpt></trkseg><trkseg><trkpt lat="24.15070754323278" lon="121.16765937985353"><ele>1094.1395349070006</ele><time>2025-12-28T07:02:07Z</time><src>Hikingbook</src><extensions><gpxhb:speed>0.168781</gpxhb:speed><gpxhb:course>124.033871</gpxhb:course></extensions></trkpt><trkpt lat="24.15007565951926" lon="121.1683889674926"><ele>1079.6636949988217</ele><time>2025-12-28T07:03:36Z</time><src>Hikingbook</src><extensions><gpxhb:speed>0.924026</gpxhb:speed><gpxhb:course>143.724821</gpxhb:course></extensions></trkpt><trkpt lat="24.150070245179126" lon="121.16839607891406"><ele>1079.6801087899496</ele><time>2025-12-28T07:03:37Z</time><src>Hikingbook</src><extensions><gpxhb:speed>0.819442</gpxhb:speed><gpxhb:course>138.255177</gpxhb:course></extensions></trkpt><trkpt lat="24.150027360676088" lon="121.16842959150412"><ele>1077.8030057201477</ele><time>2025-12-28T07:03:56Z</time><src>Hikingbook</src><extensions><gpxhb:speed>0.077432</gpxhb:speed><gpxhb:course>160.986133</gpxhb:course></extensions></trkpt></trkseg></trk></gpx>