<?xml version="1.0" encoding="UTF-8"?>
<gpx version="1.1" creator="Hikingbook" xmlns:xsi="http://www.w3.org/2001/XMLSchema-instance" xmlns="http://www.topografix.com/GPX/1/1" xsi:schemaLocation="http://www.topografix.com/GPX/1/1 https://www.topografix.com/GPX/1/1/gpx.xsd https://hikingbook.net/xmlschemas/1/5 https:/hikingbook.net/xmlschemas/1/5/gpxhb.xsd" xmlns:gpxhb="https://hikingbook.net/xmlschemas/1/5"><metadata><name>🪢新峰瀑布-（2026-04-06）-「溪降」［🇹🇼宜蘭-礁溪］</name><desc>&#xA;W-waterfall (瀑布）&#xA;S-slideway (滑瀑）&#xA;L-left(左岸）&#xA;TL-TopLeft(高左岸）&#xA;BL-BottomLeft(低左岸）&#xA;R-right(右岸）&#xA;TR-TopRight(高右岸）&#xA;BR-BottomRight(低右岸）&#xA;C-center(中岸）&#xA;&#xA;WT-waterfalltop(瀑頂）&#xA;WB-waterfallbottom(瀑底）&#xA;M-middle(中繼點）&#xA;D-deep(深潭）&#xA;G-guide (滑降）&#xA;B-bolt(人工錨點）&#xA;N-nature(天然錨點）&#xA;PB-personal bolt (人力錨點）&#xA;DB-damaged bolt(損壞錨點）&#xA;RB-removal bolt(可拆錨點）&#xA;TR-Traverse(橫移）&#xA;&#xA;Ex: &#xA;W1(M1-L)-B2-18m，D-5m&#xA;「瀑布1（中繼點1-左岸）-bolt有兩顆-使用繩長18米，深潭5公尺長」&#xA;&#xA;成員（8）：&#xA;jimce、&#xA;潾兒、&#xA;秘密客、&#xA;錦榮、&#xA;蕭和、&#xA;小囍、&#xA;小林、&#xA;Jim&#xA;&#xA;裝備：&#xA;&#xA;繩(4)- &#xA;PC(8.0)*80、&#xA;CE4Y(9.0)*70、&#xA;Humna（8.0）*30&#xA;&#xA;急救包*1-&#xA;&#xA;&#xA;電鑽*1&#xA;Bolt（M8)*8&#xA;可移除bolt(m8)*3&#xA;&#xA;無線電-&#xA;頻率：&#xA;   長距-144.52000&#xA;   短距-457.51250&#xA;&#xA;啞音：🈚️&#xA;&#xA;攝影器材：&#xA;1.)DJI mini 5 pro&#xA;</desc><author><name>Hikingbook</name><link href="https://hikingbook.net"><text>Hikingbook</text></link></author><link href="https://hikingbook.net/hikes/2026-4-6-%E6%99%A8%E9%96%93%E9%87%8D%E8%A3%9D%E7%99%BB%E5%B1%B1-%E9%B5%B2%E5%AD%90%E5%B1%B1-d0639ca2"><text>Hikingbook</text></link><time>2026-07-02T21:45:42.23761369+08:00</time><keywords>Hikingbook,EzLife ,Jimce,Taiwan,Canyoning ,溪降,礁溪,宜蘭,新峰瀑布</keywords><extensions><gpxhb:postscript>建議去的隊伍帶上 五金切割…
中繼站太多打壞的bolt需要清理

盡量可以維持中繼點乾淨</gpxhb:postscript><gpxhb:loadweight>4.6</gpxhb:loadweight><gpxhb:fitnesslevel>1</gpxhb:fitnesslevel><gpxhb:activitytype>backpacking</gpxhb:activitytype><gpxhb:trailid>11bf7574-87fb-42e2-a828-e6fa13d994ef</gpxhb:trailid><gpxhb:trackimageurl>https://assets.hikingbook.net/users/60w3wu1it91y2jmwdxciziq/cw91enehhtdoumlayfr8csq/343928b6-f789-4a12-ad27-281d8c07cbf3.jpg</gpxhb:trackimageurl><gpxhb:device>Apple iPhone 17 Pro</gpxhb:device><gpxhb:source>Hikingbook</gpxhb:source></extensions></metadata><wpt lat="24.875129883935866" lon="121.79022154697344"><ele>322</ele><time>2026-04-06T02:28:03Z</time><name>00 Start</name><cmt>2026-04-06T10:28:03+08:00</cmt><desc>00 Start</desc><src>Hikingbook</src><link href="https://hikingbook.net/hikes/cW91EneHhTDOUmlaYFr8CsQ"><text>Hikingbook</text></link><extensions><gpxhb:weather>Clear</gpxhb:weather><gpxhb:speed>0.256522</gpxhb:speed><gpxhb:course>-1.000000</gpxhb:course></extensions></wpt><wpt lat="24.87270936715285" lon="121.79400709332198"><ele>260</ele><time>2026-04-06T03:01:29Z</time><name>01 步道橋樑</name><cmt>2026-04-06T11:01:29+08:00</cmt><desc>01 步道橋樑</desc><src>Hikingbook</src><link href="https://hikingbook.net/hikes/cW91EneHhTDOUmlaYFr8CsQ"><text>Hikingbook</text></link><extensions><gpxhb:weather>Clear</gpxhb:weather><gpxhb:speed>0.000000</gpxhb:speed><gpxhb:course>-1.000000</gpxhb:course></extensions></wpt><wpt lat="24.86966181348224" lon="121.79650262848678"><ele>223</ele><time>2026-04-06T03:45:29Z</time><name>02 W1(WT-L-N-3m/WT-R-B2-8m)</name><cmt>2026-04-06T11:45:29+08:00</cmt><desc>02 W1(WT-L-N-3m/WT-R-B2-8m)</desc><src>Hikingbook</src><link href="https://hikingbook.net/hikes/cW91EneHhTDOUmlaYFr8CsQ"><text>Hikingbook</text></link><extensions><gpxhb:weather>Clear</gpxhb:weather><gpxhb:speed>0.000000</gpxhb:speed><gpxhb:course>174.851038</gpxhb:course></extensions></wpt><wpt lat="24.869738237383267" lon="121.79637999096734"><ele>232</ele><time>2026-04-06T04:16:23Z</time><name>03 W1(M1-L-B1-5m)</name><cmt>2026-04-06T12:16:23+08:00</cmt><desc>03 W1(M1-L-B1-5m)</desc><src>Hikingbook</src><link href="https://hikingbook.net/hikes/cW91EneHhTDOUmlaYFr8CsQ"><text>Hikingbook</text></link><extensions><gpxhb:weather>Clear</gpxhb:weather><gpxhb:speed>0.020700</gpxhb:speed><gpxhb:course>-1.000000</gpxhb:course></extensions></wpt><wpt lat="24.86870004463495" lon="121.79675155134046"><ele>208</ele><time>2026-04-06T04:44:30Z</time><name>04 W2(WT-R-N-18m)</name><cmt>2026-04-06T12:44:30+08:00</cmt><desc>04 W2(WT-R-N-18m)</desc><src>Hikingbook</src><link href="https://hikingbook.net/hikes/cW91EneHhTDOUmlaYFr8CsQ"><text>Hikingbook</text></link><extensions><gpxhb:weather>Clear</gpxhb:weather><gpxhb:speed>0.000000</gpxhb:speed><gpxhb:course>172.170064</gpxhb:course></extensions></wpt><wpt lat="24.86867988593009" lon="121.79677010105631"><ele>164</ele><time>2026-04-06T06:27:50Z</time><name>05 W2-M1-L-B2-38m</name><cmt>2026-04-06T14:27:50+08:00</cmt><desc>05 W2-M1-L-B2-38m</desc><src>Hikingbook</src><link href="https://hikingbook.net/hikes/cW91EneHhTDOUmlaYFr8CsQ"><text>Hikingbook</text></link><extensions><gpxhb:weather>Clear</gpxhb:weather><gpxhb:speed>0.322207</gpxhb:speed><gpxhb:course>-1.000000</gpxhb:course></extensions></wpt><wpt lat="24.867714761013342" lon="121.798814840851"><ele>116</ele><time>2026-04-06T07:48:14Z</time><name>06 水源蓄水池</name><cmt>2026-04-06T15:48:14+08:00</cmt><desc>06 水源蓄水池</desc><src>Hikingbook</src><link href="https://hikingbook.net/hikes/cW91EneHhTDOUmlaYFr8CsQ"><text>Hikingbook</text></link><extensions><gpxhb:weather>Clear</gpxhb:weather><gpxhb:speed>0.000000</gpxhb:speed><gpxhb:course>27.471217</gpxhb:course></extensions></wpt><wpt lat="24.864943012544032" lon="121.79952636735166"><ele>84</ele><time>2026-04-06T07:58:45Z</time><name>07 廢棄建築物</name><cmt>2026-04-06T15:58:45+08:00</cmt><desc>07 廢棄建築物</desc><src>Hikingbook</src><link href="https://hikingbook.net/hikes/cW91EneHhTDOUmlaYFr8CsQ"><text>Hikingbook</text></link><extensions><gpxhb:weather>Clear</gpxhb:weather><gpxhb:speed>1.170464</gpxhb:speed><gpxhb:course>332.331889</gpxhb:course></extensions></wpt><wpt lat="24.863222207592283" lon="121.79836575325197"><ele>77</ele><time>2026-04-06T08:02:20Z</time><name>08 路障阻攔物</name><cmt>2026-04-06T16:02:20+08:00</cmt><desc>08 路障阻攔物</desc><src>Hikingbook</src><link href="https://hikingbook.net/hikes/cW91EneHhTDOUmlaYFr8CsQ"><text>Hikingbook</text></link><extensions><gpxhb:weather>Clear</gpxhb:weather><gpxhb:speed>0.507566</gpxhb:speed><gpxhb:course>208.776917</gpxhb:course></extensions></wpt><trk><name>🪢新峰瀑布-（2026-04-06）-「溪降」［🇹🇼宜蘭-礁溪］</name><cmt>&#xA;W-waterfall (瀑布）&#xA;S-slideway (滑瀑）&#xA;L-left(左岸）&#xA;TL-TopLeft(高左岸）&#xA;BL-BottomLeft(低左岸）&#xA;R-right(右岸）&#xA;TR-TopRight(高右岸）&#xA;BR-BottomRight(低右岸）&#xA;C-center(中岸）&#xA;&#xA;WT-waterfalltop(瀑頂）&#xA;WB-waterfallbottom(瀑底）&#xA;M-middle(中繼點）&#xA;D-deep(深潭）&#xA;G-guide (滑降）&#xA;B-bolt(人工錨點）&#xA;N-nature(天然錨點）&#xA;PB-personal bolt (人力錨點）&#xA;DB-damaged bolt(損壞錨點）&#xA;RB-removal bolt(可拆錨點）&#xA;TR-Traverse(橫移）&#xA;&#xA;Ex: &#xA;W1(M1-L)-B2-18m，D-5m&#xA;「瀑布1（中繼點1-左岸）-bolt有兩顆-使用繩長18米，深潭5公尺長」&#xA;&#xA;成員（8）：&#xA;jimce、&#xA;潾兒、&#xA;秘密客、&#xA;錦榮、&#xA;蕭和、&#xA;小囍、&#xA;小林、&#xA;Jim&#xA;&#xA;裝備：&#xA;&#xA;繩(4)- &#xA;PC(8.0)*80、&#xA;CE4Y(9.0)*70、&#xA;Humna（8.0）*30&#xA;&#xA;急救包*1-&#xA;&#xA;&#xA;電鑽*1&#xA;Bolt（M8)*8&#xA;可移除bolt(m8)*3&#xA;&#xA;無線電-&#xA;頻率：&#xA;   長距-144.52000&#xA;   短距-457.51250&#xA;&#xA;啞音：🈚️&#xA;&#xA;攝影器材：&#xA;1.)DJI mini 5 pro&#xA;</cmt><desc>&#xA;W-waterfall (瀑布）&#xA;S-slideway (滑瀑）&#xA;L-left(左岸）&#xA;TL-TopLeft(高左岸）&#xA;BL-BottomLeft(低左岸）&#xA;R-right(右岸）&#xA;TR-TopRight(高右岸）&#xA;BR-BottomRight(低右岸）&#xA;C-center(中岸）&#xA;&#xA;WT-waterfalltop(瀑頂）&#xA;WB-waterfallbottom(瀑底）&#xA;M-middle(中繼點）&#xA;D-deep(深潭）&#xA;G-guide (滑降）&#xA;B-bolt(人工錨點）&#xA;N-nature(天然錨點）&#xA;PB-personal bolt (人力錨點）&#xA;DB-damaged bolt(損壞錨點）&#xA;RB-removal bolt(可拆錨點）&#xA;TR-Traverse(橫移）&#xA;&#xA;Ex: &#xA;W1(M1-L)-B2-18m，D-5m&#xA;「瀑布1（中繼點1-左岸）-bolt有兩顆-使用繩長18米，深潭5公尺長」&#xA;&#xA;成員（8）：&#xA;jimce、&#xA;潾兒、&#xA;秘密客、&#xA;錦榮、&#xA;蕭和、&#xA;小囍、&#xA;小林、&#xA;Jim&#xA;&#xA;裝備：&#xA;&#xA;繩(4)- &#xA;PC(8.0)*80、&#xA;CE4Y(9.0)*70、&#xA;Humna（8.0）*30&#xA;&#xA;急救包*1-&#xA;&#xA;&#xA;電鑽*1&#xA;Bolt（M8)*8&#xA;可移除bolt(m8)*3&#xA;&#xA;無線電-&#xA;頻率：&#xA;   長距-144.52000&#xA;   短距-457.51250&#xA;&#xA;啞音：🈚️&#xA;&#xA;攝影器材：&#xA;1.)DJI mini 5 pro&#xA;</desc><src>Hikingbook</src><link href="https://hikingbook.net/hikes/2026-4-6-%E6%99%A8%E9%96%93%E9%87%8D%E8%A3%9D%E7%99%BB%E5%B1%B1-%E9%B5%B2%E5%AD%90%E5%B1%B1-d0639ca2"><text>Hikingbook</text></link><trkseg><trkpt lat="24.87512523683064" lon="121.79021993397339"><ele>322.21199599214697</ele><time>2026-04-06T02:28:04Z</time><src>Hikingbook</src><extensions><gpxhb:speed>0.256522</gpxhb:speed><gpxhb:course>-1.000000</gpxhb:course></extensions></trkpt><trkpt lat="24.875080016902665" lon="121.79013954975555"><ele>318.64763304042003</ele><time>2026-04-06T02:29:04Z</time><src>Hikingbook</src><extensions><gpxhb:speed>0.258659</gpxhb:speed><gpxhb:course>-1.000000</gpxhb:course></extensions></trkpt><trkpt lat="24.874945250747906" lon="121.79017789285112"><ele>316.30309899811755</ele><time>2026-04-06T02:29:35Z</time><src>Hikingbook</src><extensions><gpxhb:speed>0.148451</gpxhb:speed><gpxhb:course>159.966149</gpxhb:course></extensions></trkpt><trkpt lat="24.874776767767926" lon="121.79004690549723"><ele>315.5866995752728</ele><time>2026-04-06T02:30:27Z</time><src>Hikingbook</src><extensions><gpxhb:speed>0.446179</gpxhb:speed><gpxhb:course>238.302942</gpxhb:course></extensions></trkpt><trkpt lat="24.874657404067218" lon="121.79004057048326"><ele>317.6261490445799</ele><time>2026-04-06T02:31:11Z</time><src>Hikingbook</src><extensions><gpxhb:speed>0.466038</gpxhb:speed><gpxhb:course>217.324530</gpxhb:course></extensions></trkpt><trkpt lat="24.874500831442244" lon="121.7902192616248"><ele>315.6687489299309</ele><time>2026-04-06T02:32:34Z</time><src>Hikingbook</src><extensions><gpxhb:speed>0.276301</gpxhb:speed><gpxhb:course>117.993679</gpxhb:course></extensions></trkpt><trkpt lat="24.87421324492428" lon="121.79022914108856"><ele>315.5195188808007</ele><time>2026-04-06T02:33:41Z</time><src>Hikingbook</src><extensions><gpxhb:speed>0.554295</gpxhb:speed><gpxhb:course>180.831925</gpxhb:course></extensions></trkpt><trkpt lat="24.874204624936176" lon="121.7902315184431"><ele>315.5713211188252</ele><time>2026-04-06T02:33:42Z</time><src>Hikingbook</src><extensions><gpxhb:speed>0.688889</gpxhb:speed><gpxhb:course>175.428576</gpxhb:course></extensions></trkpt><trkpt lat="24.873917168027614" lon="121.79038819696657"><ele>309.7313699883682</ele><time>2026-04-06T02:35:21Z</time><src>Hikingbook</src><extensions><gpxhb:speed>0.455602</gpxhb:speed><gpxhb:course>155.427131</gpxhb:course></extensions></trkpt><trkpt lat="24.873302427492057" lon="121.79031949303821"><ele>305.23705690410344</ele><time>2026-04-06T02:38:50Z</time><src>Hikingbook</src><extensions><gpxhb:speed>0.250237</gpxhb:speed><gpxhb:course>198.800221</gpxhb:course></extensions></trkpt><trkpt lat="24.873298006680724" lon="121.79031874411986"><ele>305.2406981562068</ele><time>2026-04-06T02:38:51Z</time><src>Hikingbook</src><extensions><gpxhb:speed>0.041667</gpxhb:speed><gpxhb:course>198.800223</gpxhb:course></extensions></trkpt><trkpt lat="24.873044407338337" lon="121.79035452667327"><ele>304.4102483854049</ele><time>2026-04-06T02:40:43Z</time><src>Hikingbook</src><extensions><gpxhb:speed>0.210239</gpxhb:speed><gpxhb:course>216.258875</gpxhb:course></extensions></trkpt><trkpt lat="24.87271546311816" lon="121.79061417807465"><ele>296.6790387561055</ele><time>2026-04-06T02:42:57Z</time><src>Hikingbook</src><extensions><gpxhb:speed>0.401109</gpxhb:speed><gpxhb:course>80.313842</gpxhb:course></extensions></trkpt><trkpt lat="24.87259920919106" lon="121.79083177634604"><ele>292.8478818206896</ele><time>2026-04-06T02:43:31Z</time><src>Hikingbook</src><extensions><gpxhb:speed>0.625801</gpxhb:speed><gpxhb:course>160.866415</gpxhb:course></extensions></trkpt><trkpt lat="24.872726651531952" lon="121.79099869406369"><ele>285.2753438878105</ele><time>2026-04-06T02:44:52Z</time><src>Hikingbook</src><extensions><gpxhb:speed>0.259690</gpxhb:speed><gpxhb:course>66.846173</gpxhb:course></extensions></trkpt><trkpt lat="24.872704287076875" lon="121.7911134446837"><ele>285.6539258855746</ele><time>2026-04-06T02:45:16Z</time><src>Hikingbook</src><extensions><gpxhb:speed>0.120543</gpxhb:speed><gpxhb:course>165.493378</gpxhb:course></extensions></trkpt><trkpt lat="24.872698426999182" lon="121.79112220382746"><ele>284.8762760116082</ele><time>2026-04-06T02:45:19Z</time><src>Hikingbook</src><extensions><gpxhb:speed>0.453837</gpxhb:speed><gpxhb:course>175.905482</gpxhb:course></extensions></trkpt><trkpt lat="24.87267279030823" lon="121.79130789440671"><ele>272.4737553447982</ele><time>2026-04-06T02:46:15Z</time><src>Hikingbook</src><extensions><gpxhb:speed>1.886156</gpxhb:speed><gpxhb:course>-1.000000</gpxhb:course></extensions></trkpt><trkpt lat="24.87287856847656" lon="121.79156370379359"><ele>284.60181075596677</ele><time>2026-04-06T02:47:32Z</time><src>Hikingbook</src><extensions><gpxhb:speed>0.435311</gpxhb:speed><gpxhb:course>75.730279</gpxhb:course></extensions></trkpt><trkpt lat="24.872785652946366" lon="121.79191261447748"><ele>277.9805551397584</ele><time>2026-04-06T02:48:43Z</time><src>Hikingbook</src><extensions><gpxhb:speed>0.716180</gpxhb:speed><gpxhb:course>101.545728</gpxhb:course></extensions></trkpt><trkpt lat="24.872799715095326" lon="121.79213407162109"><ele>286.081468112829</ele><time>2026-04-06T02:49:43Z</time><src>Hikingbook</src><extensions><gpxhb:speed>0.097302</gpxhb:speed><gpxhb:course>305.570743</gpxhb:course></extensions></trkpt><trkpt lat="24.872802156521058" lon="121.79213764329889"><ele>286.5190560437153</ele><time>2026-04-06T02:49:44Z</time><src>Hikingbook</src><extensions><gpxhb:speed>0.337357</gpxhb:speed><gpxhb:course>326.898689</gpxhb:course></extensions></trkpt><trkpt lat="24.872812465321367" lon="121.7924714879835"><ele>278.2477611242457</ele><time>2026-04-06T02:51:24Z</time><src>Hikingbook</src><extensions><gpxhb:speed>0.284297</gpxhb:speed><gpxhb:course>66.389515</gpxhb:course></extensions></trkpt><trkpt lat="24.872735821640205" lon="121.79270970710854"><ele>274.8564062316634</ele><time>2026-04-06T02:53:01Z</time><src>Hikingbook</src><extensions><gpxhb:speed>0.073260</gpxhb:speed><gpxhb:course>43.359798</gpxhb:course></extensions></trkpt><trkpt lat="24.872335372670744" lon="121.7930407742728"><ele>270.21140001944093</ele><time>2026-04-06T02:56:15Z</time><src>Hikingbook</src><extensions><gpxhb:speed>0.587642</gpxhb:speed><gpxhb:course>177.224715</gpxhb:course></extensions></trkpt><trkpt lat="24.87232618331303" lon="121.79304690359801"><ele>269.79400347524677</ele><time>2026-04-06T02:56:17Z</time><src>Hikingbook</src><extensions><gpxhb:speed>0.193713</gpxhb:speed><gpxhb:course>199.957361</gpxhb:course></extensions></trkpt><trkpt lat="24.87219609784976" lon="121.79316614480152"><ele>262.02141459026285</ele><time>2026-04-06T02:57:20Z</time><src>Hikingbook</src><extensions><gpxhb:speed>1.182139</gpxhb:speed><gpxhb:course>-1.000000</gpxhb:course></extensions></trkpt><trkpt lat="24.872220005979134" lon="121.79336236706719"><ele>258.84599400861003</ele><time>2026-04-06T02:58:19Z</time><src>Hikingbook</src><extensions><gpxhb:speed>0.187949</gpxhb:speed><gpxhb:course>-1.000000</gpxhb:course></extensions></trkpt><trkpt lat="24.872309262739684" lon="121.79343094144443"><ele>261.0111808175014</ele><time>2026-04-06T02:58:43Z</time><src>Hikingbook</src><extensions><gpxhb:speed>0.559770</gpxhb:speed><gpxhb:course>-1.000000</gpxhb:course></extensions></trkpt><trkpt lat="24.872449850078514" lon="121.79381244506035"><ele>259.81515110593557</ele><time>2026-04-06T02:59:59Z</time><src>Hikingbook</src><extensions><gpxhb:speed>1.017724</gpxhb:speed><gpxhb:course>83.501648</gpxhb:course></extensions></trkpt><trkpt lat="24.87263957047083" lon="121.79398053701168"><ele>255.60963674299222</ele><time>2026-04-06T03:00:42Z</time><src>Hikingbook</src><extensions><gpxhb:speed>0.407635</gpxhb:speed><gpxhb:course>7.020433</gpxhb:course></extensions></trkpt><trkpt lat="24.87265701901843" lon="121.7939827459483"><ele>256.31580616029294</ele><time>2026-04-06T03:00:45Z</time><src>Hikingbook</src><extensions><gpxhb:speed>0.557295</gpxhb:speed><gpxhb:course>16.860333</gpxhb:course></extensions></trkpt><trkpt lat="24.872712448638573" lon="121.79400144933845"><ele>261.21309258446604</ele><time>2026-04-06T03:01:48Z</time><src>Hikingbook</src><extensions><gpxhb:speed>0.050103</gpxhb:speed><gpxhb:course>-1.000000</gpxhb:course></extensions></trkpt></trkseg><trkseg><trkpt lat="24.872712448638573" lon="121.79400144933845"><ele>261.21309258446604</ele><time>2026-04-06T03:17:33Z</time><src>Hikingbook</src><extensions><gpxhb:speed>0.050103</gpxhb:speed><gpxhb:course>-1.000000</gpxhb:course></extensions></trkpt><trkpt lat="24.87275798167573" lon="121.7940503360601"><ele>261.54241552049547</ele><time>2026-04-06T03:17:51Z</time><src>Hikingbook</src><extensions><gpxhb:speed>0.235002</gpxhb:speed><gpxhb:course>0.000000</gpxhb:course></extensions></trkpt><trkpt lat="24.872803598393144" lon="121.7939930176037"><ele>260.5946990214007</ele><time>2026-04-06T03:18:07Z</time><src>Hikingbook</src><extensions><gpxhb:speed>0.570637</gpxhb:speed><gpxhb:course>357.671518</gpxhb:course></extensions></trkpt><trkpt lat="24.873006204299067" lon="121.79402491552"><ele>257.56043650053294</ele><time>2026-04-06T03:18:48Z</time><src>Hikingbook</src><extensions><gpxhb:speed>0.403008</gpxhb:speed><gpxhb:course>42.033119</gpxhb:course></extensions></trkpt><trkpt lat="24.873232927567017" lon="121.7945476611264"><ele>259.83993746016847</ele><time>2026-04-06T03:20:38Z</time><src>Hikingbook</src><extensions><gpxhb:speed>0.263352</gpxhb:speed><gpxhb:course>67.980190</gpxhb:course></extensions></trkpt><trkpt lat="24.872871820968967" lon="121.79487046842006"><ele>252.50102552142377</ele><time>2026-04-06T03:22:10Z</time><src>Hikingbook</src><extensions><gpxhb:speed>1.271175</gpxhb:speed><gpxhb:course>-1.000000</gpxhb:course></extensions></trkpt><trkpt lat="24.872394660018237" lon="121.79499495053818"><ele>258.0103630918929</ele><time>2026-04-06T03:23:41Z</time><src>Hikingbook</src><extensions><gpxhb:speed>0.701468</gpxhb:speed><gpxhb:course>190.445552</gpxhb:course></extensions></trkpt><trkpt lat="24.872384960722282" lon="121.79499940925022"><ele>257.99372976722515</ele><time>2026-04-06T03:23:46Z</time><src>Hikingbook</src><extensions><gpxhb:speed>0.056032</gpxhb:speed><gpxhb:course>248.025161</gpxhb:course></extensions></trkpt><trkpt lat="24.872100236425727" lon="121.79493952619572"><ele>250.55728785366148</ele><time>2026-04-06T03:24:52Z</time><src>Hikingbook</src><extensions><gpxhb:speed>1.111969</gpxhb:speed><gpxhb:course>-1.000000</gpxhb:course></extensions></trkpt><trkpt lat="24.872061974844314" lon="121.79513432762081"><ele>251.01806859383686</ele><time>2026-04-06T03:25:54Z</time><src>Hikingbook</src><extensions><gpxhb:speed>0.000000</gpxhb:speed><gpxhb:course>-1.000000</gpxhb:course></extensions></trkpt><trkpt lat="24.87203176907173" lon="121.79510622340852"><ele>250.8947405419772</ele><time>2026-04-06T03:26:31Z</time><src>Hikingbook</src><extensions><gpxhb:speed>0.298490</gpxhb:speed><gpxhb:course>-1.000000</gpxhb:course></extensions></trkpt><trkpt lat="24.872096169440848" lon="121.79510089365147"><ele>244.99692387637495</ele><time>2026-04-06T03:26:52Z</time><src>Hikingbook</src><extensions><gpxhb:speed>0.404028</gpxhb:speed><gpxhb:course>36.874118</gpxhb:course></extensions></trkpt><trkpt lat="24.87209803289194" lon="121.79516415804186"><ele>238.3528185944146</ele><time>2026-04-06T03:27:07Z</time><src>Hikingbook</src><extensions><gpxhb:speed>1.207767</gpxhb:speed><gpxhb:course>-1.000000</gpxhb:course></extensions></trkpt><trkpt lat="24.871976251962057" lon="121.79525203759847"><ele>240.8854598620584</ele><time>2026-04-06T03:28:22Z</time><src>Hikingbook</src><extensions><gpxhb:speed>0.754540</gpxhb:speed><gpxhb:course>-1.000000</gpxhb:course></extensions></trkpt><trkpt lat="24.871993656903896" lon="121.79519937705889"><ele>247.9256235118466</ele><time>2026-04-06T03:29:57Z</time><src>Hikingbook</src><extensions><gpxhb:speed>0.037781</gpxhb:speed><gpxhb:course>67.671561</gpxhb:course></extensions></trkpt><trkpt lat="24.871996331998357" lon="121.79523354444214"><ele>245.78288333676755</ele><time>2026-04-06T03:30:24Z</time><src>Hikingbook</src><extensions><gpxhb:speed>0.000000</gpxhb:speed><gpxhb:course>67.671570</gpxhb:course></extensions></trkpt><trkpt lat="24.871923360801276" lon="121.79551042288773"><ele>243.94533679336826</ele><time>2026-04-06T03:31:46Z</time><src>Hikingbook</src><extensions><gpxhb:speed>0.044952</gpxhb:speed><gpxhb:course>-1.000000</gpxhb:course></extensions></trkpt><trkpt lat="24.872040596823588" lon="121.7956132566224"><ele>240.2554156058057</ele><time>2026-04-06T03:32:11Z</time><src>Hikingbook</src><extensions><gpxhb:speed>0.644116</gpxhb:speed><gpxhb:course>-1.000000</gpxhb:course></extensions></trkpt><trkpt lat="24.872042547753498" lon="121.79569919415779"><ele>244.897950384711</ele><time>2026-04-06T03:32:36Z</time><src>Hikingbook</src><extensions><gpxhb:speed>0.367732</gpxhb:speed><gpxhb:course>66.273407</gpxhb:course></extensions></trkpt><trkpt lat="24.871903948432198" lon="121.79586259117615"><ele>239.47846538160388</ele><time>2026-04-06T03:33:36Z</time><src>Hikingbook</src><extensions><gpxhb:speed>0.294329</gpxhb:speed><gpxhb:course>142.740643</gpxhb:course></extensions></trkpt><trkpt lat="24.87183327268364" lon="121.79627212581839"><ele>231.51636548481343</ele><time>2026-04-06T03:35:03Z</time><src>Hikingbook</src><extensions><gpxhb:speed>0.449635</gpxhb:speed><gpxhb:course>130.460892</gpxhb:course></extensions></trkpt><trkpt lat="24.871813325956666" lon="121.79628334830566"><ele>226.27330064879797</ele><time>2026-04-06T03:35:12Z</time><src>Hikingbook</src><extensions><gpxhb:speed>1.147991</gpxhb:speed><gpxhb:course>-1.000000</gpxhb:course></extensions></trkpt><trkpt lat="24.871769510343565" lon="121.79652960232266"><ele>225.40040057456042</ele><time>2026-04-06T03:35:55Z</time><src>Hikingbook</src><extensions><gpxhb:speed>0.616239</gpxhb:speed><gpxhb:course>79.740111</gpxhb:course></extensions></trkpt><trkpt lat="24.87158408388499" lon="121.79661814684745"><ele>225.79922147419796</ele><time>2026-04-06T03:36:32Z</time><src>Hikingbook</src><extensions><gpxhb:speed>0.356701</gpxhb:speed><gpxhb:course>154.874372</gpxhb:course></extensions></trkpt><trkpt lat="24.871288420409535" lon="121.79662584847263"><ele>228.2830932097251</ele><time>2026-04-06T03:37:26Z</time><src>Hikingbook</src><extensions><gpxhb:speed>0.670192</gpxhb:speed><gpxhb:course>189.948635</gpxhb:course></extensions></trkpt><trkpt lat="24.871113350836467" lon="121.7967433413969"><ele>238.0125548167126</ele><time>2026-04-06T03:38:24Z</time><src>Hikingbook</src><extensions><gpxhb:speed>0.288315</gpxhb:speed><gpxhb:course>172.994271</gpxhb:course></extensions></trkpt><trkpt lat="24.870982185080045" lon="121.79675704591726"><ele>230.7300472249816</ele><time>2026-04-06T03:38:54Z</time><src>Hikingbook</src><extensions><gpxhb:speed>0.661579</gpxhb:speed><gpxhb:course>173.188589</gpxhb:course></extensions></trkpt><trkpt lat="24.870952619179366" lon="121.796795425805"><ele>227.76435081211787</ele><time>2026-04-06T03:39:05Z</time><src>Hikingbook</src><extensions><gpxhb:speed>0.583797</gpxhb:speed><gpxhb:course>178.770254</gpxhb:course></extensions></trkpt><trkpt lat="24.870345790601853" lon="121.79681730485896"><ele>231.85718763128287</ele><time>2026-04-06T03:42:43Z</time><src>Hikingbook</src><extensions><gpxhb:speed>0.791762</gpxhb:speed><gpxhb:course>229.590296</gpxhb:course></extensions></trkpt><trkpt lat="24.870105821809393" lon="121.79664099350998"><ele>222.3625379579185</ele><time>2026-04-06T03:43:36Z</time><src>Hikingbook</src><extensions><gpxhb:speed>0.871152</gpxhb:speed><gpxhb:course>245.132853</gpxhb:course></extensions></trkpt><trkpt lat="24.870022851834086" lon="121.79664851039976"><ele>225.45777854872048</ele><time>2026-04-06T03:43:52Z</time><src>Hikingbook</src><extensions><gpxhb:speed>0.605956</gpxhb:speed><gpxhb:course>215.353439</gpxhb:course></extensions></trkpt><trkpt lat="24.86995151655817" lon="121.79657518644332"><ele>225.89944650448572</ele><time>2026-04-06T03:44:08Z</time><src>Hikingbook</src><extensions><gpxhb:speed>0.299540</gpxhb:speed><gpxhb:course>268.441397</gpxhb:course></extensions></trkpt><trkpt lat="24.86965615758247" lon="121.7965069520106"><ele>223.2790512357703</ele><time>2026-04-06T03:45:27Z</time><src>Hikingbook</src><extensions><gpxhb:speed>0.445642</gpxhb:speed><gpxhb:course>174.851038</gpxhb:course></extensions></trkpt></trkseg><trkseg><trkpt lat="24.86965615758247" lon="121.7965069520106"><ele>223.2790512357703</ele><time>2026-04-06T04:28:33Z</time><src>Hikingbook</src><extensions><gpxhb:speed>0.445642</gpxhb:speed><gpxhb:course>174.851038</gpxhb:course></extensions></trkpt><trkpt lat="24.869535081379805" lon="121.79656542217526"><ele>221.7744882262577</ele><time>2026-04-06T04:28:48Z</time><src>Hikingbook</src><extensions><gpxhb:speed>0.183488</gpxhb:speed><gpxhb:course>0.000000</gpxhb:course></extensions></trkpt><trkpt lat="24.869456530434462" lon="121.79649238522093"><ele>225.09344771148554</ele><time>2026-04-06T04:29:04Z</time><src>Hikingbook</src><extensions><gpxhb:speed>0.452925</gpxhb:speed><gpxhb:course>153.146450</gpxhb:course></extensions></trkpt><trkpt lat="24.869405007196566" lon="121.79667615642188"><ele>225.8311235847257</ele><time>2026-04-06T04:29:35Z</time><src>Hikingbook</src><extensions><gpxhb:speed>0.657561</gpxhb:speed><gpxhb:course>191.761244</gpxhb:course></extensions></trkpt><trkpt lat="24.869200286046212" lon="121.79662636345279"><ele>228.18168874995675</ele><time>2026-04-06T04:31:16Z</time><src>Hikingbook</src><extensions><gpxhb:speed>0.000000</gpxhb:speed><gpxhb:course>230.692745</gpxhb:course></extensions></trkpt><trkpt lat="24.86913878405842" lon="121.7967433079373"><ele>223.48878545237227</ele><time>2026-04-06T04:32:04Z</time><src>Hikingbook</src><extensions><gpxhb:speed>0.079530</gpxhb:speed><gpxhb:course>114.611491</gpxhb:course></extensions></trkpt><trkpt lat="24.868988850561312" lon="121.79675751540617"><ele>212.43772064662537</ele><time>2026-04-06T04:33:44Z</time><src>Hikingbook</src><extensions><gpxhb:speed>0.166078</gpxhb:speed><gpxhb:course>182.192082</gpxhb:course></extensions></trkpt></trkseg><trkseg><trkpt lat="24.868988850561312" lon="121.79675751540617"><ele>212.43772064662537</ele><time>2026-04-06T04:41:03Z</time><src>Hikingbook</src><extensions><gpxhb:speed>0.166078</gpxhb:speed><gpxhb:course>182.192082</gpxhb:course></extensions></trkpt><trkpt lat="24.869028480913816" lon="121.79665725385462"><ele>211.5201627770345</ele><time>2026-04-06T04:41:20Z</time><src>Hikingbook</src><extensions><gpxhb:speed>0.077514</gpxhb:speed><gpxhb:course>-1.000000</gpxhb:course></extensions></trkpt><trkpt lat="24.86874573918978" lon="121.79687844447179"><ele>213.5933806567671</ele><time>2026-04-06T04:43:11Z</time><src>Hikingbook</src><extensions><gpxhb:speed>0.557047</gpxhb:speed><gpxhb:course>172.659733</gpxhb:course></extensions></trkpt><trkpt lat="24.86870623602637" lon="121.79675067674128"><ele>207.28620809552353</ele><time>2026-04-06T04:44:27Z</time><src>Hikingbook</src><extensions><gpxhb:speed>0.170954</gpxhb:speed><gpxhb:course>172.170057</gpxhb:course></extensions></trkpt></trkseg><trkseg><trkpt lat="24.86870623602637" lon="121.79675067674128"><ele>207.28620809552353</ele><time>2026-04-06T06:28:58Z</time><src>Hikingbook</src><extensions><gpxhb:speed>0.170954</gpxhb:speed><gpxhb:course>172.170057</gpxhb:course></extensions></trkpt><trkpt lat="24.86870830751473" lon="121.79677739143223"><ele>187.28106784702638</ele><time>2026-04-06T06:28:59Z</time><src>Hikingbook</src><extensions><gpxhb:speed>0.000000</gpxhb:speed><gpxhb:course>-1.000000</gpxhb:course></extensions></trkpt></trkseg><trkseg><trkpt lat="24.86870830751473" lon="121.79677739143223"><ele>187.28106784702638</ele><time>2026-04-06T06:47:50Z</time><src>Hikingbook</src><extensions><gpxhb:speed>0.000000</gpxhb:speed><gpxhb:course>-1.000000</gpxhb:course></extensions></trkpt><trkpt lat="24.8684108577807" lon="121.7969940331041"><ele>187.81511088215194</ele><time>2026-04-06T06:47:52Z</time><src>Hikingbook</src><extensions><gpxhb:speed>0.402079</gpxhb:speed><gpxhb:course>-1.000000</gpxhb:course></extensions></trkpt></trkseg><trkseg><trkpt lat="24.8684108577807" lon="121.7969940331041"><ele>187.81511088215194</ele><time>2026-04-06T07:29:47Z</time><src>Hikingbook</src><extensions><gpxhb:speed>0.402079</gpxhb:speed><gpxhb:course>-1.000000</gpxhb:course></extensions></trkpt><trkpt lat="24.86858975567006" lon="121.79721560909695"><ele>129.67385567984962</ele><time>2026-04-06T07:29:54Z</time><src>Hikingbook</src><extensions><gpxhb:speed>0.000000</gpxhb:speed><gpxhb:course>-1.000000</gpxhb:course></extensions></trkpt><trkpt lat="24.868500040854578" lon="121.79710238896527"><ele>164.23312668323538</ele><time>2026-04-06T07:30:09Z</time><src>Hikingbook</src><extensions><gpxhb:speed>0.155003</gpxhb:speed><gpxhb:course>-1.000000</gpxhb:course></extensions></trkpt><trkpt lat="24.86853330591358" lon="121.79712702739188"><ele>152.4106495950861</ele><time>2026-04-06T07:30:25Z</time><src>Hikingbook</src><extensions><gpxhb:speed>0.464504</gpxhb:speed><gpxhb:course>123.023583</gpxhb:course></extensions></trkpt><trkpt lat="24.86840384765727" lon="121.79718089693245"><ele>170.49361056505842</ele><time>2026-04-06T07:30:52Z</time><src>Hikingbook</src><extensions><gpxhb:speed>0.357797</gpxhb:speed><gpxhb:course>-1.000000</gpxhb:course></extensions></trkpt><trkpt lat="24.868361865925525" lon="121.7970846512361"><ele>167.7025820863031</ele><time>2026-04-06T07:32:02Z</time><src>Hikingbook</src><extensions><gpxhb:speed>0.340699</gpxhb:speed><gpxhb:course>338.117677</gpxhb:course></extensions></trkpt><trkpt lat="24.867965992779148" lon="121.79732197708238"><ele>137.60301641829622</ele><time>2026-04-06T07:34:11Z</time><src>Hikingbook</src><extensions><gpxhb:speed>0.103916</gpxhb:speed><gpxhb:course>175.700297</gpxhb:course></extensions></trkpt><trkpt lat="24.86800389113226" lon="121.79746841787096"><ele>138.56845479706928</ele><time>2026-04-06T07:34:40Z</time><src>Hikingbook</src><extensions><gpxhb:speed>1.267055</gpxhb:speed><gpxhb:course>-1.000000</gpxhb:course></extensions></trkpt><trkpt lat="24.867839197282205" lon="121.79777813853859"><ele>126.84447417905236</ele><time>2026-04-06T07:36:15Z</time><src>Hikingbook</src><extensions><gpxhb:speed>0.156876</gpxhb:speed><gpxhb:course>176.507175</gpxhb:course></extensions></trkpt><trkpt lat="24.867834864950474" lon="121.79778682512439"><ele>127.04413343754831</ele><time>2026-04-06T07:36:17Z</time><src>Hikingbook</src><extensions><gpxhb:speed>0.670076</gpxhb:speed><gpxhb:course>155.809156</gpxhb:course></extensions></trkpt><trkpt lat="24.867851779331467" lon="121.79799452973943"><ele>100.50547626741377</ele><time>2026-04-06T07:37:18Z</time><src>Hikingbook</src><extensions><gpxhb:speed>0.417479</gpxhb:speed><gpxhb:course>-1.000000</gpxhb:course></extensions></trkpt><trkpt lat="24.86761599681746" lon="121.7983407258523"><ele>130.45940983161287</ele><time>2026-04-06T07:39:06Z</time><src>Hikingbook</src><extensions><gpxhb:speed>0.313479</gpxhb:speed><gpxhb:course>187.607729</gpxhb:course></extensions></trkpt><trkpt lat="24.867683754836833" lon="121.79830014782421"><ele>119.58462055846829</ele><time>2026-04-06T07:39:40Z</time><src>Hikingbook</src><extensions><gpxhb:speed>0.911931</gpxhb:speed><gpxhb:course>-1.000000</gpxhb:course></extensions></trkpt><trkpt lat="24.867647287943104" lon="121.79818228501618"><ele>130.31175336806743</ele><time>2026-04-06T07:40:38Z</time><src>Hikingbook</src><extensions><gpxhb:speed>0.034278</gpxhb:speed><gpxhb:course>-1.000000</gpxhb:course></extensions></trkpt><trkpt lat="24.8675812984695" lon="121.7982266893418"><ele>128.40820535805778</ele><time>2026-04-06T07:42:37Z</time><src>Hikingbook</src><extensions><gpxhb:speed>0.057430</gpxhb:speed><gpxhb:course>191.839135</gpxhb:course></extensions></trkpt><trkpt lat="24.867702888764644" lon="121.79824354149143"><ele>127.96105687904046</ele><time>2026-04-06T07:44:10Z</time><src>Hikingbook</src><extensions><gpxhb:speed>0.559329</gpxhb:speed><gpxhb:course>113.177805</gpxhb:course></extensions></trkpt><trkpt lat="24.867542568486584" lon="121.79853239128278"><ele>118.31524395196126</ele><time>2026-04-06T07:46:39Z</time><src>Hikingbook</src><extensions><gpxhb:speed>0.444315</gpxhb:speed><gpxhb:course>-1.000000</gpxhb:course></extensions></trkpt><trkpt lat="24.867574925270127" lon="121.79873775332929"><ele>121.30137465479757</ele><time>2026-04-06T07:47:22Z</time><src>Hikingbook</src><extensions><gpxhb:speed>0.826086</gpxhb:speed><gpxhb:course>-1.000000</gpxhb:course></extensions></trkpt><trkpt lat="24.867578445865618" lon="121.79874519229024"><ele>120.95675055388085</ele><time>2026-04-06T07:47:24Z</time><src>Hikingbook</src><extensions><gpxhb:speed>0.478869</gpxhb:speed><gpxhb:course>343.745707</gpxhb:course></extensions></trkpt><trkpt lat="24.867696535369898" lon="121.79880351621678"><ele>116.5423308835926</ele><time>2026-04-06T07:48:03Z</time><src>Hikingbook</src><extensions><gpxhb:speed>0.136528</gpxhb:speed><gpxhb:course>27.471213</gpxhb:course></extensions></trkpt><trkpt lat="24.867802123824237" lon="121.79910865184975"><ele>111.45204986396338</ele><time>2026-04-06T07:49:12Z</time><src>Hikingbook</src><extensions><gpxhb:speed>0.605231</gpxhb:speed><gpxhb:course>119.178777</gpxhb:course></extensions></trkpt><trkpt lat="24.867487255294424" lon="121.7992536195752"><ele>111.31085304189533</ele><time>2026-04-06T07:49:45Z</time><src>Hikingbook</src><extensions><gpxhb:speed>0.434440</gpxhb:speed><gpxhb:course>156.402904</gpxhb:course></extensions></trkpt><trkpt lat="24.867144678707856" lon="121.7996387618108"><ele>113.22390905818757</ele><time>2026-04-06T07:50:30Z</time><src>Hikingbook</src><extensions><gpxhb:speed>0.927376</gpxhb:speed><gpxhb:course>143.786696</gpxhb:course></extensions></trkpt><trkpt lat="24.867134850989355" lon="121.79964831793255"><ele>113.43485924575816</ele><time>2026-04-06T07:50:31Z</time><src>Hikingbook</src><extensions><gpxhb:speed>0.989741</gpxhb:speed><gpxhb:course>145.510216</gpxhb:course></extensions></trkpt><trkpt lat="24.866564737379136" lon="121.79980155587629"><ele>108.73720756262232</ele><time>2026-04-06T07:51:38Z</time><src>Hikingbook</src><extensions><gpxhb:speed>0.780716</gpxhb:speed><gpxhb:course>154.712532</gpxhb:course></extensions></trkpt><trkpt lat="24.86623353530379" lon="121.79971361459963"><ele>100.01369524947528</ele><time>2026-04-06T07:55:31Z</time><src>Hikingbook</src><extensions><gpxhb:speed>0.945935</gpxhb:speed><gpxhb:course>-1.000000</gpxhb:course></extensions></trkpt><trkpt lat="24.86622875224741" lon="121.79971545208775"><ele>100.24560886844584</ele><time>2026-04-06T07:55:32Z</time><src>Hikingbook</src><extensions><gpxhb:speed>0.462957</gpxhb:speed><gpxhb:course>200.749829</gpxhb:course></extensions></trkpt><trkpt lat="24.865791203098443" lon="121.79961860306204"><ele>95.2012502369621</ele><time>2026-04-06T07:56:14Z</time><src>Hikingbook</src><extensions><gpxhb:speed>1.012423</gpxhb:speed><gpxhb:course>185.049855</gpxhb:course></extensions></trkpt><trkpt lat="24.865629472942917" lon="121.79968139280246"><ele>92.6041082669098</ele><time>2026-04-06T07:56:31Z</time><src>Hikingbook</src><extensions><gpxhb:speed>1.005349</gpxhb:speed><gpxhb:course>195.985777</gpxhb:course></extensions></trkpt><trkpt lat="24.86533857466854" lon="121.79952852176616"><ele>85.82356983977927</ele><time>2026-04-06T07:57:21Z</time><src>Hikingbook</src><extensions><gpxhb:speed>1.149355</gpxhb:speed><gpxhb:course>202.222083</gpxhb:course></extensions></trkpt><trkpt lat="24.865326965255587" lon="121.79952213476383"><ele>85.72339114775363</ele><time>2026-04-06T07:57:22Z</time><src>Hikingbook</src><extensions><gpxhb:speed>1.256036</gpxhb:speed><gpxhb:course>206.608687</gpxhb:course></extensions></trkpt><trkpt lat="24.865158340897118" lon="121.79946369251563"><ele>82.98331430938663</ele><time>2026-04-06T07:57:38Z</time><src>Hikingbook</src><extensions><gpxhb:speed>0.852029</gpxhb:speed><gpxhb:course>181.619805</gpxhb:course></extensions></trkpt><trkpt lat="24.864847402478734" lon="121.79955736122935"><ele>82.11432048023994</ele><time>2026-04-06T07:58:08Z</time><src>Hikingbook</src><extensions><gpxhb:speed>1.055229</gpxhb:speed><gpxhb:course>176.365403</gpxhb:course></extensions></trkpt><trkpt lat="24.86474291092683" lon="121.79954008417921"><ele>81.4738009925525</ele><time>2026-04-06T07:58:20Z</time><src>Hikingbook</src><extensions><gpxhb:speed>0.982522</gpxhb:speed><gpxhb:course>193.383867</gpxhb:course></extensions></trkpt><trkpt lat="24.86493566152589" lon="121.79953161949994"><ele>83.70414289757993</ele><time>2026-04-06T07:58:45Z</time><src>Hikingbook</src><extensions><gpxhb:speed>1.344448</gpxhb:speed><gpxhb:course>333.839289</gpxhb:course></extensions></trkpt><trkpt lat="24.864575343083683" lon="121.79951127063478"><ele>80.11630660324774</ele><time>2026-04-06T07:59:32Z</time><src>Hikingbook</src><extensions><gpxhb:speed>1.336509</gpxhb:speed><gpxhb:course>191.613100</gpxhb:course></extensions></trkpt><trkpt lat="24.864428252067533" lon="121.7994051974482"><ele>80.27106804632228</ele><time>2026-04-06T07:59:48Z</time><src>Hikingbook</src><extensions><gpxhb:speed>0.974860</gpxhb:speed><gpxhb:course>210.160769</gpxhb:course></extensions></trkpt><trkpt lat="24.86442025382284" lon="121.7994009597955"><ele>80.24936627595048</ele><time>2026-04-06T07:59:49Z</time><src>Hikingbook</src><extensions><gpxhb:speed>0.890817</gpxhb:speed><gpxhb:course>208.934043</gpxhb:course></extensions></trkpt><trkpt lat="24.864106308110983" lon="121.79916023903692"><ele>78.46629472410036</ele><time>2026-04-06T08:00:25Z</time><src>Hikingbook</src><extensions><gpxhb:speed>1.139389</gpxhb:speed><gpxhb:course>221.766932</gpxhb:course></extensions></trkpt><trkpt lat="24.86386740914118" lon="121.79884902900487"><ele>76.42198107108547</ele><time>2026-04-06T08:00:57Z</time><src>Hikingbook</src><extensions><gpxhb:speed>1.316157</gpxhb:speed><gpxhb:course>217.304842</gpxhb:course></extensions></trkpt><trkpt lat="24.863692847480007" lon="121.79878903072532"><ele>76.39397062801001</ele><time>2026-04-06T08:01:13Z</time><src>Hikingbook</src><extensions><gpxhb:speed>1.246167</gpxhb:speed><gpxhb:course>206.593127</gpxhb:course></extensions></trkpt><trkpt lat="24.863680543245152" lon="121.79879138558032"><ele>76.13845516043648</ele><time>2026-04-06T08:01:14Z</time><src>Hikingbook</src><extensions><gpxhb:speed>1.057154</gpxhb:speed><gpxhb:course>214.824341</gpxhb:course></extensions></trkpt><trkpt lat="24.863356192547787" lon="121.79839963199063"><ele>82.28259049775875</ele><time>2026-04-06T08:01:57Z</time><src>Hikingbook</src><extensions><gpxhb:speed>1.016498</gpxhb:speed><gpxhb:course>227.168945</gpxhb:course></extensions></trkpt><trkpt lat="24.863074272927992" lon="121.79834474713924"><ele>78.40590511527031</ele><time>2026-04-06T08:02:42Z</time><src>Hikingbook</src><extensions><gpxhb:speed>1.215469</gpxhb:speed><gpxhb:course>144.190310</gpxhb:course></extensions></trkpt><trkpt lat="24.862984358179578" lon="121.79841543275556"><ele>76.01382120250746</ele><time>2026-04-06T08:02:50Z</time><src>Hikingbook</src><extensions><gpxhb:speed>1.238655</gpxhb:speed><gpxhb:course>137.884061</gpxhb:course></extensions></trkpt><trkpt lat="24.862791610264942" lon="121.79898171144676"><ele>69.80365678377574</ele><time>2026-04-06T08:03:34Z</time><src>Hikingbook</src><extensions><gpxhb:speed>1.276531</gpxhb:speed><gpxhb:course>111.200867</gpxhb:course></extensions></trkpt><trkpt lat="24.862784106936555" lon="121.79899223308472"><ele>69.75035495173387</ele><time>2026-04-06T08:03:35Z</time><src>Hikingbook</src><extensions><gpxhb:speed>1.238462</gpxhb:speed><gpxhb:course>113.428375</gpxhb:course></extensions></trkpt><trkpt lat="24.862326925188196" lon="121.79987495508959"><ele>58.93585553006219</ele><time>2026-04-06T08:05:20Z</time><src>Hikingbook</src><extensions><gpxhb:speed>1.037036</gpxhb:speed><gpxhb:course>122.077576</gpxhb:course></extensions></trkpt><trkpt lat="24.862326800737367" lon="121.79987976068443"><ele>58.33935650410039</ele><time>2026-04-06T08:05:21Z</time><src>Hikingbook</src><extensions><gpxhb:speed>0.861049</gpxhb:speed><gpxhb:course>122.077576</gpxhb:course></extensions></trkpt><trkpt lat="24.862165531247236" lon="121.8000749921867"><ele>60.30957312482869</ele><time>2026-04-06T08:47:44Z</time><src>Hikingbook</src><extensions><gpxhb:speed>0.064815</gpxhb:speed><gpxhb:course>122.852039</gpxhb:course></extensions></trkpt></trkseg></trk></gpx>