<?xml version="1.0" encoding="UTF-8"?>
<gpx version="1.1" creator="Hikingbook" xmlns:xsi="http://www.w3.org/2001/XMLSchema-instance" xmlns="http://www.topografix.com/GPX/1/1" xsi:schemaLocation="http://www.topografix.com/GPX/1/1 https://www.topografix.com/GPX/1/1/gpx.xsd https://hikingbook.net/xmlschemas/1/5 https:/hikingbook.net/xmlschemas/1/5/gpxhb.xsd" xmlns:gpxhb="https://hikingbook.net/xmlschemas/1/5"><metadata><name>🪢水井橋(2024-08-10）-「溪降」［🇹🇼宜蘭-南澳］</name><desc>-公裝-&#xA;🪢繩索：&#xA;&#xA;  CTRA 9mm-100米+&#xA;  CP 8.5mm-80米 +&#xA;  浮水垂降繩-30米+&#xA;  浮水垂降繩-30米&#xA;&#xA;扁帶*n、&#xA;梅隆索（套）*2&#xA;&#xA;-人員-&#xA;Jimce、&#xA;潾兒、&#xA;Richard、&#xA;小吳、&#xA;中信、&#xA;丹丹、&#xA;志霖、&#xA;怡、&#xA;瑪琳、&#xA;韋陵、&#xA;小林&#xA;&#xA;-接駁-&#xA;小黑接駁&#xA;一人$500 到水井橋</desc><author><name>Hikingbook</name><link href="https://hikingbook.net"><text>Hikingbook</text></link></author><link href="https://hikingbook.net/hikes/2024-8-10-%E6%99%A8%E9%96%93%E9%87%8D%E8%A3%9D%E7%99%BB%E5%B1%B1-%E5%8D%97%E6%BE%B3%E7%A5%9E%E7%A7%98%E6%B5%B7%E7%81%98%E6%AD%A5%E9%81%93-%E8%98%87%E8%8A%B1%E5%8F%A4%E9%81%93-%E6%B5%B7%E5%B2%B8%E6%AE%B5-7d18a29a"><text>Hikingbook</text></link><time>2026-07-12T21:31:54.667010785+08:00</time><keywords>Hikingbook,EzLife,Jimce,溪降,canyoning,宜蘭,水井橋</keywords><extensions><gpxhb:loadweight>10.0</gpxhb:loadweight><gpxhb:fitnesslevel>1</gpxhb:fitnesslevel><gpxhb:activitytype>others</gpxhb:activitytype><gpxhb:trailid>cc4efcb5-b6ec-4e57-b32f-058cf3e897f3</gpxhb:trailid><gpxhb:trackimageurl>https://assets.hikingbook.net/users/60w3wu1it91y2jmwdxciziq/t4sijfoqqeymuflveyiwew/8da7b9e6-c503-40f6-af40-87f94b7a9e59.jpg</gpxhb:trackimageurl><gpxhb:device>Apple iPhone 13 Pro</gpxhb:device><gpxhb:source>Hikingbook</gpxhb:source></extensions></metadata><wpt lat="24.378526113018744" lon="121.78347241144793"><ele>238</ele><time>2024-08-10T00:49:32Z</time><name>00 停車點A</name><cmt>2024-08-10T08:49:32+08:00</cmt><desc>00 停車點A</desc><src>Hikingbook</src><link href="https://hikingbook.net/hikes/t4sIJfoqQeymUFLvEyIWEw"><text>Hikingbook</text></link><extensions><gpxhb:weather>Clear</gpxhb:weather><gpxhb:speed>0.000000</gpxhb:speed><gpxhb:course>322.382812</gpxhb:course></extensions></wpt><wpt lat="24.378268580268568" lon="121.78324032432138"><ele>237</ele><time>2024-08-10T00:50:54Z</time><name>01 下水點</name><cmt>2024-08-10T08:50:54+08:00</cmt><desc>01 下水點</desc><src>Hikingbook</src><link href="https://hikingbook.net/hikes/t4sIJfoqQeymUFLvEyIWEw"><text>Hikingbook</text></link><extensions><gpxhb:weather>Clear</gpxhb:weather><gpxhb:speed>0.581547</gpxhb:speed><gpxhb:course>219.237828</gpxhb:course></extensions></wpt><wpt lat="24.37820939290463" lon="121.78351486307471"><ele>223</ele><time>2024-08-10T00:56:13Z</time><name>02 瀑1-3米-瀑頂</name><cmt>2024-08-10T08:56:13+08:00</cmt><desc>02 瀑1-3米-瀑頂</desc><src>Hikingbook</src><link href="https://hikingbook.net/hikes/t4sIJfoqQeymUFLvEyIWEw"><text>Hikingbook</text></link><extensions><gpxhb:weather>Clear</gpxhb:weather><gpxhb:speed>0.000000</gpxhb:speed><gpxhb:course>64.654492</gpxhb:course></extensions></wpt><wpt lat="24.378139623463504" lon="121.78358548332172"><ele>221</ele><time>2024-08-10T00:58:46Z</time><name>03 瀑1-瀑底</name><cmt>2024-08-10T08:58:46+08:00</cmt><desc>03 瀑1-瀑底</desc><src>Hikingbook</src><link href="https://hikingbook.net/hikes/t4sIJfoqQeymUFLvEyIWEw"><text>Hikingbook</text></link><extensions><gpxhb:weather>Clear</gpxhb:weather><gpxhb:speed>0.000000</gpxhb:speed><gpxhb:course>-1.000000</gpxhb:course></extensions></wpt><wpt lat="24.37813490034448" lon="121.7837586786055"><ele>216</ele><time>2024-08-10T01:00:20Z</time><name>04 小瀑</name><cmt>2024-08-10T09:00:20+08:00</cmt><desc>04 小瀑</desc><src>Hikingbook</src><link href="https://hikingbook.net/hikes/t4sIJfoqQeymUFLvEyIWEw"><text>Hikingbook</text></link><extensions><gpxhb:weather>Clear</gpxhb:weather><gpxhb:speed>0.000000</gpxhb:speed><gpxhb:course>-1.000000</gpxhb:course></extensions></wpt><wpt lat="24.37817145648173" lon="121.7837949878728"><ele>209</ele><time>2024-08-10T01:01:10Z</time><name>05 瀑2-55m-瀑頂「有中繼沒架設」</name><cmt>2024-08-10T09:01:10+08:00</cmt><desc>05 瀑2-55m-瀑頂「有中繼沒架設」</desc><src>Hikingbook</src><link href="https://hikingbook.net/hikes/t4sIJfoqQeymUFLvEyIWEw"><text>Hikingbook</text></link><extensions><gpxhb:weather>Clear</gpxhb:weather><gpxhb:speed>0.073122</gpxhb:speed><gpxhb:course>-1.000000</gpxhb:course></extensions></wpt><wpt lat="24.37811129262363" lon="121.78420264285225"><ele>182</ele><time>2024-08-10T01:25:02Z</time><name>06 瀑2-瀑底「有中繼沒架設」</name><cmt>2024-08-10T09:25:02+08:00</cmt><desc>06 瀑2-瀑底「有中繼沒架設」</desc><src>Hikingbook</src><link href="https://hikingbook.net/hikes/t4sIJfoqQeymUFLvEyIWEw"><text>Hikingbook</text></link><extensions><gpxhb:weather>Clear</gpxhb:weather><gpxhb:speed>0.000000</gpxhb:speed><gpxhb:course>-1.000000</gpxhb:course></extensions></wpt><wpt lat="24.378143263913913" lon="121.78437632131761"><ele>173</ele><time>2024-08-10T01:41:40Z</time><name>07 瀑3-4m-瀑頂</name><cmt>2024-08-10T09:41:40+08:00</cmt><desc>07 瀑3-4m-瀑頂</desc><src>Hikingbook</src><link href="https://hikingbook.net/hikes/t4sIJfoqQeymUFLvEyIWEw"><text>Hikingbook</text></link><extensions><gpxhb:weather>Clear</gpxhb:weather><gpxhb:speed>0.000000</gpxhb:speed><gpxhb:course>351.740354</gpxhb:course></extensions></wpt><wpt lat="24.378147502445326" lon="121.78431152377443"><ele>174</ele><time>2024-08-10T01:49:51Z</time><name>08 瀑3-7m-中繼點</name><cmt>2024-08-10T09:49:51+08:00</cmt><desc>08 瀑3-7m-中繼點</desc><src>Hikingbook</src><link href="https://hikingbook.net/hikes/t4sIJfoqQeymUFLvEyIWEw"><text>Hikingbook</text></link><extensions><gpxhb:weather>Clear</gpxhb:weather><gpxhb:speed>0.000000</gpxhb:speed><gpxhb:course>-1.000000</gpxhb:course></extensions></wpt><wpt lat="24.37814444305068" lon="121.78437044855374"><ele>163</ele><time>2024-08-10T01:53:21Z</time><name>09 瀑3-瀑底</name><cmt>2024-08-10T09:53:21+08:00</cmt><desc>09 瀑3-瀑底</desc><src>Hikingbook</src><link href="https://hikingbook.net/hikes/t4sIJfoqQeymUFLvEyIWEw"><text>Hikingbook</text></link><extensions><gpxhb:weather>Clear</gpxhb:weather><gpxhb:speed>0.000000</gpxhb:speed><gpxhb:course>-1.000000</gpxhb:course></extensions></wpt><wpt lat="24.37808683980736" lon="121.78446681298317"><ele>166</ele><time>2024-08-10T01:56:23Z</time><name>10 瀑4-2m-瀑頂</name><cmt>2024-08-10T09:56:23+08:00</cmt><desc>10 瀑4-2m-瀑頂</desc><src>Hikingbook</src><link href="https://hikingbook.net/hikes/t4sIJfoqQeymUFLvEyIWEw"><text>Hikingbook</text></link><extensions><gpxhb:weather>Clear</gpxhb:weather><gpxhb:speed>0.000000</gpxhb:speed><gpxhb:course>-1.000000</gpxhb:course></extensions></wpt><wpt lat="24.378150058925808" lon="121.78451889205891"><ele>162</ele><time>2024-08-10T03:14:41Z</time><name>11 瀑4-20m-中繼點</name><cmt>2024-08-10T11:14:41+08:00</cmt><desc>11 瀑4-20m-中繼點</desc><src>Hikingbook</src><link href="https://hikingbook.net/hikes/t4sIJfoqQeymUFLvEyIWEw"><text>Hikingbook</text></link><extensions><gpxhb:weather>Clear</gpxhb:weather><gpxhb:speed>0.000000</gpxhb:speed><gpxhb:course>-1.000000</gpxhb:course></extensions></wpt><wpt lat="24.37811692939006" lon="121.78458155069491"><ele>146</ele><time>2024-08-10T03:58:12Z</time><name>12 瀑4-瀑底</name><cmt>2024-08-10T11:58:12+08:00</cmt><desc>12 瀑4-瀑底</desc><src>Hikingbook</src><link href="https://hikingbook.net/hikes/t4sIJfoqQeymUFLvEyIWEw"><text>Hikingbook</text></link><extensions><gpxhb:weather>Clear</gpxhb:weather><gpxhb:speed>0.680000</gpxhb:speed><gpxhb:course>250.664060</gpxhb:course></extensions></wpt><wpt lat="24.37848602347092" lon="121.78524351910532"><ele>131</ele><time>2024-08-10T04:08:22Z</time><name>13 瀑5-35m-瀑頂</name><cmt>2024-08-10T12:08:22+08:00</cmt><desc>13 瀑5-35m-瀑頂</desc><src>Hikingbook</src><link href="https://hikingbook.net/hikes/t4sIJfoqQeymUFLvEyIWEw"><text>Hikingbook</text></link><extensions><gpxhb:weather>Clear</gpxhb:weather><gpxhb:speed>0.000000</gpxhb:speed><gpxhb:course>-1.000000</gpxhb:course></extensions></wpt><wpt lat="24.378563705854468" lon="121.78551122557538"><ele>136</ele><time>2024-08-10T05:08:41Z</time><name>14 瀑5-20m-中繼點</name><cmt>2024-08-10T13:08:41+08:00</cmt><desc>14 瀑5-20m-中繼點</desc><src>Hikingbook</src><link href="https://hikingbook.net/hikes/t4sIJfoqQeymUFLvEyIWEw"><text>Hikingbook</text></link><extensions><gpxhb:weather>Clear</gpxhb:weather><gpxhb:speed>0.230000</gpxhb:speed><gpxhb:course>-1.000000</gpxhb:course></extensions></wpt><wpt lat="24.378567987563997" lon="121.78561264104381"><ele>109</ele><time>2024-08-10T05:16:05Z</time><name>15 瀑5-瀑底</name><cmt>2024-08-10T13:16:05+08:00</cmt><desc>15 瀑5-瀑底</desc><src>Hikingbook</src><link href="https://hikingbook.net/hikes/t4sIJfoqQeymUFLvEyIWEw"><text>Hikingbook</text></link><extensions><gpxhb:weather>Clear</gpxhb:weather><gpxhb:speed>0.141267</gpxhb:speed><gpxhb:course>-1.000000</gpxhb:course></extensions></wpt><wpt lat="24.379281380881014" lon="121.78628231182809"><ele>64</ele><time>2024-08-10T05:32:09Z</time><name>16 小瀑-右案小路下切</name><cmt>2024-08-10T13:32:09+08:00</cmt><desc>16 小瀑-右案小路下切</desc><src>Hikingbook</src><link href="https://hikingbook.net/hikes/t4sIJfoqQeymUFLvEyIWEw"><text>Hikingbook</text></link><extensions><gpxhb:weather>Clear</gpxhb:weather><gpxhb:speed>0.000000</gpxhb:speed><gpxhb:course>95.457356</gpxhb:course></extensions></wpt><wpt lat="24.379149277263966" lon="121.78684783956793"><ele>39</ele><time>2024-08-10T05:41:12Z</time><name>17 出口抵達神秘沙灘</name><cmt>2024-08-10T13:41:12+08:00</cmt><desc>17 出口抵達神秘沙灘</desc><src>Hikingbook</src><link href="https://hikingbook.net/hikes/t4sIJfoqQeymUFLvEyIWEw"><text>Hikingbook</text></link><extensions><gpxhb:weather>Clear</gpxhb:weather><gpxhb:speed>0.042272</gpxhb:speed><gpxhb:course>84.162249</gpxhb:course></extensions></wpt><wpt lat="24.379206388273055" lon="121.78710663702505"><ele>26</ele><time>2024-08-10T05:46:10Z</time><name>18 小水坑</name><cmt>2024-08-10T13:46:10+08:00</cmt><desc>18 小水坑</desc><src>Hikingbook</src><link href="https://hikingbook.net/hikes/t4sIJfoqQeymUFLvEyIWEw"><text>Hikingbook</text></link><extensions><gpxhb:weather>Clear</gpxhb:weather><gpxhb:speed>0.000000</gpxhb:speed><gpxhb:course>-1.000000</gpxhb:course></extensions></wpt><wpt lat="24.380470231505814" lon="121.7872566802664"><ele>17</ele><time>2024-08-10T05:51:36Z</time><name>19 巨石陣</name><cmt>2024-08-10T13:51:36+08:00</cmt><desc>19 巨石陣</desc><src>Hikingbook</src><link href="https://hikingbook.net/hikes/t4sIJfoqQeymUFLvEyIWEw"><text>Hikingbook</text></link><extensions><gpxhb:weather>Clear</gpxhb:weather><gpxhb:speed>0.000000</gpxhb:speed><gpxhb:course>357.067351</gpxhb:course></extensions></wpt><wpt lat="24.38241270294664" lon="121.78723565511548"><ele>26</ele><time>2024-08-10T05:57:10Z</time><name>20 海蝕洞</name><cmt>2024-08-10T13:57:10+08:00</cmt><desc>20 海蝕洞</desc><src>Hikingbook</src><link href="https://hikingbook.net/hikes/t4sIJfoqQeymUFLvEyIWEw"><text>Hikingbook</text></link><extensions><gpxhb:weather>Clear</gpxhb:weather><gpxhb:speed>0.000000</gpxhb:speed><gpxhb:course>259.979085</gpxhb:course></extensions></wpt><wpt lat="24.382779356574613" lon="121.787273695908"><ele>25</ele><time>2024-08-10T05:58:45Z</time><name>21 巨石陣</name><cmt>2024-08-10T13:58:45+08:00</cmt><desc>21 巨石陣</desc><src>Hikingbook</src><link href="https://hikingbook.net/hikes/t4sIJfoqQeymUFLvEyIWEw"><text>Hikingbook</text></link><extensions><gpxhb:weather>Clear</gpxhb:weather><gpxhb:speed>0.140723</gpxhb:speed><gpxhb:course>3.273053</gpxhb:course></extensions></wpt><wpt lat="24.383199046821" lon="121.78739399307848"><ele>28</ele><time>2024-08-10T06:01:01Z</time><name>22 瀑布</name><cmt>2024-08-10T14:01:01+08:00</cmt><desc>22 瀑布</desc><src>Hikingbook</src><link href="https://hikingbook.net/hikes/t4sIJfoqQeymUFLvEyIWEw"><text>Hikingbook</text></link><extensions><gpxhb:weather>Clear</gpxhb:weather><gpxhb:speed>0.000000</gpxhb:speed><gpxhb:course>59.365738</gpxhb:course></extensions></wpt><wpt lat="24.3831843470084" lon="121.78740754383016"><ele>30</ele><time>2024-08-10T06:01:29Z</time><name>23 白海豚石</name><cmt>2024-08-10T14:01:29+08:00</cmt><desc>23 白海豚石</desc><src>Hikingbook</src><link href="https://hikingbook.net/hikes/t4sIJfoqQeymUFLvEyIWEw"><text>Hikingbook</text></link><extensions><gpxhb:weather>Clear</gpxhb:weather><gpxhb:speed>0.142460</gpxhb:speed><gpxhb:course>52.211552</gpxhb:course></extensions></wpt><wpt lat="24.39314894406085" lon="121.78832739675985"><ele>5</ele><time>2024-08-10T06:24:41Z</time><name>24 瀑布</name><cmt>2024-08-10T14:24:41+08:00</cmt><desc>24 瀑布</desc><src>Hikingbook</src><link href="https://hikingbook.net/hikes/t4sIJfoqQeymUFLvEyIWEw"><text>Hikingbook</text></link><extensions><gpxhb:weather>Clear</gpxhb:weather><gpxhb:speed>0.645974</gpxhb:speed><gpxhb:course>15.663852</gpxhb:course></extensions></wpt><wpt lat="24.396576458293193" lon="121.78869478014867"><ele>8</ele><time>2024-08-10T06:30:52Z</time><name>25 白雲石-接駁最後點</name><cmt>2024-08-10T14:30:52+08:00</cmt><desc>25 白雲石-接駁最後點</desc><src>Hikingbook</src><link href="https://hikingbook.net/hikes/t4sIJfoqQeymUFLvEyIWEw"><text>Hikingbook</text></link><extensions><gpxhb:weather>Clear</gpxhb:weather><gpxhb:speed>0.950764</gpxhb:speed><gpxhb:course>24.165661</gpxhb:course></extensions></wpt><wpt lat="24.399732971286653" lon="121.78899111761851"><ele>14</ele><time>2024-08-10T06:38:45Z</time><name>26 新瀑布「接駁點」</name><cmt>2024-08-10T14:38:45+08:00</cmt><desc>26 新瀑布「接駁點」</desc><src>Hikingbook</src><link href="https://hikingbook.net/hikes/t4sIJfoqQeymUFLvEyIWEw"><text>Hikingbook</text></link><extensions><gpxhb:weather>Clear</gpxhb:weather><gpxhb:speed>0.180195</gpxhb:speed><gpxhb:course>284.866095</gpxhb:course></extensions></wpt><wpt lat="24.399655548238044" lon="121.78899581961358"><ele>14</ele><time>2024-08-10T06:39:48Z</time><name>27 海蝕洞</name><cmt>2024-08-10T14:39:48+08:00</cmt><desc>27 海蝕洞</desc><src>Hikingbook</src><link href="https://hikingbook.net/hikes/t4sIJfoqQeymUFLvEyIWEw"><text>Hikingbook</text></link><extensions><gpxhb:weather>Clear</gpxhb:weather><gpxhb:speed>0.134954</gpxhb:speed><gpxhb:course>20.479252</gpxhb:course></extensions></wpt><wpt lat="24.402942407173544" lon="121.78941381796885"><ele>11</ele><time>2024-08-10T06:48:15Z</time><name>28 滴水坑瀑布</name><cmt>2024-08-10T14:48:15+08:00</cmt><desc>28 滴水坑瀑布</desc><src>Hikingbook</src><link href="https://hikingbook.net/hikes/t4sIJfoqQeymUFLvEyIWEw"><text>Hikingbook</text></link><extensions><gpxhb:weather>Clear</gpxhb:weather><gpxhb:speed>0.296979</gpxhb:speed><gpxhb:course>-1.000000</gpxhb:course></extensions></wpt><wpt lat="24.437672035881658" lon="121.80146343318512"><ele>14</ele><time>2024-08-10T07:23:33Z</time><name>29 停車點B</name><cmt>2024-08-10T15:23:33+08:00</cmt><desc>29 停車點B</desc><src>Hikingbook</src><link href="https://hikingbook.net/hikes/t4sIJfoqQeymUFLvEyIWEw"><text>Hikingbook</text></link><extensions><gpxhb:weather>Clear</gpxhb:weather><gpxhb:speed>0.000000</gpxhb:speed><gpxhb:course>287.485313</gpxhb:course></extensions></wpt><trk><name>🪢水井橋(2024-08-10）-「溪降」［🇹🇼宜蘭-南澳］</name><cmt>-公裝-&#xA;🪢繩索：&#xA;&#xA;  CTRA 9mm-100米+&#xA;  CP 8.5mm-80米 +&#xA;  浮水垂降繩-30米+&#xA;  浮水垂降繩-30米&#xA;&#xA;扁帶*n、&#xA;梅隆索（套）*2&#xA;&#xA;-人員-&#xA;Jimce、&#xA;潾兒、&#xA;Richard、&#xA;小吳、&#xA;中信、&#xA;丹丹、&#xA;志霖、&#xA;怡、&#xA;瑪琳、&#xA;韋陵、&#xA;小林&#xA;&#xA;-接駁-&#xA;小黑接駁&#xA;一人$500 到水井橋</cmt><desc>-公裝-&#xA;🪢繩索：&#xA;&#xA;  CTRA 9mm-100米+&#xA;  CP 8.5mm-80米 +&#xA;  浮水垂降繩-30米+&#xA;  浮水垂降繩-30米&#xA;&#xA;扁帶*n、&#xA;梅隆索（套）*2&#xA;&#xA;-人員-&#xA;Jimce、&#xA;潾兒、&#xA;Richard、&#xA;小吳、&#xA;中信、&#xA;丹丹、&#xA;志霖、&#xA;怡、&#xA;瑪琳、&#xA;韋陵、&#xA;小林&#xA;&#xA;-接駁-&#xA;小黑接駁&#xA;一人$500 到水井橋</desc><src>Hikingbook</src><link href="https://hikingbook.net/hikes/2024-8-10-%E6%99%A8%E9%96%93%E9%87%8D%E8%A3%9D%E7%99%BB%E5%B1%B1-%E5%8D%97%E6%BE%B3%E7%A5%9E%E7%A7%98%E6%B5%B7%E7%81%98%E6%AD%A5%E9%81%93-%E8%98%87%E8%8A%B1%E5%8F%A4%E9%81%93-%E6%B5%B7%E5%B2%B8%E6%AE%B5-7d18a29a"><text>Hikingbook</text></link><trkseg><trkpt lat="24.378515671952048" lon="121.783479875343"><ele>237.91098462373716</ele><time>2024-08-10T00:49:33Z</time><src>Hikingbook</src><extensions><gpxhb:speed>0.000000</gpxhb:speed><gpxhb:course>322.382812</gpxhb:course></extensions></trkpt><trkpt lat="24.37827703140881" lon="121.78318841159508"><ele>244.96466438320948</ele><time>2024-08-10T00:51:14Z</time><src>Hikingbook</src><extensions><gpxhb:speed>0.216217</gpxhb:speed><gpxhb:course>-1.000000</gpxhb:course></extensions></trkpt><trkpt lat="24.378065765716606" lon="121.7832059947134"><ele>240.35007105958644</ele><time>2024-08-10T00:51:41Z</time><src>Hikingbook</src><extensions><gpxhb:speed>1.990180</gpxhb:speed><gpxhb:course>172.375072</gpxhb:course></extensions></trkpt><trkpt lat="24.378191638647525" lon="121.78312128151723"><ele>243.1364245959304</ele><time>2024-08-10T00:51:57Z</time><src>Hikingbook</src><extensions><gpxhb:speed>0.370000</gpxhb:speed><gpxhb:course>-1.000000</gpxhb:course></extensions></trkpt><trkpt lat="24.378478447016136" lon="121.78325924333087"><ele>241.33276264966347</ele><time>2024-08-10T00:52:12Z</time><src>Hikingbook</src><extensions><gpxhb:speed>2.116807</gpxhb:speed><gpxhb:course>-1.000000</gpxhb:course></extensions></trkpt><trkpt lat="24.37832563464575" lon="121.78320492122221"><ele>241.6803981390235</ele><time>2024-08-10T00:52:29Z</time><src>Hikingbook</src><extensions><gpxhb:speed>0.000000</gpxhb:speed><gpxhb:course>47.877417</gpxhb:course></extensions></trkpt><trkpt lat="24.37815564767528" lon="121.78315001524977"><ele>233.38164195906558</ele><time>2024-08-10T00:53:25Z</time><src>Hikingbook</src><extensions><gpxhb:speed>0.000000</gpxhb:speed><gpxhb:course>-1.000000</gpxhb:course></extensions></trkpt><trkpt lat="24.378202211227574" lon="121.78350362928171"><ele>222.50113548801977</ele><time>2024-08-10T00:56:22Z</time><src>Hikingbook</src><extensions><gpxhb:speed>0.000000</gpxhb:speed><gpxhb:course>275.410772</gpxhb:course></extensions></trkpt></trkseg><trkseg><trkpt lat="24.378202211227574" lon="121.78350362928171"><ele>222.50113548801977</ele><time>2024-08-10T00:58:46Z</time><src>Hikingbook</src><extensions><gpxhb:speed>0.000000</gpxhb:speed><gpxhb:course>275.410772</gpxhb:course></extensions></trkpt><trkpt lat="24.37813771160824" lon="121.78358464584173"><ele>221.21847055527422</ele><time>2024-08-10T00:58:48Z</time><src>Hikingbook</src><extensions><gpxhb:speed>0.000000</gpxhb:speed><gpxhb:course>35.156250</gpxhb:course></extensions></trkpt><trkpt lat="24.37817160622853" lon="121.7837201745796"><ele>219.62820236975546</ele><time>2024-08-10T00:59:44Z</time><src>Hikingbook</src><extensions><gpxhb:speed>0.496881</gpxhb:speed><gpxhb:course>-1.000000</gpxhb:course></extensions></trkpt><trkpt lat="24.378214712784718" lon="121.78370808128226"><ele>218.18260721749493</ele><time>2024-08-10T01:00:01Z</time><src>Hikingbook</src><extensions><gpxhb:speed>0.702686</gpxhb:speed><gpxhb:course>-1.000000</gpxhb:course></extensions></trkpt><trkpt lat="24.378127576893004" lon="121.78376663623833"><ele>218.37995981018554</ele><time>2024-08-10T01:00:16Z</time><src>Hikingbook</src><extensions><gpxhb:speed>0.322432</gpxhb:speed><gpxhb:course>-1.000000</gpxhb:course></extensions></trkpt><trkpt lat="24.378191151080824" lon="121.7837967227732"><ele>211.8641556852187</ele><time>2024-08-10T01:01:05Z</time><src>Hikingbook</src><extensions><gpxhb:speed>1.660205</gpxhb:speed><gpxhb:course>288.819812</gpxhb:course></extensions></trkpt></trkseg><trkseg><trkpt lat="24.378191151080824" lon="121.7837967227732"><ele>211.8641556852187</ele><time>2024-08-10T01:23:00Z</time><src>Hikingbook</src><extensions><gpxhb:speed>1.660205</gpxhb:speed><gpxhb:course>288.819812</gpxhb:course></extensions></trkpt><trkpt lat="24.378187651804023" lon="121.78411764923659"><ele>188.89488060226478</ele><time>2024-08-10T01:23:04Z</time><src>Hikingbook</src><extensions><gpxhb:speed>0.880000</gpxhb:speed><gpxhb:course>210.585938</gpxhb:course></extensions></trkpt></trkseg><trkseg><trkpt lat="24.378187651804023" lon="121.78411764923659"><ele>188.89488060226478</ele><time>2024-08-10T01:25:02Z</time><src>Hikingbook</src><extensions><gpxhb:speed>0.880000</gpxhb:speed><gpxhb:course>210.585938</gpxhb:course></extensions></trkpt><trkpt lat="24.378102815668832" lon="121.78423354885803"><ele>181.6181631530465</ele><time>2024-08-10T01:25:14Z</time><src>Hikingbook</src><extensions><gpxhb:speed>0.126182</gpxhb:speed><gpxhb:course>-1.000000</gpxhb:course></extensions></trkpt></trkseg><trkseg><trkpt lat="24.378102815668832" lon="121.78423354885803"><ele>181.6181631530465</ele><time>2024-08-10T01:40:20Z</time><src>Hikingbook</src><extensions><gpxhb:speed>0.126182</gpxhb:speed><gpxhb:course>-1.000000</gpxhb:course></extensions></trkpt><trkpt lat="24.37818329046818" lon="121.78434001545511"><ele>186.57959439670685</ele><time>2024-08-10T01:40:26Z</time><src>Hikingbook</src><extensions><gpxhb:speed>0.580000</gpxhb:speed><gpxhb:course>285.468750</gpxhb:course></extensions></trkpt><trkpt lat="24.378161531702006" lon="121.78429121156542"><ele>178.52638553236795</ele><time>2024-08-10T01:40:42Z</time><src>Hikingbook</src><extensions><gpxhb:speed>0.640000</gpxhb:speed><gpxhb:course>156.796876</gpxhb:course></extensions></trkpt><trkpt lat="24.378134073059044" lon="121.78439631584176"><ele>177.28682175409335</ele><time>2024-08-10T01:41:08Z</time><src>Hikingbook</src><extensions><gpxhb:speed>0.268820</gpxhb:speed><gpxhb:course>-1.000000</gpxhb:course></extensions></trkpt><trkpt lat="24.378189427427074" lon="121.7843971876653"><ele>172.76228425477683</ele><time>2024-08-10T01:41:24Z</time><src>Hikingbook</src><extensions><gpxhb:speed>0.808399</gpxhb:speed><gpxhb:course>-1.000000</gpxhb:course></extensions></trkpt></trkseg><trkseg><trkpt lat="24.378189427427074" lon="121.7843971876653"><ele>172.76228425477683</ele><time>2024-08-10T01:56:23Z</time><src>Hikingbook</src><extensions><gpxhb:speed>0.808399</gpxhb:speed><gpxhb:course>-1.000000</gpxhb:course></extensions></trkpt><trkpt lat="24.37808689148057" lon="121.78446676386828"><ele>165.81816856068295</ele><time>2024-08-10T01:56:25Z</time><src>Hikingbook</src><extensions><gpxhb:speed>0.104285</gpxhb:speed><gpxhb:course>-1.000000</gpxhb:course></extensions></trkpt></trkseg><trkseg><trkpt lat="24.37808689148057" lon="121.78446676386828"><ele>165.81816856068295</ele><time>2024-08-10T03:14:41Z</time><src>Hikingbook</src><extensions><gpxhb:speed>0.104285</gpxhb:speed><gpxhb:course>-1.000000</gpxhb:course></extensions></trkpt><trkpt lat="24.37815005928111" lon="121.78451887358308"><ele>161.96853443856702</ele><time>2024-08-10T03:14:42Z</time><src>Hikingbook</src><extensions><gpxhb:speed>0.000000</gpxhb:speed><gpxhb:course>-1.000000</gpxhb:course></extensions></trkpt></trkseg><trkseg><trkpt lat="24.37815005928111" lon="121.78451887358308"><ele>161.96853443856702</ele><time>2024-08-10T03:58:12Z</time><src>Hikingbook</src><extensions><gpxhb:speed>0.000000</gpxhb:speed><gpxhb:course>-1.000000</gpxhb:course></extensions></trkpt><trkpt lat="24.37811718553585" lon="121.78459169086838"><ele>145.14574399505773</ele><time>2024-08-10T03:58:21Z</time><src>Hikingbook</src><extensions><gpxhb:speed>0.190000</gpxhb:speed><gpxhb:course>-1.000000</gpxhb:course></extensions></trkpt></trkseg><trkseg><trkpt lat="24.37811718553585" lon="121.78459169086838"><ele>145.14574399505773</ele><time>2024-08-10T04:02:46Z</time><src>Hikingbook</src><extensions><gpxhb:speed>0.190000</gpxhb:speed><gpxhb:course>-1.000000</gpxhb:course></extensions></trkpt><trkpt lat="24.378252126574438" lon="121.784881079554"><ele>152.7409687606882</ele><time>2024-08-10T04:03:24Z</time><src>Hikingbook</src><extensions><gpxhb:speed>0.501643</gpxhb:speed><gpxhb:course>-1.000000</gpxhb:course></extensions></trkpt><trkpt lat="24.378228893830528" lon="121.78494293124074"><ele>152.1654736902372</ele><time>2024-08-10T04:03:40Z</time><src>Hikingbook</src><extensions><gpxhb:speed>0.332415</gpxhb:speed><gpxhb:course>98.270781</gpxhb:course></extensions></trkpt><trkpt lat="24.378366621130404" lon="121.78498948370397"><ele>148.47841718864692</ele><time>2024-08-10T04:04:59Z</time><src>Hikingbook</src><extensions><gpxhb:speed>0.168353</gpxhb:speed><gpxhb:course>242.922796</gpxhb:course></extensions></trkpt><trkpt lat="24.378466439124274" lon="121.78515894523937"><ele>143.3938373426368</ele><time>2024-08-10T04:06:08Z</time><src>Hikingbook</src><extensions><gpxhb:speed>0.379525</gpxhb:speed><gpxhb:course>39.370808</gpxhb:course></extensions></trkpt><trkpt lat="24.378420407613884" lon="121.78526823314829"><ele>140.53056834634057</ele><time>2024-08-10T04:06:37Z</time><src>Hikingbook</src><extensions><gpxhb:speed>1.432181</gpxhb:speed><gpxhb:course>115.929436</gpxhb:course></extensions></trkpt><trkpt lat="24.3784996112725" lon="121.78529812534414"><ele>140.22554688890125</ele><time>2024-08-10T04:06:53Z</time><src>Hikingbook</src><extensions><gpxhb:speed>0.452471</gpxhb:speed><gpxhb:course>107.908888</gpxhb:course></extensions></trkpt><trkpt lat="24.37848321266953" lon="121.78524557488093"><ele>131.42872029459102</ele><time>2024-08-10T04:08:20Z</time><src>Hikingbook</src><extensions><gpxhb:speed>0.152442</gpxhb:speed><gpxhb:course>-1.000000</gpxhb:course></extensions></trkpt></trkseg><trkseg><trkpt lat="24.37848321266953" lon="121.78524557488093"><ele>131.42872029459102</ele><time>2024-08-10T05:08:41Z</time><src>Hikingbook</src><extensions><gpxhb:speed>0.152442</gpxhb:speed><gpxhb:course>-1.000000</gpxhb:course></extensions></trkpt><trkpt lat="24.378664200470045" lon="121.78554466645794"><ele>136.29906763804053</ele><time>2024-08-10T05:08:43Z</time><src>Hikingbook</src><extensions><gpxhb:speed>0.000000</gpxhb:speed><gpxhb:course>-1.000000</gpxhb:course></extensions></trkpt></trkseg><trkseg><trkpt lat="24.378664200470045" lon="121.78554466645794"><ele>136.29906763804053</ele><time>2024-08-10T05:16:05Z</time><src>Hikingbook</src><extensions><gpxhb:speed>0.000000</gpxhb:speed><gpxhb:course>-1.000000</gpxhb:course></extensions></trkpt><trkpt lat="24.378550642257235" lon="121.78562090346071"><ele>110.79172289140969</ele><time>2024-08-10T05:16:17Z</time><src>Hikingbook</src><extensions><gpxhb:speed>0.209867</gpxhb:speed><gpxhb:course>-1.000000</gpxhb:course></extensions></trkpt></trkseg><trkseg><trkpt lat="24.378550642257235" lon="121.78562090346071"><ele>110.79172289140969</ele><time>2024-08-10T05:22:32Z</time><src>Hikingbook</src><extensions><gpxhb:speed>0.209867</gpxhb:speed><gpxhb:course>-1.000000</gpxhb:course></extensions></trkpt><trkpt lat="24.37856800879373" lon="121.78553361652499"><ele>96.49929885510267</ele><time>2024-08-10T05:22:34Z</time><src>Hikingbook</src><extensions><gpxhb:speed>0.983022</gpxhb:speed><gpxhb:course>56.242749</gpxhb:course></extensions></trkpt><trkpt lat="24.378618736687493" lon="121.78584035769883"><ele>105.90747722563326</ele><time>2024-08-10T05:23:00Z</time><src>Hikingbook</src><extensions><gpxhb:speed>1.432605</gpxhb:speed><gpxhb:course>117.216113</gpxhb:course></extensions></trkpt><trkpt lat="24.378576639127175" lon="121.7858095991946"><ele>102.14232861868688</ele><time>2024-08-10T05:23:16Z</time><src>Hikingbook</src><extensions><gpxhb:speed>0.731253</gpxhb:speed><gpxhb:course>-1.000000</gpxhb:course></extensions></trkpt><trkpt lat="24.378718716766393" lon="121.78581766365213"><ele>101.62548961700877</ele><time>2024-08-10T05:23:35Z</time><src>Hikingbook</src><extensions><gpxhb:speed>1.162579</gpxhb:speed><gpxhb:course>-1.000000</gpxhb:course></extensions></trkpt><trkpt lat="24.378616235979376" lon="121.78572790211891"><ele>102.44584127416793</ele><time>2024-08-10T05:23:55Z</time><src>Hikingbook</src><extensions><gpxhb:speed>0.848610</gpxhb:speed><gpxhb:course>-1.000000</gpxhb:course></extensions></trkpt><trkpt lat="24.378693335659854" lon="121.78571650981233"><ele>106.1818097621628</ele><time>2024-08-10T05:24:11Z</time><src>Hikingbook</src><extensions><gpxhb:speed>0.439135</gpxhb:speed><gpxhb:course>-1.000000</gpxhb:course></extensions></trkpt><trkpt lat="24.378709912561966" lon="121.7858232485045"><ele>104.4378160497633</ele><time>2024-08-10T05:24:26Z</time><src>Hikingbook</src><extensions><gpxhb:speed>0.346465</gpxhb:speed><gpxhb:course>-1.000000</gpxhb:course></extensions></trkpt><trkpt lat="24.378769784169226" lon="121.78578460094562"><ele>104.00065481849926</ele><time>2024-08-10T05:25:16Z</time><src>Hikingbook</src><extensions><gpxhb:speed>0.847888</gpxhb:speed><gpxhb:course>-1.000000</gpxhb:course></extensions></trkpt><trkpt lat="24.37875270099247" lon="121.78589899736475"><ele>94.48794424277597</ele><time>2024-08-10T05:25:58Z</time><src>Hikingbook</src><extensions><gpxhb:speed>0.578294</gpxhb:speed><gpxhb:course>-1.000000</gpxhb:course></extensions></trkpt><trkpt lat="24.37886067367566" lon="121.785831767928"><ele>91.37258789286497</ele><time>2024-08-10T05:26:14Z</time><src>Hikingbook</src><extensions><gpxhb:speed>1.074366</gpxhb:speed><gpxhb:course>-1.000000</gpxhb:course></extensions></trkpt><trkpt lat="24.378935981858728" lon="121.7859319542894"><ele>89.06970170916738</ele><time>2024-08-10T05:26:31Z</time><src>Hikingbook</src><extensions><gpxhb:speed>0.992596</gpxhb:speed><gpxhb:course>-1.000000</gpxhb:course></extensions></trkpt><trkpt lat="24.379023345683834" lon="121.78588685275287"><ele>87.7703213022183</ele><time>2024-08-10T05:26:47Z</time><src>Hikingbook</src><extensions><gpxhb:speed>2.917932</gpxhb:speed><gpxhb:course>348.685301</gpxhb:course></extensions></trkpt><trkpt lat="24.378924720376734" lon="121.78595164138203"><ele>86.85591535496297</ele><time>2024-08-10T05:27:03Z</time><src>Hikingbook</src><extensions><gpxhb:speed>0.664601</gpxhb:speed><gpxhb:course>-1.000000</gpxhb:course></extensions></trkpt><trkpt lat="24.37893557837096" lon="121.78601868601123"><ele>85.93669037474109</ele><time>2024-08-10T05:27:23Z</time><src>Hikingbook</src><extensions><gpxhb:speed>0.250463</gpxhb:speed><gpxhb:course>326.768213</gpxhb:course></extensions></trkpt><trkpt lat="24.379003953240247" lon="121.78599440468263"><ele>82.19632719709972</ele><time>2024-08-10T05:27:49Z</time><src>Hikingbook</src><extensions><gpxhb:speed>0.508579</gpxhb:speed><gpxhb:course>326.768210</gpxhb:course></extensions></trkpt><trkpt lat="24.3789601779288" lon="121.78607498124805"><ele>80.93117409259516</ele><time>2024-08-10T05:28:05Z</time><src>Hikingbook</src><extensions><gpxhb:speed>0.150879</gpxhb:speed><gpxhb:course>326.768263</gpxhb:course></extensions></trkpt><trkpt lat="24.378972181096312" lon="121.7860248876925"><ele>77.25289311194359</ele><time>2024-08-10T05:28:23Z</time><src>Hikingbook</src><extensions><gpxhb:speed>0.669192</gpxhb:speed><gpxhb:course>318.358713</gpxhb:course></extensions></trkpt><trkpt lat="24.379067010556675" lon="121.78611426478071"><ele>75.06243407242756</ele><time>2024-08-10T05:28:52Z</time><src>Hikingbook</src><extensions><gpxhb:speed>1.017898</gpxhb:speed><gpxhb:course>33.696064</gpxhb:course></extensions></trkpt><trkpt lat="24.37918664902941" lon="121.78611053504274"><ele>70.38892948211604</ele><time>2024-08-10T05:29:24Z</time><src>Hikingbook</src><extensions><gpxhb:speed>0.408783</gpxhb:speed><gpxhb:course>33.696038</gpxhb:course></extensions></trkpt><trkpt lat="24.379181745843614" lon="121.7861838811856"><ele>66.62525613217703</ele><time>2024-08-10T05:29:46Z</time><src>Hikingbook</src><extensions><gpxhb:speed>0.000000</gpxhb:speed><gpxhb:course>63.342749</gpxhb:course></extensions></trkpt><trkpt lat="24.37928578849489" lon="121.78617455685628"><ele>57.49898163615068</ele><time>2024-08-10T05:31:31Z</time><src>Hikingbook</src><extensions><gpxhb:speed>0.698820</gpxhb:speed><gpxhb:course>289.545143</gpxhb:course></extensions></trkpt><trkpt lat="24.379288166607285" lon="121.78625132783652"><ele>63.15122189555788</ele><time>2024-08-10T05:31:47Z</time><src>Hikingbook</src><extensions><gpxhb:speed>0.935542</gpxhb:speed><gpxhb:course>83.641050</gpxhb:course></extensions></trkpt><trkpt lat="24.37928245458018" lon="121.78626685586197"><ele>64.27993314887124</ele><time>2024-08-10T05:31:48Z</time><src>Hikingbook</src><extensions><gpxhb:speed>1.185346</gpxhb:speed><gpxhb:course>98.301171</gpxhb:course></extensions></trkpt><trkpt lat="24.37920922714376" lon="121.78628191400139"><ele>60.61489871650547</ele><time>2024-08-10T05:32:58Z</time><src>Hikingbook</src><extensions><gpxhb:speed>0.000000</gpxhb:speed><gpxhb:course>188.681172</gpxhb:course></extensions></trkpt><trkpt lat="24.379263929287095" lon="121.78644620709515"><ele>53.22217640427361</ele><time>2024-08-10T05:34:11Z</time><src>Hikingbook</src><extensions><gpxhb:speed>0.013372</gpxhb:speed><gpxhb:course>63.474863</gpxhb:course></extensions></trkpt></trkseg><trkseg><trkpt lat="24.379263929287095" lon="121.78644620709515"><ele>53.22217640427361</ele><time>2024-08-10T05:35:16Z</time><src>Hikingbook</src><extensions><gpxhb:speed>0.013372</gpxhb:speed><gpxhb:course>63.474863</gpxhb:course></extensions></trkpt><trkpt lat="24.379286979507068" lon="121.78634463962443"><ele>52.71331526489448</ele><time>2024-08-10T05:35:18Z</time><src>Hikingbook</src><extensions><gpxhb:speed>0.201945</gpxhb:speed><gpxhb:course>-1.000000</gpxhb:course></extensions></trkpt><trkpt lat="24.379234800467202" lon="121.78642943917694"><ele>48.749140516705786</ele><time>2024-08-10T05:35:34Z</time><src>Hikingbook</src><extensions><gpxhb:speed>0.746529</gpxhb:speed><gpxhb:course>138.611526</gpxhb:course></extensions></trkpt><trkpt lat="24.379283533648422" lon="121.78644416208792"><ele>41.11011847083388</ele><time>2024-08-10T05:36:10Z</time><src>Hikingbook</src><extensions><gpxhb:speed>0.781827</gpxhb:speed><gpxhb:course>-1.000000</gpxhb:course></extensions></trkpt><trkpt lat="24.379303214526775" lon="121.78663597785385"><ele>39.71155541804015</ele><time>2024-08-10T05:36:57Z</time><src>Hikingbook</src><extensions><gpxhb:speed>0.119970</gpxhb:speed><gpxhb:course>-1.000000</gpxhb:course></extensions></trkpt><trkpt lat="24.379312145865804" lon="121.78637135128515"><ele>37.885329181186755</ele><time>2024-08-10T05:37:19Z</time><src>Hikingbook</src><extensions><gpxhb:speed>0.089481</gpxhb:speed><gpxhb:course>-1.000000</gpxhb:course></extensions></trkpt><trkpt lat="24.379321788181183" lon="121.78657118782321"><ele>44.222901876783695</ele><time>2024-08-10T05:37:46Z</time><src>Hikingbook</src><extensions><gpxhb:speed>0.000000</gpxhb:speed><gpxhb:course>-1.000000</gpxhb:course></extensions></trkpt><trkpt lat="24.379234583597285" lon="121.7865163608233"><ele>41.96849173766044</ele><time>2024-08-10T05:38:38Z</time><src>Hikingbook</src><extensions><gpxhb:speed>0.105446</gpxhb:speed><gpxhb:course>75.666761</gpxhb:course></extensions></trkpt><trkpt lat="24.3793291383611" lon="121.78663234064562"><ele>42.16366097017077</ele><time>2024-08-10T05:39:11Z</time><src>Hikingbook</src><extensions><gpxhb:speed>0.637470</gpxhb:speed><gpxhb:course>84.307369</gpxhb:course></extensions></trkpt><trkpt lat="24.37929052995643" lon="121.78671173158041"><ele>38.36183388564242</ele><time>2024-08-10T05:39:36Z</time><src>Hikingbook</src><extensions><gpxhb:speed>0.167400</gpxhb:speed><gpxhb:course>35.481413</gpxhb:course></extensions></trkpt><trkpt lat="24.379209489885543" lon="121.78663427910006"><ele>38.25783257823851</ele><time>2024-08-10T05:39:52Z</time><src>Hikingbook</src><extensions><gpxhb:speed>0.109673</gpxhb:speed><gpxhb:course>304.014256</gpxhb:course></extensions></trkpt><trkpt lat="24.37922626169101" lon="121.78680349751139"><ele>38.7637945257666</ele><time>2024-08-10T05:40:18Z</time><src>Hikingbook</src><extensions><gpxhb:speed>0.521146</gpxhb:speed><gpxhb:course>160.559615</gpxhb:course></extensions></trkpt><trkpt lat="24.37914214782733" lon="121.78667618405377"><ele>36.263514755829874</ele><time>2024-08-10T05:40:44Z</time><src>Hikingbook</src><extensions><gpxhb:speed>0.228661</gpxhb:speed><gpxhb:course>163.582717</gpxhb:course></extensions></trkpt><trkpt lat="24.37916690041816" lon="121.7870267533811"><ele>30.566302479536247</ele><time>2024-08-10T05:42:48Z</time><src>Hikingbook</src><extensions><gpxhb:speed>0.410369</gpxhb:speed><gpxhb:course>106.787923</gpxhb:course></extensions></trkpt><trkpt lat="24.379226370833237" lon="121.78705643196352"><ele>26.85922042830227</ele><time>2024-08-10T05:43:19Z</time><src>Hikingbook</src><extensions><gpxhb:speed>0.000000</gpxhb:speed><gpxhb:course>-1.000000</gpxhb:course></extensions></trkpt></trkseg><trkseg><trkpt lat="24.379226370833237" lon="121.78705643196352"><ele>26.85922042830227</ele><time>2024-08-10T05:46:10Z</time><src>Hikingbook</src><extensions><gpxhb:speed>0.000000</gpxhb:speed><gpxhb:course>-1.000000</gpxhb:course></extensions></trkpt><trkpt lat="24.379204468604865" lon="121.78710621970588"><ele>26.333727652173188</ele><time>2024-08-10T05:46:11Z</time><src>Hikingbook</src><extensions><gpxhb:speed>0.000000</gpxhb:speed><gpxhb:course>-1.000000</gpxhb:course></extensions></trkpt><trkpt lat="24.37941977048526" lon="121.78710312747603"><ele>20.376677520844073</ele><time>2024-08-10T05:47:50Z</time><src>Hikingbook</src><extensions><gpxhb:speed>0.384967</gpxhb:speed><gpxhb:course>36.272759</gpxhb:course></extensions></trkpt><trkpt lat="24.379741264533273" lon="121.78726015419748"><ele>12.53110955183511</ele><time>2024-08-10T05:49:20Z</time><src>Hikingbook</src><extensions><gpxhb:speed>0.207997</gpxhb:speed><gpxhb:course>15.414802</gpxhb:course></extensions></trkpt><trkpt lat="24.380108471914227" lon="121.78727241300511"><ele>12.995272740951624</ele><time>2024-08-10T05:50:15Z</time><src>Hikingbook</src><extensions><gpxhb:speed>0.916771</gpxhb:speed><gpxhb:course>17.503711</gpxhb:course></extensions></trkpt><trkpt lat="24.380124968798174" lon="121.78728198004606"><ele>12.73372925241435</ele><time>2024-08-10T05:50:18Z</time><src>Hikingbook</src><extensions><gpxhb:speed>0.784172</gpxhb:speed><gpxhb:course>21.296925</gpxhb:course></extensions></trkpt><trkpt lat="24.380265946359668" lon="121.78732799853924"><ele>13.240652882786994</ele><time>2024-08-10T05:50:44Z</time><src>Hikingbook</src><extensions><gpxhb:speed>1.035048</gpxhb:speed><gpxhb:course>41.614267</gpxhb:course></extensions></trkpt><trkpt lat="24.38080878854573" lon="121.78716636650915"><ele>26.473940948728583</ele><time>2024-08-10T05:53:08Z</time><src>Hikingbook</src><extensions><gpxhb:speed>0.730406</gpxhb:speed><gpxhb:course>346.550272</gpxhb:course></extensions></trkpt><trkpt lat="24.381127481019252" lon="121.78720650510033"><ele>24.572827426199062</ele><time>2024-08-10T05:53:54Z</time><src>Hikingbook</src><extensions><gpxhb:speed>0.865828</gpxhb:speed><gpxhb:course>20.794675</gpxhb:course></extensions></trkpt><trkpt lat="24.38113596608403" lon="121.78721203040325"><ele>24.987424947044808</ele><time>2024-08-10T05:53:55Z</time><src>Hikingbook</src><extensions><gpxhb:speed>0.859775</gpxhb:speed><gpxhb:course>16.433471</gpxhb:course></extensions></trkpt><trkpt lat="24.381409296318274" lon="121.78725886657683"><ele>25.885496100842587</ele><time>2024-08-10T05:54:29Z</time><src>Hikingbook</src><extensions><gpxhb:speed>0.629505</gpxhb:speed><gpxhb:course>17.712409</gpxhb:course></extensions></trkpt><trkpt lat="24.381630617933165" lon="121.7872138765184"><ele>17.145480532616386</ele><time>2024-08-10T05:54:52Z</time><src>Hikingbook</src><extensions><gpxhb:speed>0.788625</gpxhb:speed><gpxhb:course>358.254276</gpxhb:course></extensions></trkpt><trkpt lat="24.382069331756785" lon="121.78732020792138"><ele>26.625167461111467</ele><time>2024-08-10T05:55:55Z</time><src>Hikingbook</src><extensions><gpxhb:speed>1.009194</gpxhb:speed><gpxhb:course>29.759168</gpxhb:course></extensions></trkpt><trkpt lat="24.38208583369795" lon="121.78732087686139"><ele>26.523784356136648</ele><time>2024-08-10T05:55:58Z</time><src>Hikingbook</src><extensions><gpxhb:speed>0.935118</gpxhb:speed><gpxhb:course>26.378222</gpxhb:course></extensions></trkpt><trkpt lat="24.3823024211456" lon="121.78736962450995"><ele>19.586916855553785</ele><time>2024-08-10T05:56:36Z</time><src>Hikingbook</src><extensions><gpxhb:speed>0.967177</gpxhb:speed><gpxhb:course>354.304178</gpxhb:course></extensions></trkpt><trkpt lat="24.38240601420276" lon="121.78721890343122"><ele>24.779520057151526</ele><time>2024-08-10T05:57:07Z</time><src>Hikingbook</src><extensions><gpxhb:speed>0.619021</gpxhb:speed><gpxhb:course>261.252735</gpxhb:course></extensions></trkpt><trkpt lat="24.38247459903555" lon="121.78734701048258"><ele>29.590161708837808</ele><time>2024-08-10T05:57:28Z</time><src>Hikingbook</src><extensions><gpxhb:speed>0.050168</gpxhb:speed><gpxhb:course>231.862764</gpxhb:course></extensions></trkpt><trkpt lat="24.38277371348238" lon="121.78726432856718"><ele>27.95424811315288</ele><time>2024-08-10T05:58:49Z</time><src>Hikingbook</src><extensions><gpxhb:speed>0.311008</gpxhb:speed><gpxhb:course>228.084627</gpxhb:course></extensions></trkpt><trkpt lat="24.38299003870738" lon="121.78738455298173"><ele>23.475851969392956</ele><time>2024-08-10T05:59:58Z</time><src>Hikingbook</src><extensions><gpxhb:speed>0.520071</gpxhb:speed><gpxhb:course>15.194840</gpxhb:course></extensions></trkpt><trkpt lat="24.383035342922916" lon="121.78730371688688"><ele>21.52163737677246</ele><time>2024-08-10T06:00:13Z</time><src>Hikingbook</src><extensions><gpxhb:speed>1.555277</gpxhb:speed><gpxhb:course>342.247833</gpxhb:course></extensions></trkpt><trkpt lat="24.38306600722771" lon="121.787443233411"><ele>23.119212003595305</ele><time>2024-08-10T06:00:28Z</time><src>Hikingbook</src><extensions><gpxhb:speed>0.371550</gpxhb:speed><gpxhb:course>40.834131</gpxhb:course></extensions></trkpt><trkpt lat="24.38341127500538" lon="121.78733862418774"><ele>27.369400254201054</ele><time>2024-08-10T06:02:23Z</time><src>Hikingbook</src><extensions><gpxhb:speed>0.285851</gpxhb:speed><gpxhb:course>329.598926</gpxhb:course></extensions></trkpt><trkpt lat="24.38393037333192" lon="121.7874462802413"><ele>11.392599930711953</ele><time>2024-08-10T06:04:12Z</time><src>Hikingbook</src><extensions><gpxhb:speed>0.957439</gpxhb:speed><gpxhb:course>36.726247</gpxhb:course></extensions></trkpt><trkpt lat="24.3839380006233" lon="121.78744829808046"><ele>11.353703384478166</ele><time>2024-08-10T06:04:13Z</time><src>Hikingbook</src><extensions><gpxhb:speed>0.852121</gpxhb:speed><gpxhb:course>21.920187</gpxhb:course></extensions></trkpt><trkpt lat="24.384867341221618" lon="121.78757076908973"><ele>7.964208028712928</ele><time>2024-08-10T06:05:59Z</time><src>Hikingbook</src><extensions><gpxhb:speed>1.138149</gpxhb:speed><gpxhb:course>13.641515</gpxhb:course></extensions></trkpt><trkpt lat="24.384875688397756" lon="121.78757464185162"><ele>8.21310710806095</ele><time>2024-08-10T06:06:00Z</time><src>Hikingbook</src><extensions><gpxhb:speed>1.138530</gpxhb:speed><gpxhb:course>14.233907</gpxhb:course></extensions></trkpt><trkpt lat="24.385778121725334" lon="121.78765175099697"><ele>13.238419640133511</ele><time>2024-08-10T06:08:55Z</time><src>Hikingbook</src><extensions><gpxhb:speed>0.423648</gpxhb:speed><gpxhb:course>22.997314</gpxhb:course></extensions></trkpt><trkpt lat="24.3857810131901" lon="121.78765391695786"><ele>13.285656203956052</ele><time>2024-08-10T06:08:56Z</time><src>Hikingbook</src><extensions><gpxhb:speed>0.428963</gpxhb:speed><gpxhb:course>8.732484</gpxhb:course></extensions></trkpt><trkpt lat="24.386122796380505" lon="121.78774794989636"><ele>24.8447510090144</ele><time>2024-08-10T06:09:44Z</time><src>Hikingbook</src><extensions><gpxhb:speed>1.169043</gpxhb:speed><gpxhb:course>16.147954</gpxhb:course></extensions></trkpt><trkpt lat="24.386463926086098" lon="121.78767229446417"><ele>17.74623387657702</ele><time>2024-08-10T06:10:51Z</time><src>Hikingbook</src><extensions><gpxhb:speed>0.913148</gpxhb:speed><gpxhb:course>19.067762</gpxhb:course></extensions></trkpt><trkpt lat="24.386679474378308" lon="121.78777361617857"><ele>19.008193748676607</ele><time>2024-08-10T06:11:27Z</time><src>Hikingbook</src><extensions><gpxhb:speed>0.814171</gpxhb:speed><gpxhb:course>20.132211</gpxhb:course></extensions></trkpt><trkpt lat="24.38669427047364" lon="121.7877757208293"><ele>19.115294810630708</ele><time>2024-08-10T06:11:30Z</time><src>Hikingbook</src><extensions><gpxhb:speed>0.692438</gpxhb:speed><gpxhb:course>10.418211</gpxhb:course></extensions></trkpt><trkpt lat="24.38705346976226" lon="121.78782080576606"><ele>18.36772442170314</ele><time>2024-08-10T06:12:34Z</time><src>Hikingbook</src><extensions><gpxhb:speed>0.439192</gpxhb:speed><gpxhb:course>47.393074</gpxhb:course></extensions></trkpt><trkpt lat="24.387257309523473" lon="121.78795055059975"><ele>17.273171117332055</ele><time>2024-08-10T06:13:07Z</time><src>Hikingbook</src><extensions><gpxhb:speed>0.879718</gpxhb:speed><gpxhb:course>3.695115</gpxhb:course></extensions></trkpt><trkpt lat="24.38759161972422" lon="121.78801015837287"><ele>12.90166901698909</ele><time>2024-08-10T06:13:48Z</time><src>Hikingbook</src><extensions><gpxhb:speed>0.866556</gpxhb:speed><gpxhb:course>8.985230</gpxhb:course></extensions></trkpt><trkpt lat="24.387601138946458" lon="121.78801168037067"><ele>12.747291416261747</ele><time>2024-08-10T06:13:49Z</time><src>Hikingbook</src><extensions><gpxhb:speed>1.044765</gpxhb:speed><gpxhb:course>11.753819</gpxhb:course></extensions></trkpt><trkpt lat="24.388498930629176" lon="121.7881670035368"><ele>10.195005932904156</ele><time>2024-08-10T06:15:14Z</time><src>Hikingbook</src><extensions><gpxhb:speed>1.430849</gpxhb:speed><gpxhb:course>7.385545</gpxhb:course></extensions></trkpt><trkpt lat="24.388668316610026" lon="121.7881980175436"><ele>11.462446649253778</ele><time>2024-08-10T06:15:30Z</time><src>Hikingbook</src><extensions><gpxhb:speed>1.228150</gpxhb:speed><gpxhb:course>2.377907</gpxhb:course></extensions></trkpt><trkpt lat="24.389058219919054" lon="121.78826912140148"><ele>12.48227097053301</ele><time>2024-08-10T06:16:16Z</time><src>Hikingbook</src><extensions><gpxhb:speed>1.086418</gpxhb:speed><gpxhb:course>11.156889</gpxhb:course></extensions></trkpt><trkpt lat="24.389179053589647" lon="121.78819498702825"><ele>13.242794514413902</ele><time>2024-08-10T06:16:32Z</time><src>Hikingbook</src><extensions><gpxhb:speed>0.957069</gpxhb:speed><gpxhb:course>325.764817</gpxhb:course></extensions></trkpt><trkpt lat="24.389646368167735" lon="121.78817963391867"><ele>11.40392103979745</ele><time>2024-08-10T06:17:28Z</time><src>Hikingbook</src><extensions><gpxhb:speed>0.251501</gpxhb:speed><gpxhb:course>0.705102</gpxhb:course></extensions></trkpt><trkpt lat="24.389660422193124" lon="121.78818311967638"><ele>11.808514192892668</ele><time>2024-08-10T06:17:29Z</time><src>Hikingbook</src><extensions><gpxhb:speed>0.877566</gpxhb:speed><gpxhb:course>3.654985</gpxhb:course></extensions></trkpt><trkpt lat="24.390043961999506" lon="121.78813851590363"><ele>13.483813706605154</ele><time>2024-08-10T06:18:08Z</time><src>Hikingbook</src><extensions><gpxhb:speed>1.081480</gpxhb:speed><gpxhb:course>335.402735</gpxhb:course></extensions></trkpt><trkpt lat="24.39059350041881" lon="121.78819547581442"><ele>10.503777130201014</ele><time>2024-08-10T06:19:23Z</time><src>Hikingbook</src><extensions><gpxhb:speed>1.320102</gpxhb:speed><gpxhb:course>9.130246</gpxhb:course></extensions></trkpt><trkpt lat="24.390628353358217" lon="121.78819748998117"><ele>10.624043278669797</ele><time>2024-08-10T06:19:26Z</time><src>Hikingbook</src><extensions><gpxhb:speed>1.196935</gpxhb:speed><gpxhb:course>9.434381</gpxhb:course></extensions></trkpt><trkpt lat="24.391556304640144" lon="121.78828698635591"><ele>6.05515814557403</ele><time>2024-08-10T06:21:00Z</time><src>Hikingbook</src><extensions><gpxhb:speed>1.216336</gpxhb:speed><gpxhb:course>3.028150</gpxhb:course></extensions></trkpt><trkpt lat="24.39161765210955" lon="121.7882898568665"><ele>5.775090691386453</ele><time>2024-08-10T06:21:06Z</time><src>Hikingbook</src><extensions><gpxhb:speed>0.780641</gpxhb:speed><gpxhb:course>12.163405</gpxhb:course></extensions></trkpt><trkpt lat="24.392606478894006" lon="121.78824455752817"><ele>6.942899008362925</ele><time>2024-08-10T06:22:56Z</time><src>Hikingbook</src><extensions><gpxhb:speed>1.251039</gpxhb:speed><gpxhb:course>11.489903</gpxhb:course></extensions></trkpt><trkpt lat="24.392616708711454" lon="121.7882475796429"><ele>6.677480973503636</ele><time>2024-08-10T06:22:57Z</time><src>Hikingbook</src><extensions><gpxhb:speed>1.266955</gpxhb:speed><gpxhb:course>11.348942</gpxhb:course></extensions></trkpt><trkpt lat="24.392876803010182" lon="121.78831886010724"><ele>2.1071645683059956</ele><time>2024-08-10T06:24:01Z</time><src>Hikingbook</src><extensions><gpxhb:speed>1.010076</gpxhb:speed><gpxhb:course>5.954255</gpxhb:course></extensions></trkpt><trkpt lat="24.393517000692608" lon="121.7883237933151"><ele>3.033963594141142</ele><time>2024-08-10T06:25:31Z</time><src>Hikingbook</src><extensions><gpxhb:speed>0.899208</gpxhb:speed><gpxhb:course>3.293081</gpxhb:course></extensions></trkpt><trkpt lat="24.393603484449823" lon="121.78832556900629"><ele>3.4434633109675037</ele><time>2024-08-10T06:25:48Z</time><src>Hikingbook</src><extensions><gpxhb:speed>0.911520</gpxhb:speed><gpxhb:course>16.852765</gpxhb:course></extensions></trkpt><trkpt lat="24.39449926709765" lon="121.78844950093291"><ele>7.192881488789666</ele><time>2024-08-10T06:27:30Z</time><src>Hikingbook</src><extensions><gpxhb:speed>1.316564</gpxhb:speed><gpxhb:course>4.253116</gpxhb:course></extensions></trkpt><trkpt lat="24.394520269635322" lon="121.78845110172831"><ele>7.119990864190704</ele><time>2024-08-10T06:27:32Z</time><src>Hikingbook</src><extensions><gpxhb:speed>1.458258</gpxhb:speed><gpxhb:course>358.618033</gpxhb:course></extensions></trkpt><trkpt lat="24.395421785264165" lon="121.7885656399745"><ele>6.706681554547282</ele><time>2024-08-10T06:29:01Z</time><src>Hikingbook</src><extensions><gpxhb:speed>1.258949</gpxhb:speed><gpxhb:course>10.751948</gpxhb:course></extensions></trkpt><trkpt lat="24.395432551492053" lon="121.78856801283034"><ele>6.7190991458382285</ele><time>2024-08-10T06:29:02Z</time><src>Hikingbook</src><extensions><gpxhb:speed>1.170882</gpxhb:speed><gpxhb:course>9.314777</gpxhb:course></extensions></trkpt><trkpt lat="24.396365930218437" lon="121.78868296408469"><ele>7.04856971571658</ele><time>2024-08-10T06:30:31Z</time><src>Hikingbook</src><extensions><gpxhb:speed>1.073730</gpxhb:speed><gpxhb:course>5.232302</gpxhb:course></extensions></trkpt><trkpt lat="24.39637583618877" lon="121.78868363055267"><ele>7.106099341944647</ele><time>2024-08-10T06:30:32Z</time><src>Hikingbook</src><extensions><gpxhb:speed>1.140945</gpxhb:speed><gpxhb:course>8.029110</gpxhb:course></extensions></trkpt><trkpt lat="24.397292255091173" lon="121.78871301365753"><ele>8.715469692709048</ele><time>2024-08-10T06:32:27Z</time><src>Hikingbook</src><extensions><gpxhb:speed>0.871457</gpxhb:speed><gpxhb:course>22.072055</gpxhb:course></extensions></trkpt><trkpt lat="24.39729782153724" lon="121.78871589389027"><ele>8.448128048790107</ele><time>2024-08-10T06:32:28Z</time><src>Hikingbook</src><extensions><gpxhb:speed>0.892079</gpxhb:speed><gpxhb:course>15.981352</gpxhb:course></extensions></trkpt><trkpt lat="24.397579411126816" lon="121.78869936825424"><ele>8.36704138174006</ele><time>2024-08-10T06:33:00Z</time><src>Hikingbook</src><extensions><gpxhb:speed>0.897146</gpxhb:speed><gpxhb:course>353.540670</gpxhb:course></extensions></trkpt><trkpt lat="24.39820576622583" lon="121.78879198397274"><ele>9.432769239551734</ele><time>2024-08-10T06:34:11Z</time><src>Hikingbook</src><extensions><gpxhb:speed>1.156392</gpxhb:speed><gpxhb:course>13.106301</gpxhb:course></extensions></trkpt><trkpt lat="24.39822824305834" lon="121.78879441237343"><ele>9.061880561586129</ele><time>2024-08-10T06:34:13Z</time><src>Hikingbook</src><extensions><gpxhb:speed>1.294780</gpxhb:speed><gpxhb:course>3.304015</gpxhb:course></extensions></trkpt><trkpt lat="24.39855349384684" lon="121.78875270140865"><ele>9.364082605319725</ele><time>2024-08-10T06:34:49Z</time><src>Hikingbook</src><extensions><gpxhb:speed>1.206928</gpxhb:speed><gpxhb:course>349.690549</gpxhb:course></extensions></trkpt><trkpt lat="24.398700143068222" lon="121.78884856898232"><ele>9.511172705501574</ele><time>2024-08-10T06:35:11Z</time><src>Hikingbook</src><extensions><gpxhb:speed>0.928654</gpxhb:speed><gpxhb:course>27.949115</gpxhb:course></extensions></trkpt><trkpt lat="24.399144142373334" lon="121.78888638217643"><ele>10.721332045043633</ele><time>2024-08-10T06:36:00Z</time><src>Hikingbook</src><extensions><gpxhb:speed>1.001574</gpxhb:speed><gpxhb:course>15.137076</gpxhb:course></extensions></trkpt><trkpt lat="24.3991692469266" lon="121.78888973244803"><ele>10.80697681229361</ele><time>2024-08-10T06:36:03Z</time><src>Hikingbook</src><extensions><gpxhb:speed>0.813201</gpxhb:speed><gpxhb:course>8.921448</gpxhb:course></extensions></trkpt><trkpt lat="24.40002356854737" lon="121.78905784367377"><ele>16.278305636419454</ele><time>2024-08-10T06:37:43Z</time><src>Hikingbook</src><extensions><gpxhb:speed>0.380726</gpxhb:speed><gpxhb:course>7.376992</gpxhb:course></extensions></trkpt><trkpt lat="24.399878756255347" lon="121.78907700119525"><ele>13.353602985183542</ele><time>2024-08-10T06:38:19Z</time><src>Hikingbook</src><extensions><gpxhb:speed>0.813239</gpxhb:speed><gpxhb:course>182.797038</gpxhb:course></extensions></trkpt><trkpt lat="24.3996175139611" lon="121.78897431489875"><ele>12.987144976981332</ele><time>2024-08-10T06:40:01Z</time><src>Hikingbook</src><extensions><gpxhb:speed>0.294266</gpxhb:speed><gpxhb:course>-1.000000</gpxhb:course></extensions></trkpt><trkpt lat="24.399729909735516" lon="121.78901935910099"><ele>13.314251300060729</ele><time>2024-08-10T06:42:03Z</time><src>Hikingbook</src><extensions><gpxhb:speed>0.000000</gpxhb:speed><gpxhb:course>172.031809</gpxhb:course></extensions></trkpt></trkseg><trkseg><trkpt lat="24.401515013126097" lon="121.78920261235498"><ele>21.795342562706818</ele><time>2024-08-10T06:46:58Z</time><src>Hikingbook</src><extensions><gpxhb:speed>4.620000</gpxhb:speed><gpxhb:course>353.671875</gpxhb:course></extensions></trkpt><trkpt lat="24.402421574313728" lon="121.78925916239241"><ele>16.995135024766366</ele><time>2024-08-10T06:47:14Z</time><src>Hikingbook</src><extensions><gpxhb:speed>6.360000</gpxhb:speed><gpxhb:course>4.218752</gpxhb:course></extensions></trkpt><trkpt lat="24.402471106450335" lon="121.78926569985667"><ele>17.290542988446123</ele><time>2024-08-10T06:47:15Z</time><src>Hikingbook</src><extensions><gpxhb:speed>5.590000</gpxhb:speed><gpxhb:course>359.648437</gpxhb:course></extensions></trkpt><trkpt lat="24.402782761473468" lon="121.78929136210002"><ele>19.531197590773452</ele><time>2024-08-10T06:47:25Z</time><src>Hikingbook</src><extensions><gpxhb:speed>2.420000</gpxhb:speed><gpxhb:course>38.671881</gpxhb:course></extensions></trkpt><trkpt lat="24.402928226106678" lon="121.78942706034171"><ele>10.489498276631808</ele><time>2024-08-10T06:48:12Z</time><src>Hikingbook</src><extensions><gpxhb:speed>0.442780</gpxhb:speed><gpxhb:course>-1.000000</gpxhb:course></extensions></trkpt></trkseg><trkseg><trkpt lat="24.402928226106678" lon="121.78942706034171"><ele>10.489498276631808</ele><time>2024-08-10T07:11:18Z</time><src>Hikingbook</src><extensions><gpxhb:speed>0.442780</gpxhb:speed><gpxhb:course>-1.000000</gpxhb:course></extensions></trkpt><trkpt lat="24.403035258732398" lon="121.78938970310342"><ele>15.279540406874514</ele><time>2024-08-10T07:11:20Z</time><src>Hikingbook</src><extensions><gpxhb:speed>0.000000</gpxhb:speed><gpxhb:course>-1.000000</gpxhb:course></extensions></trkpt><trkpt lat="24.40385274620549" lon="121.78958562831185"><ele>4.133360456153338</ele><time>2024-08-10T07:11:58Z</time><src>Hikingbook</src><extensions><gpxhb:speed>5.273895</gpxhb:speed><gpxhb:course>3.351544</gpxhb:course></extensions></trkpt><trkpt lat="24.403947412551318" lon="121.78959364413255"><ele>3.587175436891356</ele><time>2024-08-10T07:12:00Z</time><src>Hikingbook</src><extensions><gpxhb:speed>5.436984</gpxhb:speed><gpxhb:course>5.390561</gpxhb:course></extensions></trkpt><trkpt lat="24.404951925427376" lon="121.78973084752764"><ele>4.200093310473055</ele><time>2024-08-10T07:12:18Z</time><src>Hikingbook</src><extensions><gpxhb:speed>6.751477</gpxhb:speed><gpxhb:course>8.833107</gpxhb:course></extensions></trkpt><trkpt lat="24.405017093939218" lon="121.78974572235688"><ele>4.178475896994431</ele><time>2024-08-10T07:12:19Z</time><src>Hikingbook</src><extensions><gpxhb:speed>6.826982</gpxhb:speed><gpxhb:course>10.043547</gpxhb:course></extensions></trkpt><trkpt lat="24.40559566204279" lon="121.7899619629957"><ele>5.033265378383538</ele><time>2024-08-10T07:12:31Z</time><src>Hikingbook</src><extensions><gpxhb:speed>4.366137</gpxhb:speed><gpxhb:course>10.473902</gpxhb:course></extensions></trkpt><trkpt lat="24.405987484761337" lon="121.79002277290911"><ele>4.636453663683874</ele><time>2024-08-10T07:12:40Z</time><src>Hikingbook</src><extensions><gpxhb:speed>6.200690</gpxhb:speed><gpxhb:course>11.728313</gpxhb:course></extensions></trkpt><trkpt lat="24.406043838839402" lon="121.79003014524244"><ele>4.7484604269255914</ele><time>2024-08-10T07:12:41Z</time><src>Hikingbook</src><extensions><gpxhb:speed>6.352671</gpxhb:speed><gpxhb:course>11.288961</gpxhb:course></extensions></trkpt><trkpt lat="24.407008025992987" lon="121.79020745773718"><ele>6.008231989904432</ele><time>2024-08-10T07:12:59Z</time><src>Hikingbook</src><extensions><gpxhb:speed>4.987779</gpxhb:speed><gpxhb:course>18.646647</gpxhb:course></extensions></trkpt><trkpt lat="24.4070537862236" lon="121.79022655883666"><ele>6.091716205323533</ele><time>2024-08-10T07:13:00Z</time><src>Hikingbook</src><extensions><gpxhb:speed>5.936301</gpxhb:speed><gpxhb:course>20.088408</gpxhb:course></extensions></trkpt><trkpt lat="24.40796360549884" lon="121.79048515368513"><ele>7.803062904436852</ele><time>2024-08-10T07:13:20Z</time><src>Hikingbook</src><extensions><gpxhb:speed>4.977268</gpxhb:speed><gpxhb:course>8.234183</gpxhb:course></extensions></trkpt><trkpt lat="24.408013585072997" lon="121.79049527020659"><ele>8.103785834592843</ele><time>2024-08-10T07:13:21Z</time><src>Hikingbook</src><extensions><gpxhb:speed>5.487656</gpxhb:speed><gpxhb:course>11.185764</gpxhb:course></extensions></trkpt><trkpt lat="24.40889897624025" lon="121.79078142745846"><ele>6.995849614800256</ele><time>2024-08-10T07:13:41Z</time><src>Hikingbook</src><extensions><gpxhb:speed>2.681096</gpxhb:speed><gpxhb:course>12.452246</gpxhb:course></extensions></trkpt><trkpt lat="24.40894120287822" lon="121.79079578555879"><ele>7.028743873668692</ele><time>2024-08-10T07:13:42Z</time><src>Hikingbook</src><extensions><gpxhb:speed>1.594383</gpxhb:speed><gpxhb:course>30.263365</gpxhb:course></extensions></trkpt><trkpt lat="24.410174706366018" lon="121.79094186894785"><ele>20.85461486033949</ele><time>2024-08-10T07:13:58Z</time><src>Hikingbook</src><extensions><gpxhb:speed>6.290000</gpxhb:speed><gpxhb:course>3.867189</gpxhb:course></extensions></trkpt><trkpt lat="24.410226728157177" lon="121.79094763611626"><ele>20.372410041297975</ele><time>2024-08-10T07:13:59Z</time><src>Hikingbook</src><extensions><gpxhb:speed>5.990000</gpxhb:speed><gpxhb:course>11.953130</gpxhb:course></extensions></trkpt><trkpt lat="24.4111967802156" lon="121.79117972771682"><ele>4.885913314259876</ele><time>2024-08-10T07:14:23Z</time><src>Hikingbook</src><extensions><gpxhb:speed>5.857272</gpxhb:speed><gpxhb:course>16.362990</gpxhb:course></extensions></trkpt><trkpt lat="24.411253755530936" lon="121.791189572426"><ele>5.270668055344193</ele><time>2024-08-10T07:14:24Z</time><src>Hikingbook</src><extensions><gpxhb:speed>5.553845</gpxhb:speed><gpxhb:course>12.543507</gpxhb:course></extensions></trkpt><trkpt lat="24.412154664542307" lon="121.79145080631555"><ele>6.049342896819211</ele><time>2024-08-10T07:14:40Z</time><src>Hikingbook</src><extensions><gpxhb:speed>6.111904</gpxhb:speed><gpxhb:course>14.961414</gpxhb:course></extensions></trkpt><trkpt lat="24.412209620070897" lon="121.79147004041637"><ele>5.758129170176151</ele><time>2024-08-10T07:14:41Z</time><src>Hikingbook</src><extensions><gpxhb:speed>5.934897</gpxhb:speed><gpxhb:course>18.213382</gpxhb:course></extensions></trkpt><trkpt lat="24.413115870463397" lon="121.79171741519498"><ele>7.628857288119278</ele><time>2024-08-10T07:14:59Z</time><src>Hikingbook</src><extensions><gpxhb:speed>6.530359</gpxhb:speed><gpxhb:course>14.757666</gpxhb:course></extensions></trkpt><trkpt lat="24.413173710888053" lon="121.79172972735012"><ele>7.668523520260576</ele><time>2024-08-10T07:15:00Z</time><src>Hikingbook</src><extensions><gpxhb:speed>6.591042</gpxhb:speed><gpxhb:course>11.079288</gpxhb:course></extensions></trkpt><trkpt lat="24.4140984388467" lon="121.79194813500881"><ele>7.569148572776468</ele><time>2024-08-10T07:15:16Z</time><src>Hikingbook</src><extensions><gpxhb:speed>6.372587</gpxhb:speed><gpxhb:course>17.657572</gpxhb:course></extensions></trkpt><trkpt lat="24.414152434924105" lon="121.7919726023382"><ele>7.292888674329571</ele><time>2024-08-10T07:15:17Z</time><src>Hikingbook</src><extensions><gpxhb:speed>6.311992</gpxhb:speed><gpxhb:course>23.332302</gpxhb:course></extensions></trkpt><trkpt lat="24.414566579080322" lon="121.79215208328554"><ele>5.477064732039586</ele><time>2024-08-10T07:15:25Z</time><src>Hikingbook</src><extensions><gpxhb:speed>4.842673</gpxhb:speed><gpxhb:course>8.215992</gpxhb:course></extensions></trkpt><trkpt lat="24.415044143296942" lon="121.7922742021841"><ele>7.096816110550581</ele><time>2024-08-10T07:15:38Z</time><src>Hikingbook</src><extensions><gpxhb:speed>5.239771</gpxhb:speed><gpxhb:course>18.896305</gpxhb:course></extensions></trkpt><trkpt lat="24.415084299663185" lon="121.79228743019922"><ele>6.953421199205281</ele><time>2024-08-10T07:15:39Z</time><src>Hikingbook</src><extensions><gpxhb:speed>5.251475</gpxhb:speed><gpxhb:course>20.041999</gpxhb:course></extensions></trkpt><trkpt lat="24.415953733798826" lon="121.79260244960243"><ele>6.004423025403535</ele><time>2024-08-10T07:16:00Z</time><src>Hikingbook</src><extensions><gpxhb:speed>1.732914</gpxhb:speed><gpxhb:course>33.102305</gpxhb:course></extensions></trkpt><trkpt lat="24.416001803089927" lon="121.79262704478425"><ele>6.060041799925291</ele><time>2024-08-10T07:16:03Z</time><src>Hikingbook</src><extensions><gpxhb:speed>1.610824</gpxhb:speed><gpxhb:course>32.988478</gpxhb:course></extensions></trkpt><trkpt lat="24.416902868482513" lon="121.79302576487542"><ele>6.1381688958569836</ele><time>2024-08-10T07:16:22Z</time><src>Hikingbook</src><extensions><gpxhb:speed>6.377866</gpxhb:speed><gpxhb:course>20.176508</gpxhb:course></extensions></trkpt><trkpt lat="24.416967650535938" lon="121.79304460548424"><ele>5.681921692889998</ele><time>2024-08-10T07:16:23Z</time><src>Hikingbook</src><extensions><gpxhb:speed>6.198296</gpxhb:speed><gpxhb:course>17.728418</gpxhb:course></extensions></trkpt><trkpt lat="24.417880353415875" lon="121.79345808319758"><ele>5.789954259804009</ele><time>2024-08-10T07:16:39Z</time><src>Hikingbook</src><extensions><gpxhb:speed>7.406222</gpxhb:speed><gpxhb:course>29.483155</gpxhb:course></extensions></trkpt><trkpt lat="24.417942163147302" lon="121.7934977816838"><ele>6.045464711342123</ele><time>2024-08-10T07:16:40Z</time><src>Hikingbook</src><extensions><gpxhb:speed>7.660733</gpxhb:speed><gpxhb:course>29.639823</gpxhb:course></extensions></trkpt><trkpt lat="24.418885883076324" lon="121.79393230761065"><ele>5.751179830087332</ele><time>2024-08-10T07:16:54Z</time><src>Hikingbook</src><extensions><gpxhb:speed>8.329983</gpxhb:speed><gpxhb:course>21.146364</gpxhb:course></extensions></trkpt><trkpt lat="24.4189583530407" lon="121.79396453161974"><ele>5.80311267323352</ele><time>2024-08-10T07:16:55Z</time><src>Hikingbook</src><extensions><gpxhb:speed>8.206165</gpxhb:speed><gpxhb:course>21.929365</gpxhb:course></extensions></trkpt><trkpt lat="24.419833257555272" lon="121.79435154079654"><ele>6.277564214180701</ele><time>2024-08-10T07:17:08Z</time><src>Hikingbook</src><extensions><gpxhb:speed>7.523366</gpxhb:speed><gpxhb:course>21.813789</gpxhb:course></extensions></trkpt><trkpt lat="24.419896861046958" lon="121.79438017137485"><ele>6.241007318511282</ele><time>2024-08-10T07:17:09Z</time><src>Hikingbook</src><extensions><gpxhb:speed>7.268085</gpxhb:speed><gpxhb:course>22.466352</gpxhb:course></extensions></trkpt><trkpt lat="24.42082435122157" lon="121.79476340604648"><ele>12.873381745691757</ele><time>2024-08-10T07:17:25Z</time><src>Hikingbook</src><extensions><gpxhb:speed>6.677862</gpxhb:speed><gpxhb:course>21.820087</gpxhb:course></extensions></trkpt><trkpt lat="24.42088011476724" lon="121.79478909749686"><ele>13.657356194177636</ele><time>2024-08-10T07:17:26Z</time><src>Hikingbook</src><extensions><gpxhb:speed>6.305253</gpxhb:speed><gpxhb:course>19.940288</gpxhb:course></extensions></trkpt><trkpt lat="24.421317250591976" lon="121.79498684336129"><ele>18.49565105150643</ele><time>2024-08-10T07:17:34Z</time><src>Hikingbook</src><extensions><gpxhb:speed>7.012447</gpxhb:speed><gpxhb:course>17.898910</gpxhb:course></extensions></trkpt><trkpt lat="24.421828054695553" lon="121.79512209889049"><ele>19.95996628617992</ele><time>2024-08-10T07:17:42Z</time><src>Hikingbook</src><extensions><gpxhb:speed>7.347049</gpxhb:speed><gpxhb:course>15.185883</gpxhb:course></extensions></trkpt><trkpt lat="24.421891444307736" lon="121.79514182084516"><ele>19.934139000434666</ele><time>2024-08-10T07:17:43Z</time><src>Hikingbook</src><extensions><gpxhb:speed>7.057091</gpxhb:speed><gpxhb:course>17.887218</gpxhb:course></extensions></trkpt><trkpt lat="24.422783029108842" lon="121.7954009742405"><ele>13.420137189937298</ele><time>2024-08-10T07:17:59Z</time><src>Hikingbook</src><extensions><gpxhb:speed>7.277373</gpxhb:speed><gpxhb:course>20.272297</gpxhb:course></extensions></trkpt><trkpt lat="24.422847410651748" lon="121.79542101040661"><ele>12.977347789040103</ele><time>2024-08-10T07:18:00Z</time><src>Hikingbook</src><extensions><gpxhb:speed>7.520873</gpxhb:speed><gpxhb:course>19.939165</gpxhb:course></extensions></trkpt><trkpt lat="24.42372062340915" lon="121.79567807023257"><ele>9.1885468587159</ele><time>2024-08-10T07:18:16Z</time><src>Hikingbook</src><extensions><gpxhb:speed>6.525616</gpxhb:speed><gpxhb:course>20.451020</gpxhb:course></extensions></trkpt><trkpt lat="24.42377458315388" lon="121.79569713913762"><ele>9.170243914054364</ele><time>2024-08-10T07:18:17Z</time><src>Hikingbook</src><extensions><gpxhb:speed>6.401395</gpxhb:speed><gpxhb:course>19.889935</gpxhb:course></extensions></trkpt><trkpt lat="24.424196964753424" lon="121.7959037547208"><ele>6.980887843932383</ele><time>2024-08-10T07:18:26Z</time><src>Hikingbook</src><extensions><gpxhb:speed>5.998592</gpxhb:speed><gpxhb:course>19.596821</gpxhb:course></extensions></trkpt><trkpt lat="24.42468913589369" lon="121.79603502160276"><ele>5.4505302698672295</ele><time>2024-08-10T07:18:37Z</time><src>Hikingbook</src><extensions><gpxhb:speed>6.243012</gpxhb:speed><gpxhb:course>18.114036</gpxhb:course></extensions></trkpt><trkpt lat="24.42474374699854" lon="121.79605152085017"><ele>5.487589407547248</ele><time>2024-08-10T07:18:38Z</time><src>Hikingbook</src><extensions><gpxhb:speed>7.034903</gpxhb:speed><gpxhb:course>18.472220</gpxhb:course></extensions></trkpt><trkpt lat="24.425698314068633" lon="121.79644728488955"><ele>6.785976464824024</ele><time>2024-08-10T07:18:54Z</time><src>Hikingbook</src><extensions><gpxhb:speed>7.115059</gpxhb:speed><gpxhb:course>15.835469</gpxhb:course></extensions></trkpt><trkpt lat="24.425761970589367" lon="121.79646926257776"><ele>6.601601476308133</ele><time>2024-08-10T07:18:55Z</time><src>Hikingbook</src><extensions><gpxhb:speed>7.177397</gpxhb:speed><gpxhb:course>17.054705</gpxhb:course></extensions></trkpt><trkpt lat="24.4266424138836" lon="121.79683337167391"><ele>6.478557886656955</ele><time>2024-08-10T07:19:10Z</time><src>Hikingbook</src><extensions><gpxhb:speed>6.588738</gpxhb:speed><gpxhb:course>23.652430</gpxhb:course></extensions></trkpt><trkpt lat="24.426696816421025" lon="121.79685852445655"><ele>6.5735373737951415</ele><time>2024-08-10T07:19:11Z</time><src>Hikingbook</src><extensions><gpxhb:speed>6.544664</gpxhb:speed><gpxhb:course>20.618959</gpxhb:course></extensions></trkpt><trkpt lat="24.427615604200955" lon="121.79725876763881"><ele>6.676622180570419</ele><time>2024-08-10T07:19:28Z</time><src>Hikingbook</src><extensions><gpxhb:speed>6.489297</gpxhb:speed><gpxhb:course>23.519132</gpxhb:course></extensions></trkpt><trkpt lat="24.42767136988849" lon="121.7972843624667"><ele>6.7940559971921175</ele><time>2024-08-10T07:19:29Z</time><src>Hikingbook</src><extensions><gpxhb:speed>6.729645</gpxhb:speed><gpxhb:course>25.292903</gpxhb:course></extensions></trkpt><trkpt lat="24.428532767363517" lon="121.79766584302716"><ele>9.236232908317197</ele><time>2024-08-10T07:19:47Z</time><src>Hikingbook</src><extensions><gpxhb:speed>3.904768</gpxhb:speed><gpxhb:course>16.671520</gpxhb:course></extensions></trkpt><trkpt lat="24.42856307952503" lon="121.79767462306253"><ele>9.671161988893134</ele><time>2024-08-10T07:19:48Z</time><src>Hikingbook</src><extensions><gpxhb:speed>4.174646</gpxhb:speed><gpxhb:course>19.742552</gpxhb:course></extensions></trkpt><trkpt lat="24.42944990174508" lon="121.7981799177348"><ele>7.377833133965058</ele><time>2024-08-10T07:20:16Z</time><src>Hikingbook</src><extensions><gpxhb:speed>1.783652</gpxhb:speed><gpxhb:course>29.523728</gpxhb:course></extensions></trkpt><trkpt lat="24.429515188933223" lon="121.79821251577482"><ele>7.60715703662394</ele><time>2024-08-10T07:20:17Z</time><src>Hikingbook</src><extensions><gpxhb:speed>4.308121</gpxhb:speed><gpxhb:course>23.473090</gpxhb:course></extensions></trkpt><trkpt lat="24.430381189047235" lon="121.79862641548397"><ele>15.676732329352163</ele><time>2024-08-10T07:20:35Z</time><src>Hikingbook</src><extensions><gpxhb:speed>6.440000</gpxhb:speed><gpxhb:course>24.609386</gpxhb:course></extensions></trkpt><trkpt lat="24.43047975915" lon="121.7986689242806"><ele>18.404794914724075</ele><time>2024-08-10T07:20:36Z</time><src>Hikingbook</src><extensions><gpxhb:speed>6.440000</gpxhb:speed><gpxhb:course>25.312511</gpxhb:course></extensions></trkpt><trkpt lat="24.431427509856203" lon="121.79912708704609"><ele>25.001637670549997</ele><time>2024-08-10T07:20:52Z</time><src>Hikingbook</src><extensions><gpxhb:speed>6.450000</gpxhb:speed><gpxhb:course>20.390634</gpxhb:course></extensions></trkpt><trkpt lat="24.431502597328333" lon="121.79918464625251"><ele>19.507987893099205</ele><time>2024-08-10T07:20:54Z</time><src>Hikingbook</src><extensions><gpxhb:speed>6.611922</gpxhb:speed><gpxhb:course>24.178902</gpxhb:course></extensions></trkpt><trkpt lat="24.432330757258875" lon="121.79960128579496"><ele>9.429452703261251</ele><time>2024-08-10T07:21:11Z</time><src>Hikingbook</src><extensions><gpxhb:speed>6.432088</gpxhb:speed><gpxhb:course>27.372184</gpxhb:course></extensions></trkpt><trkpt lat="24.432382172092655" lon="121.7996284841175"><ele>9.3519426764618</ele><time>2024-08-10T07:21:12Z</time><src>Hikingbook</src><extensions><gpxhb:speed>6.286783</gpxhb:speed><gpxhb:course>27.698009</gpxhb:course></extensions></trkpt><trkpt lat="24.433265662796654" lon="121.8000492739595"><ele>9.083847428334243</ele><time>2024-08-10T07:21:29Z</time><src>Hikingbook</src><extensions><gpxhb:speed>6.402654</gpxhb:speed><gpxhb:course>24.799447</gpxhb:course></extensions></trkpt><trkpt lat="24.43332343301199" lon="121.80008013387489"><ele>8.913872779583713</ele><time>2024-08-10T07:21:30Z</time><src>Hikingbook</src><extensions><gpxhb:speed>6.588133</gpxhb:speed><gpxhb:course>25.045583</gpxhb:course></extensions></trkpt><trkpt lat="24.434156416175664" lon="121.80055703274067"><ele>11.745627630486338</ele><time>2024-08-10T07:21:44Z</time><src>Hikingbook</src><extensions><gpxhb:speed>7.118744</gpxhb:speed><gpxhb:course>30.186495</gpxhb:course></extensions></trkpt><trkpt lat="24.434212189008015" lon="121.80059655206136"><ele>11.762188177061955</ele><time>2024-08-10T07:21:45Z</time><src>Hikingbook</src><extensions><gpxhb:speed>7.013354</gpxhb:speed><gpxhb:course>32.450803</gpxhb:course></extensions></trkpt><trkpt lat="24.43500442483135" lon="121.8011700810689"><ele>8.91004214345669</ele><time>2024-08-10T07:22:01Z</time><src>Hikingbook</src><extensions><gpxhb:speed>5.911561</gpxhb:speed><gpxhb:course>36.749245</gpxhb:course></extensions></trkpt><trkpt lat="24.435046909638615" lon="121.80120364936582"><ele>8.674146387169989</ele><time>2024-08-10T07:22:02Z</time><src>Hikingbook</src><extensions><gpxhb:speed>6.007870</gpxhb:speed><gpxhb:course>31.539411</gpxhb:course></extensions></trkpt><trkpt lat="24.435669081024123" lon="121.80168316213818"><ele>10.10522268065997</ele><time>2024-08-10T07:22:15Z</time><src>Hikingbook</src><extensions><gpxhb:speed>6.232139</gpxhb:speed><gpxhb:course>23.016590</gpxhb:course></extensions></trkpt><trkpt lat="24.436148920892318" lon="121.80175512723977"><ele>12.69339532246538</ele><time>2024-08-10T07:22:27Z</time><src>Hikingbook</src><extensions><gpxhb:speed>3.418417</gpxhb:speed><gpxhb:course>23.404053</gpxhb:course></extensions></trkpt><trkpt lat="24.436260361876517" lon="121.80174987019969"><ele>12.513069745606805</ele><time>2024-08-10T07:22:31Z</time><src>Hikingbook</src><extensions><gpxhb:speed>3.179444</gpxhb:speed><gpxhb:course>23.117000</gpxhb:course></extensions></trkpt><trkpt lat="24.43710646946797" lon="121.8022410690519"><ele>15.286482165223893</ele><time>2024-08-10T07:22:58Z</time><src>Hikingbook</src><extensions><gpxhb:speed>4.541629</gpxhb:speed><gpxhb:course>9.737794</gpxhb:course></extensions></trkpt><trkpt lat="24.437518229844553" lon="121.8018234344723"><ele>17.324636174765175</ele><time>2024-08-10T07:23:13Z</time><src>Hikingbook</src><extensions><gpxhb:speed>4.336349</gpxhb:speed><gpxhb:course>297.404741</gpxhb:course></extensions></trkpt><trkpt lat="24.437692257658124" lon="121.80144108022469"><ele>15.578131945241866</ele><time>2024-08-10T07:23:23Z</time><src>Hikingbook</src><extensions><gpxhb:speed>2.681664</gpxhb:speed><gpxhb:course>300.979132</gpxhb:course></extensions></trkpt></trkseg></trk></gpx>