<?xml version="1.0" encoding="UTF-8"?>
<gpx version="1.1" creator="Hikingbook" xmlns:xsi="http://www.w3.org/2001/XMLSchema-instance" xmlns="http://www.topografix.com/GPX/1/1" xsi:schemaLocation="http://www.topografix.com/GPX/1/1 https://www.topografix.com/GPX/1/1/gpx.xsd https://hikingbook.net/xmlschemas/1/5 https:/hikingbook.net/xmlschemas/1/5/gpxhb.xsd" xmlns:gpxhb="https://hikingbook.net/xmlschemas/1/5"><metadata><name>🪢杜鵑谷-鬼斧神工-多納一線天(2025-02-16）-「溪降」［🇹🇼高雄-茂林］</name><desc>W-waterfall (瀑布）&#xA;S-slideway (滑瀑）&#xA;L-left(左岸）&#xA;TL-TopLeft(高左岸）&#xA;BL-BottomLeft(低左岸）&#xA;R-right(右岸）&#xA;TR-TopRight(高右岸）&#xA;BR-BottomRight(低右岸）&#xA;&#xA;WT-waterfalltop(瀑頂）&#xA;WB-waterfallbottom(瀑底）&#xA;M-middle(中繼點）&#xA;D-deep(深潭）&#xA;G-guide (滑降）&#xA;B-bolt(人工錨點）&#xA;N-nature(天然錨點）&#xA;PB-personal bolt (人力錨點）&#xA;DB-damaged bolt(損壞錨點）&#xA;TR-Traverse(橫移）&#xA;&#xA;Ex: &#xA;W1(M1-L)-B2-18m，D-5m&#xA;「瀑布1（中繼點1-左岸）-bolt有兩顆-使用繩長18米，深潭5公尺長」&#xA;&#xA;成員：&#xA;錦榮、jimce、秘密客、小林、小囍、蕭和、潾兒、韋名、Richard、小證&#xA;&#xA;裝備：&#xA;繩- &#xA;CTRA Human- 100m&#xA;CTRA Human- 50m&#xA;CE4Y(v1) PC9.0-100m&#xA;CTRA Kuku-50m&#xA;台製 9.0-30m&#xA;&#xA;電鑽組*1&#xA;（M10)Bolt*10set&#xA;</desc><author><name>Hikingbook</name><link href="https://hikingbook.net"><text>Hikingbook</text></link></author><link href="https://hikingbook.net/hikes/2025-2-16-%E6%99%A8%E9%96%93%E9%87%8D%E8%A3%9D%E7%99%BB%E5%B1%B1-%E8%B6%B3%E6%AF%8D%E5%B1%B1%E6%AD%A5%E9%81%93-2ccb4bc8"><text>Hikingbook</text></link><time>2026-07-30T22:09:32.993650345+08:00</time><keywords>Hikingbook,EzLife ,溪降,canyoning,高雄,茂林,台灣,Taiwan,鬼斧神工,杜鵑谷,多納一線天</keywords><extensions><gpxhb:postscript>水超級大…
感謝隊友的carry up

停車B點… 未來會開發溫泉觀光</gpxhb:postscript><gpxhb:loadweight>10.0</gpxhb:loadweight><gpxhb:fitnesslevel>1</gpxhb:fitnesslevel><gpxhb:activitytype>others</gpxhb:activitytype><gpxhb:trailid>ed431e79-ba38-4ec8-afcf-1faf4ee42406</gpxhb:trailid><gpxhb:trackimageurl>https://assets.hikingbook.net/users/60w3wu1it91y2jmwdxciziq/jjyoifdmqngz1hntvpxoaa/3c85943e-7d23-494d-b69f-ba8dd723c109.jpg</gpxhb:trackimageurl><gpxhb:device>Apple iPhone 13 Pro</gpxhb:device><gpxhb:source>Hikingbook</gpxhb:source></extensions></metadata><wpt lat="22.90841943539197" lon="120.72265838112057"><ele>565</ele><time>2025-02-16T00:49:13Z</time><name>00 停車點🅿️-A「開始」（玥納露營區）</name><cmt>2025-02-16T08:49:13+08:00</cmt><desc>00 停車點🅿️-A「開始」（玥納露營區）</desc><src>Hikingbook</src><link href="https://hikingbook.net/hikes/jJyOIFdmQnGZ1hntvPxoAA"><text>Hikingbook</text></link><extensions><gpxhb:weather>Clear</gpxhb:weather><gpxhb:speed>0.053785</gpxhb:speed><gpxhb:course>-1.000000</gpxhb:course></extensions></wpt><wpt lat="22.908087924065526" lon="120.72772086735822"><ele>593</ele><time>2025-02-16T01:25:23Z</time><name>01 下切點</name><cmt>2025-02-16T09:25:23+08:00</cmt><desc>01 下切點</desc><src>Hikingbook</src><link href="https://hikingbook.net/hikes/jJyOIFdmQnGZ1hntvPxoAA"><text>Hikingbook</text></link><extensions><gpxhb:weather>Clear</gpxhb:weather><gpxhb:speed>0.000000</gpxhb:speed><gpxhb:course>94.019143</gpxhb:course></extensions></wpt><wpt lat="22.905605868452135" lon="120.72858584124664"><ele>510</ele><time>2025-02-16T01:26:50Z</time><name>02 上切（下切）溪谷路徑</name><cmt>2025-02-16T09:26:50+08:00</cmt><desc>02 上切（下切）溪谷路徑</desc><src>Hikingbook</src><link href="https://hikingbook.net/hikes/jJyOIFdmQnGZ1hntvPxoAA"><text>Hikingbook</text></link><extensions><gpxhb:weather>Clear</gpxhb:weather><gpxhb:speed>0.000000</gpxhb:speed><gpxhb:course>-1.000000</gpxhb:course></extensions></wpt><wpt lat="22.91220225861007" lon="120.73121775884249"><ele>513</ele><time>2025-02-16T02:03:44Z</time><name>03 W1(WT-R-TR-B7-40m，M-B2-5m）</name><cmt>2025-02-16T10:03:44+08:00</cmt><desc>03 W1(WT-R-TR-B7-40m，M-B2-5m）</desc><src>Hikingbook</src><link href="https://hikingbook.net/hikes/jJyOIFdmQnGZ1hntvPxoAA"><text>Hikingbook</text></link><extensions><gpxhb:weather>Clear</gpxhb:weather><gpxhb:speed>0.000000</gpxhb:speed><gpxhb:course>-1.000000</gpxhb:course></extensions></wpt><wpt lat="22.914189629756446" lon="120.73091814008049"><ele>504</ele><time>2025-02-16T04:22:29Z</time><name>04 W2(WT-L-PB-10m,WB-PB =》G)</name><cmt>2025-02-16T12:22:29+08:00</cmt><desc>04 W2(WT-L-PB-10m,WB-PB =》G)</desc><src>Hikingbook</src><link href="https://hikingbook.net/hikes/jJyOIFdmQnGZ1hntvPxoAA"><text>Hikingbook</text></link><extensions><gpxhb:weather>Clear</gpxhb:weather><gpxhb:speed>0.014536</gpxhb:speed><gpxhb:course>-1.000000</gpxhb:course></extensions></wpt><wpt lat="22.914403005408285" lon="120.73093814649637"><ele>500</ele><time>2025-02-16T04:46:00Z</time><name>05 W3 (WT-L-PB-15m,WB-PB =》G)</name><cmt>2025-02-16T12:46:00+08:00</cmt><desc>05 W3 (WT-L-PB-15m,WB-PB =》G)</desc><src>Hikingbook</src><link href="https://hikingbook.net/hikes/jJyOIFdmQnGZ1hntvPxoAA"><text>Hikingbook</text></link><extensions><gpxhb:weather>Clear</gpxhb:weather><gpxhb:speed>0.000000</gpxhb:speed><gpxhb:course>-1.000000</gpxhb:course></extensions></wpt><wpt lat="22.914651365862966" lon="120.73074380093693"><ele>492</ele><time>2025-02-16T05:13:28Z</time><name>06 W4 (WT-L-PB-22m,WB-PB =》G)&#xA;(雙層瀑，第一層有水平迴旋流+水洞）</name><cmt>2025-02-16T13:13:28+08:00</cmt><desc>06 W4 (WT-L-PB-22m,WB-PB =》G)&#xA;(雙層瀑，第一層有水平迴旋流+水洞）</desc><src>Hikingbook</src><link href="https://hikingbook.net/hikes/jJyOIFdmQnGZ1hntvPxoAA"><text>Hikingbook</text></link><extensions><gpxhb:weather>Clear</gpxhb:weather><gpxhb:speed>0.146405</gpxhb:speed><gpxhb:course>-1.000000</gpxhb:course></extensions></wpt><wpt lat="22.915125698803845" lon="120.7310549822829"><ele>492</ele><time>2025-02-16T06:45:29Z</time><name>07 W5 (WT-L-PB-10m,WB-PB =》G)</name><cmt>2025-02-16T14:45:29+08:00</cmt><desc>07 W5 (WT-L-PB-10m,WB-PB =》G)</desc><src>Hikingbook</src><link href="https://hikingbook.net/hikes/jJyOIFdmQnGZ1hntvPxoAA"><text>Hikingbook</text></link><extensions><gpxhb:weather>Clear</gpxhb:weather><gpxhb:speed>0.000000</gpxhb:speed><gpxhb:course>-1.000000</gpxhb:course></extensions></wpt><wpt lat="22.91543074128988" lon="120.73089730661374"><ele>491</ele><time>2025-02-16T07:38:00Z</time><name>08 W6 (WT-TL-B1-5m)</name><cmt>2025-02-16T15:38:00+08:00</cmt><desc>08 W6 (WT-TL-B1-5m)</desc><src>Hikingbook</src><link href="https://hikingbook.net/hikes/jJyOIFdmQnGZ1hntvPxoAA"><text>Hikingbook</text></link><extensions><gpxhb:weather>Clear</gpxhb:weather><gpxhb:speed>0.000000</gpxhb:speed><gpxhb:course>-1.000000</gpxhb:course></extensions></wpt><wpt lat="22.916760729514976" lon="120.73024526782518"><ele>485</ele><time>2025-02-16T08:23:00Z</time><name>09 W7 (WT-R-B1-10m,WB-PB =》G)</name><cmt>2025-02-16T16:23:00+08:00</cmt><desc>09 W7 (WT-R-B1-10m,WB-PB =》G)</desc><src>Hikingbook</src><link href="https://hikingbook.net/hikes/jJyOIFdmQnGZ1hntvPxoAA"><text>Hikingbook</text></link><extensions><gpxhb:weather>Clear</gpxhb:weather><gpxhb:speed>0.000000</gpxhb:speed><gpxhb:course>-1.000000</gpxhb:course></extensions></wpt><wpt lat="22.916995409413765" lon="120.73026613692466"><ele>464</ele><time>2025-02-16T08:55:00Z</time><name>10  一線天（入口/出口）</name><cmt>2025-02-16T16:55:00+08:00</cmt><desc>10  一線天（入口/出口）</desc><src>Hikingbook</src><link href="https://hikingbook.net/hikes/jJyOIFdmQnGZ1hntvPxoAA"><text>Hikingbook</text></link><extensions><gpxhb:weather>Clear</gpxhb:weather><gpxhb:speed>0.000000</gpxhb:speed><gpxhb:course>-1.000000</gpxhb:course></extensions></wpt><wpt lat="22.91382402984119" lon="120.71919778491655"><ele>373</ele><time>2025-02-16T09:17:21Z</time><name>11 停車點🅿️-B「結束」</name><cmt>2025-02-16T17:17:21+08:00</cmt><desc>11 停車點🅿️-B「結束」</desc><src>Hikingbook</src><link href="https://hikingbook.net/hikes/jJyOIFdmQnGZ1hntvPxoAA"><text>Hikingbook</text></link><extensions><gpxhb:weather>Clear</gpxhb:weather><gpxhb:speed>0.000000</gpxhb:speed><gpxhb:course>104.071927</gpxhb:course></extensions></wpt><trk><name>🪢杜鵑谷-鬼斧神工-多納一線天(2025-02-16）-「溪降」［🇹🇼高雄-茂林］</name><cmt>W-waterfall (瀑布）&#xA;S-slideway (滑瀑）&#xA;L-left(左岸）&#xA;TL-TopLeft(高左岸）&#xA;BL-BottomLeft(低左岸）&#xA;R-right(右岸）&#xA;TR-TopRight(高右岸）&#xA;BR-BottomRight(低右岸）&#xA;&#xA;WT-waterfalltop(瀑頂）&#xA;WB-waterfallbottom(瀑底）&#xA;M-middle(中繼點）&#xA;D-deep(深潭）&#xA;G-guide (滑降）&#xA;B-bolt(人工錨點）&#xA;N-nature(天然錨點）&#xA;PB-personal bolt (人力錨點）&#xA;DB-damaged bolt(損壞錨點）&#xA;TR-Traverse(橫移）&#xA;&#xA;Ex: &#xA;W1(M1-L)-B2-18m，D-5m&#xA;「瀑布1（中繼點1-左岸）-bolt有兩顆-使用繩長18米，深潭5公尺長」&#xA;&#xA;成員：&#xA;錦榮、jimce、秘密客、小林、小囍、蕭和、潾兒、韋名、Richard、小證&#xA;&#xA;裝備：&#xA;繩- &#xA;CTRA Human- 100m&#xA;CTRA Human- 50m&#xA;CE4Y(v1) PC9.0-100m&#xA;CTRA Kuku-50m&#xA;台製 9.0-30m&#xA;&#xA;電鑽組*1&#xA;（M10)Bolt*10set&#xA;</cmt><desc>W-waterfall (瀑布）&#xA;S-slideway (滑瀑）&#xA;L-left(左岸）&#xA;TL-TopLeft(高左岸）&#xA;BL-BottomLeft(低左岸）&#xA;R-right(右岸）&#xA;TR-TopRight(高右岸）&#xA;BR-BottomRight(低右岸）&#xA;&#xA;WT-waterfalltop(瀑頂）&#xA;WB-waterfallbottom(瀑底）&#xA;M-middle(中繼點）&#xA;D-deep(深潭）&#xA;G-guide (滑降）&#xA;B-bolt(人工錨點）&#xA;N-nature(天然錨點）&#xA;PB-personal bolt (人力錨點）&#xA;DB-damaged bolt(損壞錨點）&#xA;TR-Traverse(橫移）&#xA;&#xA;Ex: &#xA;W1(M1-L)-B2-18m，D-5m&#xA;「瀑布1（中繼點1-左岸）-bolt有兩顆-使用繩長18米，深潭5公尺長」&#xA;&#xA;成員：&#xA;錦榮、jimce、秘密客、小林、小囍、蕭和、潾兒、韋名、Richard、小證&#xA;&#xA;裝備：&#xA;繩- &#xA;CTRA Human- 100m&#xA;CTRA Human- 50m&#xA;CE4Y(v1) PC9.0-100m&#xA;CTRA Kuku-50m&#xA;台製 9.0-30m&#xA;&#xA;電鑽組*1&#xA;（M10)Bolt*10set&#xA;</desc><src>Hikingbook</src><link href="https://hikingbook.net/hikes/2025-2-16-%E6%99%A8%E9%96%93%E9%87%8D%E8%A3%9D%E7%99%BB%E5%B1%B1-%E8%B6%B3%E6%AF%8D%E5%B1%B1%E6%AD%A5%E9%81%93-2ccb4bc8"><text>Hikingbook</text></link><trkseg><trkpt lat="22.908417180188845" lon="120.72265684745288"><ele>565.149982599876</ele><time>2025-02-16T00:49:14Z</time><src>Hikingbook</src><extensions><gpxhb:speed>0.053785</gpxhb:speed><gpxhb:course>-1.000000</gpxhb:course></extensions></trkpt><trkpt lat="22.908210215916515" lon="120.72261300988721"><ele>564.4777617608094</ele><time>2025-02-16T00:49:55Z</time><src>Hikingbook</src><extensions><gpxhb:speed>0.311562</gpxhb:speed><gpxhb:course>-1.000000</gpxhb:course></extensions></trkpt><trkpt lat="22.908111919544883" lon="120.72272985376638"><ele>570.1624960760764</ele><time>2025-02-16T00:50:13Z</time><src>Hikingbook</src><extensions><gpxhb:speed>0.784616</gpxhb:speed><gpxhb:course>91.821565</gpxhb:course></extensions></trkpt><trkpt lat="22.90819437523037" lon="120.72361358251987"><ele>580.5499439061192</ele><time>2025-02-16T00:51:38Z</time><src>Hikingbook</src><extensions><gpxhb:speed>1.251387</gpxhb:speed><gpxhb:course>93.252586</gpxhb:course></extensions></trkpt><trkpt lat="22.908194372333472" lon="120.72362351116396"><ele>580.5831128807849</ele><time>2025-02-16T00:51:39Z</time><src>Hikingbook</src><extensions><gpxhb:speed>1.154089</gpxhb:speed><gpxhb:course>93.252586</gpxhb:course></extensions></trkpt><trkpt lat="22.908182925623976" lon="120.7246069081824"><ele>590.921928417146</ele><time>2025-02-16T00:53:26Z</time><src>Hikingbook</src><extensions><gpxhb:speed>1.196186</gpxhb:speed><gpxhb:course>105.177885</gpxhb:course></extensions></trkpt><trkpt lat="22.90817831837288" lon="120.72461829349557"><ele>590.7464698037817</ele><time>2025-02-16T00:53:27Z</time><src>Hikingbook</src><extensions><gpxhb:speed>1.327740</gpxhb:speed><gpxhb:course>104.113066</gpxhb:course></extensions></trkpt><trkpt lat="22.908007276218967" lon="120.72524203216771"><ele>598.6928583501715</ele><time>2025-02-16T00:54:23Z</time><src>Hikingbook</src><extensions><gpxhb:speed>0.837621</gpxhb:speed><gpxhb:course>93.233300</gpxhb:course></extensions></trkpt><trkpt lat="22.907795505667945" lon="120.72551142357952"><ele>600.5544809416366</ele><time>2025-02-16T00:54:58Z</time><src>Hikingbook</src><extensions><gpxhb:speed>1.233448</gpxhb:speed><gpxhb:course>139.474674</gpxhb:course></extensions></trkpt><trkpt lat="22.907788643304105" lon="120.72552063257972"><ele>600.8056423166914</ele><time>2025-02-16T00:54:59Z</time><src>Hikingbook</src><extensions><gpxhb:speed>1.282398</gpxhb:speed><gpxhb:course>128.227082</gpxhb:course></extensions></trkpt><trkpt lat="22.90759617571205" lon="120.72591568506414"><ele>609.8444821090378</ele><time>2025-02-16T00:55:44Z</time><src>Hikingbook</src><extensions><gpxhb:speed>1.274411</gpxhb:speed><gpxhb:course>94.003715</gpxhb:course></extensions></trkpt><trkpt lat="22.907807522591337" lon="120.7261548683718"><ele>605.5321775353345</ele><time>2025-02-16T00:56:11Z</time><src>Hikingbook</src><extensions><gpxhb:speed>1.101371</gpxhb:speed><gpxhb:course>56.821237</gpxhb:course></extensions></trkpt><trkpt lat="22.907926735918448" lon="120.72648743897481"><ele>606.218677660645</ele><time>2025-02-16T00:56:44Z</time><src>Hikingbook</src><extensions><gpxhb:speed>1.156550</gpxhb:speed><gpxhb:course>70.915684</gpxhb:course></extensions></trkpt><trkpt lat="22.907930481553905" lon="120.72649931368723"><ele>606.0595585861734</ele><time>2025-02-16T00:56:45Z</time><src>Hikingbook</src><extensions><gpxhb:speed>1.074909</gpxhb:speed><gpxhb:course>67.756058</gpxhb:course></extensions></trkpt><trkpt lat="22.908048034594866" lon="120.72672897092453"><ele>605.05445185583</ele><time>2025-02-16T00:57:07Z</time><src>Hikingbook</src><extensions><gpxhb:speed>1.117843</gpxhb:speed><gpxhb:course>67.333867</gpxhb:course></extensions></trkpt><trkpt lat="22.908419558919455" lon="120.72712769271442"><ele>604.9770665755129</ele><time>2025-02-16T00:58:22Z</time><src>Hikingbook</src><extensions><gpxhb:speed>0.935400</gpxhb:speed><gpxhb:course>77.533456</gpxhb:course></extensions></trkpt><trkpt lat="22.90821083040675" lon="120.72742680297897"><ele>602.0797324146456</ele><time>2025-02-16T00:59:02Z</time><src>Hikingbook</src><extensions><gpxhb:speed>0.906137</gpxhb:speed><gpxhb:course>124.973030</gpxhb:course></extensions></trkpt><trkpt lat="22.908208050651012" lon="120.72743634235292"><ele>601.9287580494268</ele><time>2025-02-16T00:59:03Z</time><src>Hikingbook</src><extensions><gpxhb:speed>0.806458</gpxhb:speed><gpxhb:course>109.815583</gpxhb:course></extensions></trkpt><trkpt lat="22.908104400547533" lon="120.72752607557197"><ele>599.2583964786986</ele><time>2025-02-16T00:59:25Z</time><src>Hikingbook</src><extensions><gpxhb:speed>0.578241</gpxhb:speed><gpxhb:course>168.461028</gpxhb:course></extensions></trkpt><trkpt lat="22.90812491483819" lon="120.72766551238158"><ele>600.9853660736724</ele><time>2025-02-16T00:59:49Z</time><src>Hikingbook</src><extensions><gpxhb:speed>0.771762</gpxhb:speed><gpxhb:course>54.894407</gpxhb:course></extensions></trkpt><trkpt lat="22.908000450167965" lon="120.72762685846972"><ele>592.2699904448532</ele><time>2025-02-16T01:00:21Z</time><src>Hikingbook</src><extensions><gpxhb:speed>0.431976</gpxhb:speed><gpxhb:course>-1.000000</gpxhb:course></extensions></trkpt><trkpt lat="22.90810368889247" lon="120.72771115470128"><ele>592.3076457968664</ele><time>2025-02-16T01:02:00Z</time><src>Hikingbook</src><extensions><gpxhb:speed>0.000000</gpxhb:speed><gpxhb:course>22.820672</gpxhb:course></extensions></trkpt><trkpt lat="22.90557058784" lon="120.72846773809636"><ele>418.7313368779942</ele><time>2025-02-16T01:26:38Z</time><src>Hikingbook</src><extensions><gpxhb:speed>0.000000</gpxhb:speed><gpxhb:course>58.710938</gpxhb:course></extensions></trkpt><trkpt lat="22.905691454353633" lon="120.7287414806317"><ele>509.926591391881</ele><time>2025-02-16T01:27:24Z</time><src>Hikingbook</src><extensions><gpxhb:speed>0.153788</gpxhb:speed><gpxhb:course>-1.000000</gpxhb:course></extensions></trkpt></trkseg><trkseg><trkpt lat="22.905691454353633" lon="120.7287414806317"><ele>509.926591391881</ele><time>2025-02-16T01:28:35Z</time><src>Hikingbook</src><extensions><gpxhb:speed>0.153788</gpxhb:speed><gpxhb:course>-1.000000</gpxhb:course></extensions></trkpt><trkpt lat="22.905821449594473" lon="120.72858082561979"><ele>478.67187841145</ele><time>2025-02-16T01:28:46Z</time><src>Hikingbook</src><extensions><gpxhb:speed>1.560000</gpxhb:speed><gpxhb:course>313.945308</gpxhb:course></extensions></trkpt></trkseg><trkseg><trkpt lat="22.905821449594473" lon="120.72858082561979"><ele>478.67187841145</ele><time>2025-02-16T01:35:52Z</time><src>Hikingbook</src><extensions><gpxhb:speed>1.560000</gpxhb:speed><gpxhb:course>313.945308</gpxhb:course></extensions></trkpt><trkpt lat="22.90595150088461" lon="120.72859256579835"><ele>510.4413234037923</ele><time>2025-02-16T01:36:00Z</time><src>Hikingbook</src><extensions><gpxhb:speed>0.454435</gpxhb:speed><gpxhb:course>-1.000000</gpxhb:course></extensions></trkpt><trkpt lat="22.906156721991437" lon="120.7284658408835"><ele>517.2231865910187</ele><time>2025-02-16T01:36:24Z</time><src>Hikingbook</src><extensions><gpxhb:speed>0.828430</gpxhb:speed><gpxhb:course>-1.000000</gpxhb:course></extensions></trkpt><trkpt lat="22.90661552551644" lon="120.72830763295724"><ele>523.459771743775</ele><time>2025-02-16T01:36:40Z</time><src>Hikingbook</src><extensions><gpxhb:speed>2.928750</gpxhb:speed><gpxhb:course>329.663307</gpxhb:course></extensions></trkpt><trkpt lat="22.906530982870937" lon="120.72820148758683"><ele>521.6662851810889</ele><time>2025-02-16T01:36:55Z</time><src>Hikingbook</src><extensions><gpxhb:speed>0.830332</gpxhb:speed><gpxhb:course>-1.000000</gpxhb:course></extensions></trkpt><trkpt lat="22.906442602338405" lon="120.72849322283739"><ele>535.1141556121249</ele><time>2025-02-16T01:37:11Z</time><src>Hikingbook</src><extensions><gpxhb:speed>0.975624</gpxhb:speed><gpxhb:course>302.596083</gpxhb:course></extensions></trkpt><trkpt lat="22.906786887942932" lon="120.72823515107814"><ele>532.8552695945058</ele><time>2025-02-16T01:37:33Z</time><src>Hikingbook</src><extensions><gpxhb:speed>1.699012</gpxhb:speed><gpxhb:course>351.917367</gpxhb:course></extensions></trkpt><trkpt lat="22.906763041745315" lon="120.72815404589774"><ele>524.7666777618211</ele><time>2025-02-16T01:38:48Z</time><src>Hikingbook</src><extensions><gpxhb:speed>0.283293</gpxhb:speed><gpxhb:course>320.914691</gpxhb:course></extensions></trkpt><trkpt lat="22.90669038898014" lon="120.72809001325722"><ele>526.0922917513152</ele><time>2025-02-16T01:38:51Z</time><src>Hikingbook</src><extensions><gpxhb:speed>0.978313</gpxhb:speed><gpxhb:course>249.410307</gpxhb:course></extensions></trkpt><trkpt lat="22.907238802650575" lon="120.72860790583289"><ele>542.7732197689803</ele><time>2025-02-16T01:39:24Z</time><src>Hikingbook</src><extensions><gpxhb:speed>1.082338</gpxhb:speed><gpxhb:course>38.716447</gpxhb:course></extensions></trkpt><trkpt lat="22.907431976448546" lon="120.72855546585727"><ele>538.3898423776803</ele><time>2025-02-16T01:39:56Z</time><src>Hikingbook</src><extensions><gpxhb:speed>1.722902</gpxhb:speed><gpxhb:course>23.085825</gpxhb:course></extensions></trkpt><trkpt lat="22.907431776662335" lon="120.72849158542215"><ele>541.8904336476851</ele><time>2025-02-16T01:40:12Z</time><src>Hikingbook</src><extensions><gpxhb:speed>0.074336</gpxhb:speed><gpxhb:course>355.153559</gpxhb:course></extensions></trkpt><trkpt lat="22.90751913030464" lon="120.72870220511754"><ele>539.4005675976072</ele><time>2025-02-16T01:40:27Z</time><src>Hikingbook</src><extensions><gpxhb:speed>1.102962</gpxhb:speed><gpxhb:course>32.516541</gpxhb:course></extensions></trkpt><trkpt lat="22.907547838124877" lon="120.72855442740446"><ele>543.6922040616417</ele><time>2025-02-16T01:40:43Z</time><src>Hikingbook</src><extensions><gpxhb:speed>0.372188</gpxhb:speed><gpxhb:course>342.004202</gpxhb:course></extensions></trkpt><trkpt lat="22.907768179215587" lon="120.72828511054068"><ele>537.2149613637766</ele><time>2025-02-16T01:41:03Z</time><src>Hikingbook</src><extensions><gpxhb:speed>2.666542</gpxhb:speed><gpxhb:course>310.799335</gpxhb:course></extensions></trkpt><trkpt lat="22.90781739401624" lon="120.72897928306887"><ele>540.6022061214502</ele><time>2025-02-16T01:41:26Z</time><src>Hikingbook</src><extensions><gpxhb:speed>0.299614</gpxhb:speed><gpxhb:course>293.701078</gpxhb:course></extensions></trkpt><trkpt lat="22.907703732180426" lon="120.72883561509289"><ele>541.2108132981627</ele><time>2025-02-16T01:41:42Z</time><src>Hikingbook</src><extensions><gpxhb:speed>0.089989</gpxhb:speed><gpxhb:course>173.283087</gpxhb:course></extensions></trkpt><trkpt lat="22.90775838456534" lon="120.7289177346108"><ele>535.9461365805009</ele><time>2025-02-16T01:41:58Z</time><src>Hikingbook</src><extensions><gpxhb:speed>0.292744</gpxhb:speed><gpxhb:course>90.970811</gpxhb:course></extensions></trkpt><trkpt lat="22.908095991899348" lon="120.72891981573652"><ele>534.4533061640973</ele><time>2025-02-16T01:42:14Z</time><src>Hikingbook</src><extensions><gpxhb:speed>0.056621</gpxhb:speed><gpxhb:course>321.077223</gpxhb:course></extensions></trkpt><trkpt lat="22.907919186040584" lon="120.72891143563457"><ele>523.476004549204</ele><time>2025-02-16T01:42:32Z</time><src>Hikingbook</src><extensions><gpxhb:speed>0.046072</gpxhb:speed><gpxhb:course>-1.000000</gpxhb:course></extensions></trkpt><trkpt lat="22.907921736059002" lon="120.72880558443322"><ele>526.5034728027371</ele><time>2025-02-16T01:42:47Z</time><src>Hikingbook</src><extensions><gpxhb:speed>0.718708</gpxhb:speed><gpxhb:course>-1.000000</gpxhb:course></extensions></trkpt><trkpt lat="22.90810941036674" lon="120.72913329851977"><ele>525.4795977125443</ele><time>2025-02-16T01:43:07Z</time><src>Hikingbook</src><extensions><gpxhb:speed>0.219463</gpxhb:speed><gpxhb:course>29.177203</gpxhb:course></extensions></trkpt><trkpt lat="22.908123364319316" lon="120.72877929014656"><ele>521.482737214677</ele><time>2025-02-16T01:43:33Z</time><src>Hikingbook</src><extensions><gpxhb:speed>2.088062</gpxhb:speed><gpxhb:course>301.534922</gpxhb:course></extensions></trkpt><trkpt lat="22.90846602446876" lon="120.72888636696483"><ele>519.8929137884458</ele><time>2025-02-16T01:43:49Z</time><src>Hikingbook</src><extensions><gpxhb:speed>2.364572</gpxhb:speed><gpxhb:course>344.262595</gpxhb:course></extensions></trkpt><trkpt lat="22.908493572208418" lon="120.72890141696747"><ele>519.5220088421419</ele><time>2025-02-16T01:43:50Z</time><src>Hikingbook</src><extensions><gpxhb:speed>2.372264</gpxhb:speed><gpxhb:course>343.256587</gpxhb:course></extensions></trkpt><trkpt lat="22.908544608014264" lon="120.72896592551182"><ele>519.7055653128282</ele><time>2025-02-16T01:43:52Z</time><src>Hikingbook</src><extensions><gpxhb:speed>2.354775</gpxhb:speed><gpxhb:course>353.897180</gpxhb:course></extensions></trkpt><trkpt lat="22.908498164729053" lon="120.72894446510351"><ele>510.6057305095631</ele><time>2025-02-16T01:44:08Z</time><src>Hikingbook</src><extensions><gpxhb:speed>0.368406</gpxhb:speed><gpxhb:course>355.144642</gpxhb:course></extensions></trkpt><trkpt lat="22.908478201475607" lon="120.72907556095987"><ele>505.114537126352</ele><time>2025-02-16T01:44:24Z</time><src>Hikingbook</src><extensions><gpxhb:speed>1.000091</gpxhb:speed><gpxhb:course>33.724711</gpxhb:course></extensions></trkpt><trkpt lat="22.908691923939813" lon="120.72907656343521"><ele>498.8915145477363</ele><time>2025-02-16T01:44:40Z</time><src>Hikingbook</src><extensions><gpxhb:speed>0.275535</gpxhb:speed><gpxhb:course>6.260979</gpxhb:course></extensions></trkpt><trkpt lat="22.908593592584754" lon="120.72899154500392"><ele>485.57575079347174</ele><time>2025-02-16T01:44:55Z</time><src>Hikingbook</src><extensions><gpxhb:speed>0.077515</gpxhb:speed><gpxhb:course>230.115153</gpxhb:course></extensions></trkpt><trkpt lat="22.908915312633443" lon="120.72897740899735"><ele>488.36687274205855</ele><time>2025-02-16T01:45:10Z</time><src>Hikingbook</src><extensions><gpxhb:speed>0.874842</gpxhb:speed><gpxhb:course>329.003298</gpxhb:course></extensions></trkpt><trkpt lat="22.908959748134198" lon="120.72927124671236"><ele>494.4164182628453</ele><time>2025-02-16T01:45:26Z</time><src>Hikingbook</src><extensions><gpxhb:speed>0.702857</gpxhb:speed><gpxhb:course>347.717467</gpxhb:course></extensions></trkpt><trkpt lat="22.909279092296153" lon="120.72911529105959"><ele>500.8616232004527</ele><time>2025-02-16T01:45:42Z</time><src>Hikingbook</src><extensions><gpxhb:speed>2.068531</gpxhb:speed><gpxhb:course>307.923198</gpxhb:course></extensions></trkpt><trkpt lat="22.909276981492578" lon="120.7290263146224"><ele>494.6361353790227</ele><time>2025-02-16T01:45:57Z</time><src>Hikingbook</src><extensions><gpxhb:speed>2.028306</gpxhb:speed><gpxhb:course>318.611148</gpxhb:course></extensions></trkpt><trkpt lat="22.909412976149245" lon="120.72901663995736"><ele>493.8044832299623</ele><time>2025-02-16T01:46:12Z</time><src>Hikingbook</src><extensions><gpxhb:speed>1.731761</gpxhb:speed><gpxhb:course>332.229955</gpxhb:course></extensions></trkpt><trkpt lat="22.909437931806618" lon="120.72901073581188"><ele>495.22431213316594</ele><time>2025-02-16T01:46:13Z</time><src>Hikingbook</src><extensions><gpxhb:speed>1.681531</gpxhb:speed><gpxhb:course>332.247879</gpxhb:course></extensions></trkpt><trkpt lat="22.909532888633898" lon="120.72897736922248"><ele>495.6678980931873</ele><time>2025-02-16T01:46:20Z</time><src>Hikingbook</src><extensions><gpxhb:speed>1.393461</gpxhb:speed><gpxhb:course>336.087602</gpxhb:course></extensions></trkpt><trkpt lat="22.909502804904726" lon="120.72905355488663"><ele>489.103652649368</ele><time>2025-02-16T01:46:35Z</time><src>Hikingbook</src><extensions><gpxhb:speed>1.322471</gpxhb:speed><gpxhb:course>325.872811</gpxhb:course></extensions></trkpt><trkpt lat="22.909572819419687" lon="120.7291515452584"><ele>489.0736149612879</ele><time>2025-02-16T01:46:51Z</time><src>Hikingbook</src><extensions><gpxhb:speed>1.117533</gpxhb:speed><gpxhb:course>-1.000000</gpxhb:course></extensions></trkpt><trkpt lat="22.909423795552378" lon="120.72925787191426"><ele>499.3024159487511</ele><time>2025-02-16T01:47:12Z</time><src>Hikingbook</src><extensions><gpxhb:speed>0.678173</gpxhb:speed><gpxhb:course>-1.000000</gpxhb:course></extensions></trkpt><trkpt lat="22.909552990279035" lon="120.72928730308814"><ele>503.7573445295588</ele><time>2025-02-16T01:47:55Z</time><src>Hikingbook</src><extensions><gpxhb:speed>0.043959</gpxhb:speed><gpxhb:course>65.744743</gpxhb:course></extensions></trkpt><trkpt lat="22.909481304383185" lon="120.7293754444984"><ele>498.9317105372504</ele><time>2025-02-16T01:48:18Z</time><src>Hikingbook</src><extensions><gpxhb:speed>0.464737</gpxhb:speed><gpxhb:course>-1.000000</gpxhb:course></extensions></trkpt><trkpt lat="22.909666982862483" lon="120.72935436987663"><ele>493.07477369150575</ele><time>2025-02-16T01:48:58Z</time><src>Hikingbook</src><extensions><gpxhb:speed>0.345625</gpxhb:speed><gpxhb:course>-1.000000</gpxhb:course></extensions></trkpt><trkpt lat="22.909661204323353" lon="120.72948909749033"><ele>497.4897880882527</ele><time>2025-02-16T01:49:13Z</time><src>Hikingbook</src><extensions><gpxhb:speed>0.414781</gpxhb:speed><gpxhb:course>-1.000000</gpxhb:course></extensions></trkpt><trkpt lat="22.90965168289913" lon="120.72936152967904"><ele>498.9484770110222</ele><time>2025-02-16T01:49:35Z</time><src>Hikingbook</src><extensions><gpxhb:speed>0.086128</gpxhb:speed><gpxhb:course>-1.000000</gpxhb:course></extensions></trkpt><trkpt lat="22.910039072150695" lon="120.7297164623881"><ele>487.63828616377646</ele><time>2025-02-16T01:50:53Z</time><src>Hikingbook</src><extensions><gpxhb:speed>0.594272</gpxhb:speed><gpxhb:course>24.614622</gpxhb:course></extensions></trkpt><trkpt lat="22.910123338235092" lon="120.72969154133548"><ele>489.1373365600382</ele><time>2025-02-16T01:51:08Z</time><src>Hikingbook</src><extensions><gpxhb:speed>1.017380</gpxhb:speed><gpxhb:course>25.074600</gpxhb:course></extensions></trkpt><trkpt lat="22.910144075572912" lon="120.72966937989467"><ele>493.49068680296205</ele><time>2025-02-16T01:51:09Z</time><src>Hikingbook</src><extensions><gpxhb:speed>1.450307</gpxhb:speed><gpxhb:course>345.849657</gpxhb:course></extensions></trkpt><trkpt lat="22.91046518832094" lon="120.72975015047217"><ele>493.6298853298342</ele><time>2025-02-16T01:51:32Z</time><src>Hikingbook</src><extensions><gpxhb:speed>1.173164</gpxhb:speed><gpxhb:course>19.425072</gpxhb:course></extensions></trkpt><trkpt lat="22.910469420807882" lon="120.72989505959133"><ele>488.0987444929799</ele><time>2025-02-16T01:51:47Z</time><src>Hikingbook</src><extensions><gpxhb:speed>0.955280</gpxhb:speed><gpxhb:course>-1.000000</gpxhb:course></extensions></trkpt><trkpt lat="22.910557230343166" lon="120.73001416397315"><ele>485.6559858175968</ele><time>2025-02-16T01:52:06Z</time><src>Hikingbook</src><extensions><gpxhb:speed>0.000000</gpxhb:speed><gpxhb:course>13.426551</gpxhb:course></extensions></trkpt><trkpt lat="22.910447917550396" lon="120.73002187558568"><ele>479.8504464730068</ele><time>2025-02-16T01:52:21Z</time><src>Hikingbook</src><extensions><gpxhb:speed>0.726682</gpxhb:speed><gpxhb:course>-1.000000</gpxhb:course></extensions></trkpt><trkpt lat="22.910628843856475" lon="120.73015564986538"><ele>487.49982596861065</ele><time>2025-02-16T01:52:44Z</time><src>Hikingbook</src><extensions><gpxhb:speed>1.608686</gpxhb:speed><gpxhb:course>43.115206</gpxhb:course></extensions></trkpt><trkpt lat="22.910571230969527" lon="120.73035208617758"><ele>472.6836392774273</ele><time>2025-02-16T01:53:14Z</time><src>Hikingbook</src><extensions><gpxhb:speed>1.562013</gpxhb:speed><gpxhb:course>177.781858</gpxhb:course></extensions></trkpt><trkpt lat="22.910764600741746" lon="120.73044633253141"><ele>471.6027827413268</ele><time>2025-02-16T01:53:37Z</time><src>Hikingbook</src><extensions><gpxhb:speed>1.585858</gpxhb:speed><gpxhb:course>-1.000000</gpxhb:course></extensions></trkpt><trkpt lat="22.910774167680106" lon="120.73040941001976"><ele>477.339117440142</ele><time>2025-02-16T01:53:53Z</time><src>Hikingbook</src><extensions><gpxhb:speed>0.251110</gpxhb:speed><gpxhb:course>354.301956</gpxhb:course></extensions></trkpt><trkpt lat="22.910800956685325" lon="120.7303555728197"><ele>477.58062996508545</ele><time>2025-02-16T01:54:07Z</time><src>Hikingbook</src><extensions><gpxhb:speed>0.000985</gpxhb:speed><gpxhb:course>356.954324</gpxhb:course></extensions></trkpt><trkpt lat="22.910785094150587" lon="120.73055585213173"><ele>476.7795917033317</ele><time>2025-02-16T01:54:22Z</time><src>Hikingbook</src><extensions><gpxhb:speed>0.500334</gpxhb:speed><gpxhb:course>112.658570</gpxhb:course></extensions></trkpt><trkpt lat="22.910884068078065" lon="120.73072972113077"><ele>465.582870335904</ele><time>2025-02-16T01:54:37Z</time><src>Hikingbook</src><extensions><gpxhb:speed>1.681268</gpxhb:speed><gpxhb:course>75.728459</gpxhb:course></extensions></trkpt><trkpt lat="22.910784733558202" lon="120.73083563310185"><ele>463.8282675206448</ele><time>2025-02-16T01:54:52Z</time><src>Hikingbook</src><extensions><gpxhb:speed>0.436070</gpxhb:speed><gpxhb:course>129.774046</gpxhb:course></extensions></trkpt><trkpt lat="22.91078098527979" lon="120.730774435801"><ele>467.1436730531018</ele><time>2025-02-16T01:55:09Z</time><src>Hikingbook</src><extensions><gpxhb:speed>0.883069</gpxhb:speed><gpxhb:course>-1.000000</gpxhb:course></extensions></trkpt><trkpt lat="22.91094068096844" lon="120.73084782283306"><ele>471.3159407108274</ele><time>2025-02-16T01:55:27Z</time><src>Hikingbook</src><extensions><gpxhb:speed>0.196653</gpxhb:speed><gpxhb:course>51.642023</gpxhb:course></extensions></trkpt><trkpt lat="22.91090261725015" lon="120.73104122572292"><ele>470.857389814239</ele><time>2025-02-16T01:55:44Z</time><src>Hikingbook</src><extensions><gpxhb:speed>1.506269</gpxhb:speed><gpxhb:course>71.954284</gpxhb:course></extensions></trkpt><trkpt lat="22.911197738830467" lon="120.73087759557838"><ele>488.7175678263898</ele><time>2025-02-16T01:56:00Z</time><src>Hikingbook</src><extensions><gpxhb:speed>2.156424</gpxhb:speed><gpxhb:course>-1.000000</gpxhb:course></extensions></trkpt><trkpt lat="22.91122554951305" lon="120.73105852588547"><ele>486.3910690837513</ele><time>2025-02-16T01:56:32Z</time><src>Hikingbook</src><extensions><gpxhb:speed>0.024369</gpxhb:speed><gpxhb:course>-1.000000</gpxhb:course></extensions></trkpt><trkpt lat="22.911522221105034" lon="120.73093270708465"><ele>483.1386752573262</ele><time>2025-02-16T01:57:03Z</time><src>Hikingbook</src><extensions><gpxhb:speed>2.173695</gpxhb:speed><gpxhb:course>314.079187</gpxhb:course></extensions></trkpt><trkpt lat="22.911477514763124" lon="120.73136469336067"><ele>483.77305573971995</ele><time>2025-02-16T01:57:18Z</time><src>Hikingbook</src><extensions><gpxhb:speed>1.451522</gpxhb:speed><gpxhb:course>355.624444</gpxhb:course></extensions></trkpt><trkpt lat="22.911485259489275" lon="120.73123831935084"><ele>482.72028132262244</ele><time>2025-02-16T01:57:34Z</time><src>Hikingbook</src><extensions><gpxhb:speed>0.000000</gpxhb:speed><gpxhb:course>-1.000000</gpxhb:course></extensions></trkpt><trkpt lat="22.91155863012985" lon="120.73086351712645"><ele>487.1657206028916</ele><time>2025-02-16T01:57:42Z</time><src>Hikingbook</src><extensions><gpxhb:speed>0.000000</gpxhb:speed><gpxhb:course>107.092754</gpxhb:course></extensions></trkpt><trkpt lat="22.911568768030293" lon="120.73112808695676"><ele>488.6942386623037</ele><time>2025-02-16T01:58:00Z</time><src>Hikingbook</src><extensions><gpxhb:speed>0.897383</gpxhb:speed><gpxhb:course>56.595926</gpxhb:course></extensions></trkpt><trkpt lat="22.91166476433996" lon="120.73096117452185"><ele>494.125981509019</ele><time>2025-02-16T01:58:23Z</time><src>Hikingbook</src><extensions><gpxhb:speed>0.092804</gpxhb:speed><gpxhb:course>246.149634</gpxhb:course></extensions></trkpt><trkpt lat="22.911903252453197" lon="120.73111146145456"><ele>495.69942796908003</ele><time>2025-02-16T01:58:55Z</time><src>Hikingbook</src><extensions><gpxhb:speed>1.599050</gpxhb:speed><gpxhb:course>322.619919</gpxhb:course></extensions></trkpt><trkpt lat="22.912070272917372" lon="120.7309457377695"><ele>495.8774374489095</ele><time>2025-02-16T01:59:11Z</time><src>Hikingbook</src><extensions><gpxhb:speed>1.958033</gpxhb:speed><gpxhb:course>306.624695</gpxhb:course></extensions></trkpt><trkpt lat="22.912086648924348" lon="120.73078115751572"><ele>496.5250847974498</ele><time>2025-02-16T01:59:36Z</time><src>Hikingbook</src><extensions><gpxhb:speed>1.131437</gpxhb:speed><gpxhb:course>296.595606</gpxhb:course></extensions></trkpt><trkpt lat="22.912221301628403" lon="120.73125338461685"><ele>503.4828950748242</ele><time>2025-02-16T01:59:54Z</time><src>Hikingbook</src><extensions><gpxhb:speed>0.000000</gpxhb:speed><gpxhb:course>296.595794</gpxhb:course></extensions></trkpt></trkseg><trkseg><trkpt lat="22.912221301628403" lon="120.73125338461685"><ele>503.4828950748242</ele><time>2025-02-16T02:03:44Z</time><src>Hikingbook</src><extensions><gpxhb:speed>0.000000</gpxhb:speed><gpxhb:course>296.595794</gpxhb:course></extensions></trkpt><trkpt lat="22.912183100519034" lon="120.73117937201715"><ele>450.1765403717068</ele><time>2025-02-16T02:04:14Z</time><src>Hikingbook</src><extensions><gpxhb:speed>0.105037</gpxhb:speed><gpxhb:course>-1.000000</gpxhb:course></extensions></trkpt></trkseg><trkseg><trkpt lat="22.912183100519034" lon="120.73117937201715"><ele>450.1765403717068</ele><time>2025-02-16T04:14:56Z</time><src>Hikingbook</src><extensions><gpxhb:speed>0.105037</gpxhb:speed><gpxhb:course>-1.000000</gpxhb:course></extensions></trkpt><trkpt lat="22.912872433051742" lon="120.73065776425997"><ele>436.37948657899653</ele><time>2025-02-16T04:16:03Z</time><src>Hikingbook</src><extensions><gpxhb:speed>-1.000000</gpxhb:speed><gpxhb:course>-1.000000</gpxhb:course></extensions></trkpt><trkpt lat="22.912704607251683" lon="120.73040291085118"><ele>460.4017442260213</ele><time>2025-02-16T04:16:19Z</time><src>Hikingbook</src><extensions><gpxhb:speed>0.530000</gpxhb:speed><gpxhb:course>-1.000000</gpxhb:course></extensions></trkpt><trkpt lat="22.91305871353038" lon="120.73038447829795"><ele>475.4526831660744</ele><time>2025-02-16T04:16:46Z</time><src>Hikingbook</src><extensions><gpxhb:speed>1.409276</gpxhb:speed><gpxhb:course>328.679622</gpxhb:course></extensions></trkpt><trkpt lat="22.913121634707878" lon="120.73040596999371"><ele>479.86170477024234</ele><time>2025-02-16T04:16:50Z</time><src>Hikingbook</src><extensions><gpxhb:speed>1.020508</gpxhb:speed><gpxhb:course>317.037915</gpxhb:course></extensions></trkpt><trkpt lat="22.913287604812272" lon="120.73041558092368"><ele>508.254874766755</ele><time>2025-02-16T04:17:14Z</time><src>Hikingbook</src><extensions><gpxhb:speed>0.050305</gpxhb:speed><gpxhb:course>351.795635</gpxhb:course></extensions></trkpt><trkpt lat="22.91323501660694" lon="120.73017826620804"><ele>521.4017912997687</ele><time>2025-02-16T04:18:08Z</time><src>Hikingbook</src><extensions><gpxhb:speed>0.026353</gpxhb:speed><gpxhb:course>-1.000000</gpxhb:course></extensions></trkpt><trkpt lat="22.913201074325446" lon="120.73024694706989"><ele>513.2037781563648</ele><time>2025-02-16T04:18:23Z</time><src>Hikingbook</src><extensions><gpxhb:speed>0.188136</gpxhb:speed><gpxhb:course>67.391879</gpxhb:course></extensions></trkpt><trkpt lat="22.91360313446531" lon="120.73044499412744"><ele>506.04502321321684</ele><time>2025-02-16T04:19:00Z</time><src>Hikingbook</src><extensions><gpxhb:speed>1.301877</gpxhb:speed><gpxhb:course>22.076498</gpxhb:course></extensions></trkpt><trkpt lat="22.91383117281148" lon="120.7304364248533"><ele>503.0653411284611</ele><time>2025-02-16T04:19:22Z</time><src>Hikingbook</src><extensions><gpxhb:speed>0.927069</gpxhb:speed><gpxhb:course>5.105515</gpxhb:course></extensions></trkpt><trkpt lat="22.91393970909165" lon="120.73068942290261"><ele>500.68716072016167</ele><time>2025-02-16T04:19:44Z</time><src>Hikingbook</src><extensions><gpxhb:speed>0.469598</gpxhb:speed><gpxhb:course>93.027293</gpxhb:course></extensions></trkpt><trkpt lat="22.913715030965545" lon="120.73080507195492"><ele>505.63035465197964</ele><time>2025-02-16T04:20:00Z</time><src>Hikingbook</src><extensions><gpxhb:speed>0.897496</gpxhb:speed><gpxhb:course>46.978885</gpxhb:course></extensions></trkpt><trkpt lat="22.914044633727233" lon="120.73078251691251"><ele>503.90846685949157</ele><time>2025-02-16T04:20:15Z</time><src>Hikingbook</src><extensions><gpxhb:speed>0.018620</gpxhb:speed><gpxhb:course>-1.000000</gpxhb:course></extensions></trkpt><trkpt lat="22.914182868989137" lon="120.73067327262122"><ele>500.81749904328933</ele><time>2025-02-16T04:20:31Z</time><src>Hikingbook</src><extensions><gpxhb:speed>0.370701</gpxhb:speed><gpxhb:course>327.833200</gpxhb:course></extensions></trkpt><trkpt lat="22.914195589106267" lon="120.73084382932156"><ele>501.7351348607029</ele><time>2025-02-16T04:20:47Z</time><src>Hikingbook</src><extensions><gpxhb:speed>0.073503</gpxhb:speed><gpxhb:course>-1.000000</gpxhb:course></extensions></trkpt><trkpt lat="22.91417173379745" lon="120.73079176869497"><ele>498.9203628464184</ele><time>2025-02-16T04:21:03Z</time><src>Hikingbook</src><extensions><gpxhb:speed>0.125648</gpxhb:speed><gpxhb:course>-1.000000</gpxhb:course></extensions></trkpt><trkpt lat="22.914323228973267" lon="120.73057614218828"><ele>501.1525332087069</ele><time>2025-02-16T04:21:35Z</time><src>Hikingbook</src><extensions><gpxhb:speed>0.786260</gpxhb:speed><gpxhb:course>316.401445</gpxhb:course></extensions></trkpt><trkpt lat="22.91426355370671" lon="120.73071531378841"><ele>500.01694350893337</ele><time>2025-02-16T04:21:51Z</time><src>Hikingbook</src><extensions><gpxhb:speed>0.221418</gpxhb:speed><gpxhb:course>316.401466</gpxhb:course></extensions></trkpt><trkpt lat="22.914332073116004" lon="120.73097898111264"><ele>502.5038134995735</ele><time>2025-02-16T04:22:17Z</time><src>Hikingbook</src><extensions><gpxhb:speed>0.339284</gpxhb:speed><gpxhb:course>68.023088</gpxhb:course></extensions></trkpt></trkseg><trkseg><trkpt lat="22.914332073116004" lon="120.73097898111264"><ele>502.5038134995735</ele><time>2025-02-16T05:13:28Z</time><src>Hikingbook</src><extensions><gpxhb:speed>0.339284</gpxhb:speed><gpxhb:course>68.023088</gpxhb:course></extensions></trkpt><trkpt lat="22.91462280840675" lon="120.73105424577145"><ele>498.56680579502205</ele><time>2025-02-16T05:14:24Z</time><src>Hikingbook</src><extensions><gpxhb:speed>1.962955</gpxhb:speed><gpxhb:course>102.290187</gpxhb:course></extensions></trkpt><trkpt lat="22.914595058262933" lon="120.7312409163711"><ele>502.22078943290336</ele><time>2025-02-16T05:14:39Z</time><src>Hikingbook</src><extensions><gpxhb:speed>0.000000</gpxhb:speed><gpxhb:course>-1.000000</gpxhb:course></extensions></trkpt><trkpt lat="22.914583057033642" lon="120.73098521599503"><ele>502.2434904858516</ele><time>2025-02-16T05:14:55Z</time><src>Hikingbook</src><extensions><gpxhb:speed>0.968704</gpxhb:speed><gpxhb:course>-1.000000</gpxhb:course></extensions></trkpt><trkpt lat="22.91435684867909" lon="120.73133998009621"><ele>506.98193933873773</ele><time>2025-02-16T05:15:21Z</time><src>Hikingbook</src><extensions><gpxhb:speed>1.542362</gpxhb:speed><gpxhb:course>-1.000000</gpxhb:course></extensions></trkpt><trkpt lat="22.914687398188075" lon="120.73104199352217"><ele>501.70881464110397</ele><time>2025-02-16T05:15:36Z</time><src>Hikingbook</src><extensions><gpxhb:speed>1.686305</gpxhb:speed><gpxhb:course>-1.000000</gpxhb:course></extensions></trkpt><trkpt lat="22.91476172138095" lon="120.73092579380747"><ele>496.6457385676047</ele><time>2025-02-16T05:15:46Z</time><src>Hikingbook</src><extensions><gpxhb:speed>0.877918</gpxhb:speed><gpxhb:course>-1.000000</gpxhb:course></extensions></trkpt><trkpt lat="22.914651363261104" lon="120.73084602315886"><ele>493.7180996417178</ele><time>2025-02-16T05:16:01Z</time><src>Hikingbook</src><extensions><gpxhb:speed>0.461206</gpxhb:speed><gpxhb:course>-1.000000</gpxhb:course></extensions></trkpt><trkpt lat="22.91447602367189" lon="120.73108562959122"><ele>502.4507995154377</ele><time>2025-02-16T05:16:28Z</time><src>Hikingbook</src><extensions><gpxhb:speed>0.271004</gpxhb:speed><gpxhb:course>-1.000000</gpxhb:course></extensions></trkpt><trkpt lat="22.914790627309873" lon="120.73072885910746"><ele>496.95014128090025</ele><time>2025-02-16T05:17:52Z</time><src>Hikingbook</src><extensions><gpxhb:speed>0.011870</gpxhb:speed><gpxhb:course>-1.000000</gpxhb:course></extensions></trkpt></trkseg><trkseg><trkpt lat="22.914790627309873" lon="120.73072885910746"><ele>496.95014128090025</ele><time>2025-02-16T06:28:40Z</time><src>Hikingbook</src><extensions><gpxhb:speed>0.011870</gpxhb:speed><gpxhb:course>-1.000000</gpxhb:course></extensions></trkpt><trkpt lat="22.914776359014514" lon="120.73130846453034"><ele>488.6092511002852</ele><time>2025-02-16T06:28:42Z</time><src>Hikingbook</src><extensions><gpxhb:speed>0.180000</gpxhb:speed><gpxhb:course>-1.000000</gpxhb:course></extensions></trkpt></trkseg><trkseg><trkpt lat="22.914776359014514" lon="120.73130846453034"><ele>488.6092511002852</ele><time>2025-02-16T06:30:19Z</time><src>Hikingbook</src><extensions><gpxhb:speed>0.180000</gpxhb:speed><gpxhb:course>-1.000000</gpxhb:course></extensions></trkpt><trkpt lat="22.914858543171658" lon="120.7309199137314"><ele>495.8548206886737</ele><time>2025-02-16T06:30:57Z</time><src>Hikingbook</src><extensions><gpxhb:speed>0.357986</gpxhb:speed><gpxhb:course>-1.000000</gpxhb:course></extensions></trkpt></trkseg><trkseg><trkpt lat="22.914858543171658" lon="120.7309199137314"><ele>495.8548206886737</ele><time>2025-02-16T06:45:48Z</time><src>Hikingbook</src><extensions><gpxhb:speed>0.357986</gpxhb:speed><gpxhb:course>-1.000000</gpxhb:course></extensions></trkpt><trkpt lat="22.91499323986598" lon="120.73097124600567"><ele>493.9575717493691</ele><time>2025-02-16T06:45:50Z</time><src>Hikingbook</src><extensions><gpxhb:speed>1.310000</gpxhb:speed><gpxhb:course>-1.000000</gpxhb:course></extensions></trkpt></trkseg><trkseg><trkpt lat="22.91499323986598" lon="120.73097124600567"><ele>493.9575717493691</ele><time>2025-02-16T06:53:40Z</time><src>Hikingbook</src><extensions><gpxhb:speed>1.310000</gpxhb:speed><gpxhb:course>-1.000000</gpxhb:course></extensions></trkpt></trkseg><trkseg><trkpt lat="22.91499323986598" lon="120.73097124600567"><ele>493.9575717493691</ele><time>2025-02-16T07:54:44Z</time><src>Hikingbook</src><extensions><gpxhb:speed>1.310000</gpxhb:speed><gpxhb:course>-1.000000</gpxhb:course></extensions></trkpt></trkseg><trkseg><trkpt lat="22.91499323986598" lon="120.73097124600567"><ele>493.9575717493691</ele><time>2025-02-16T08:30:56Z</time><src>Hikingbook</src><extensions><gpxhb:speed>1.310000</gpxhb:speed><gpxhb:course>-1.000000</gpxhb:course></extensions></trkpt><trkpt lat="22.916211029374065" lon="120.73074183448142"><ele>469.4031220837055</ele><time>2025-02-16T08:33:18Z</time><src>Hikingbook</src><extensions><gpxhb:speed>0.000000</gpxhb:speed><gpxhb:course>-1.000000</gpxhb:course></extensions></trkpt><trkpt lat="22.916294209301658" lon="120.730792105165"><ele>481.72968064673825</ele><time>2025-02-16T08:33:33Z</time><src>Hikingbook</src><extensions><gpxhb:speed>0.000000</gpxhb:speed><gpxhb:course>-1.000000</gpxhb:course></extensions></trkpt><trkpt lat="22.916962631251074" lon="120.73037705146108"><ele>501.82616833292116</ele><time>2025-02-16T08:33:53Z</time><src>Hikingbook</src><extensions><gpxhb:speed>1.690675</gpxhb:speed><gpxhb:course>299.936842</gpxhb:course></extensions></trkpt><trkpt lat="22.916605634471804" lon="120.73025925269535"><ele>486.6353598880194</ele><time>2025-02-16T08:34:10Z</time><src>Hikingbook</src><extensions><gpxhb:speed>0.720063</gpxhb:speed><gpxhb:course>290.023318</gpxhb:course></extensions></trkpt><trkpt lat="22.916846208623372" lon="120.7304003674193"><ele>483.2543127800543</ele><time>2025-02-16T08:34:42Z</time><src>Hikingbook</src><extensions><gpxhb:speed>0.048683</gpxhb:speed><gpxhb:course>186.674342</gpxhb:course></extensions></trkpt><trkpt lat="22.91694994186399" lon="120.73030194137523"><ele>467.6111246547925</ele><time>2025-02-16T08:35:17Z</time><src>Hikingbook</src><extensions><gpxhb:speed>0.423824</gpxhb:speed><gpxhb:course>-1.000000</gpxhb:course></extensions></trkpt><trkpt lat="22.9169464056138" lon="120.73010544372134"><ele>465.8425293302468</ele><time>2025-02-16T08:35:34Z</time><src>Hikingbook</src><extensions><gpxhb:speed>0.000000</gpxhb:speed><gpxhb:course>241.718828</gpxhb:course></extensions></trkpt><trkpt lat="22.917002455592453" lon="120.73027377249372"><ele>469.05876699911727</ele><time>2025-02-16T08:35:50Z</time><src>Hikingbook</src><extensions><gpxhb:speed>1.193013</gpxhb:speed><gpxhb:course>45.942257</gpxhb:course></extensions></trkpt><trkpt lat="22.917271817082923" lon="120.73069441170782"><ele>466.8311330810155</ele><time>2025-02-16T08:36:11Z</time><src>Hikingbook</src><extensions><gpxhb:speed>0.826897</gpxhb:speed><gpxhb:course>65.761303</gpxhb:course></extensions></trkpt><trkpt lat="22.917170965243677" lon="120.73057163561292"><ele>467.53438764289615</ele><time>2025-02-16T08:36:27Z</time><src>Hikingbook</src><extensions><gpxhb:speed>0.000000</gpxhb:speed><gpxhb:course>52.593303</gpxhb:course></extensions></trkpt><trkpt lat="22.91750454701802" lon="120.73070174498417"><ele>467.2964473885316</ele><time>2025-02-16T08:36:49Z</time><src>Hikingbook</src><extensions><gpxhb:speed>1.274230</gpxhb:speed><gpxhb:course>11.371384</gpxhb:course></extensions></trkpt><trkpt lat="22.917329831602444" lon="120.7305208231944"><ele>435.19242067331544</ele><time>2025-02-16T08:37:05Z</time><src>Hikingbook</src><extensions><gpxhb:speed>0.950000</gpxhb:speed><gpxhb:course>41.132815</gpxhb:course></extensions></trkpt></trkseg><trkseg><trkpt lat="22.91761044488722" lon="120.7309531770165"><ele>457.9078288191934</ele><time>2025-02-16T08:40:20Z</time><src>Hikingbook</src><extensions><gpxhb:speed>1.730000</gpxhb:speed><gpxhb:course>23.203128</gpxhb:course></extensions></trkpt><trkpt lat="22.917751145947765" lon="120.73055932349303"><ele>467.8914027593639</ele><time>2025-02-16T08:40:35Z</time><src>Hikingbook</src><extensions><gpxhb:speed>1.475820</gpxhb:speed><gpxhb:course>354.295563</gpxhb:course></extensions></trkpt><trkpt lat="22.91783101127935" lon="120.73055504839813"><ele>467.34557830719234</ele><time>2025-02-16T08:40:51Z</time><src>Hikingbook</src><extensions><gpxhb:speed>0.851773</gpxhb:speed><gpxhb:course>-1.000000</gpxhb:course></extensions></trkpt><trkpt lat="22.917862924953408" lon="120.73049057784338"><ele>465.68693961576747</ele><time>2025-02-16T08:40:54Z</time><src>Hikingbook</src><extensions><gpxhb:speed>1.074320</gpxhb:speed><gpxhb:course>331.684459</gpxhb:course></extensions></trkpt><trkpt lat="22.91795757192825" lon="120.73076833246749"><ele>458.8787650572504</ele><time>2025-02-16T08:41:26Z</time><src>Hikingbook</src><extensions><gpxhb:speed>1.553911</gpxhb:speed><gpxhb:course>103.747138</gpxhb:course></extensions></trkpt><trkpt lat="22.9182031191462" lon="120.7302796436196"><ele>448.28368191722535</ele><time>2025-02-16T08:41:49Z</time><src>Hikingbook</src><extensions><gpxhb:speed>2.140918</gpxhb:speed><gpxhb:course>293.641889</gpxhb:course></extensions></trkpt><trkpt lat="22.918234478995533" lon="120.73047477124598"><ele>438.0607370008922</ele><time>2025-02-16T08:42:11Z</time><src>Hikingbook</src><extensions><gpxhb:speed>0.905686</gpxhb:speed><gpxhb:course>68.748972</gpxhb:course></extensions></trkpt><trkpt lat="22.91840868696968" lon="120.73062001724061"><ele>443.18375134158043</ele><time>2025-02-16T08:42:26Z</time><src>Hikingbook</src><extensions><gpxhb:speed>0.488798</gpxhb:speed><gpxhb:course>343.551817</gpxhb:course></extensions></trkpt><trkpt lat="22.918629354745416" lon="120.73049750433353"><ele>431.1455714106269</ele><time>2025-02-16T08:42:42Z</time><src>Hikingbook</src><extensions><gpxhb:speed>0.952300</gpxhb:speed><gpxhb:course>2.844273</gpxhb:course></extensions></trkpt><trkpt lat="22.918735102619873" lon="120.7303532508262"><ele>415.9399329817207</ele><time>2025-02-16T08:43:26Z</time><src>Hikingbook</src><extensions><gpxhb:speed>0.129760</gpxhb:speed><gpxhb:course>93.458076</gpxhb:course></extensions></trkpt><trkpt lat="22.91878950458904" lon="120.73036959961328"><ele>412.8317073762559</ele><time>2025-02-16T08:43:42Z</time><src>Hikingbook</src><extensions><gpxhb:speed>0.880973</gpxhb:speed><gpxhb:course>347.245374</gpxhb:course></extensions></trkpt><trkpt lat="22.918775196328077" lon="120.73023099540059"><ele>408.7427519243413</ele><time>2025-02-16T08:43:58Z</time><src>Hikingbook</src><extensions><gpxhb:speed>0.962909</gpxhb:speed><gpxhb:course>324.096256</gpxhb:course></extensions></trkpt><trkpt lat="22.91891745462394" lon="120.73013069796303"><ele>409.8230349479864</ele><time>2025-02-16T08:44:14Z</time><src>Hikingbook</src><extensions><gpxhb:speed>0.591708</gpxhb:speed><gpxhb:course>314.411008</gpxhb:course></extensions></trkpt><trkpt lat="22.91885569270565" lon="120.7299805098122"><ele>401.7863615972234</ele><time>2025-02-16T08:44:36Z</time><src>Hikingbook</src><extensions><gpxhb:speed>0.738619</gpxhb:speed><gpxhb:course>262.427665</gpxhb:course></extensions></trkpt><trkpt lat="22.91889587702536" lon="120.7298310385747"><ele>401.7786143711907</ele><time>2025-02-16T08:45:21Z</time><src>Hikingbook</src><extensions><gpxhb:speed>0.287558</gpxhb:speed><gpxhb:course>259.582410</gpxhb:course></extensions></trkpt><trkpt lat="22.91881513000632" lon="120.72985074310921"><ele>400.353823443611</ele><time>2025-02-16T08:45:37Z</time><src>Hikingbook</src><extensions><gpxhb:speed>0.000000</gpxhb:speed><gpxhb:course>239.546813</gpxhb:course></extensions></trkpt><trkpt lat="22.918835850885557" lon="120.72979283465595"><ele>400.64645990904273</ele><time>2025-02-16T08:46:10Z</time><src>Hikingbook</src><extensions><gpxhb:speed>0.952284</gpxhb:speed><gpxhb:course>241.087225</gpxhb:course></extensions></trkpt><trkpt lat="22.918725240144138" lon="120.72976038426232"><ele>400.0778996633134</ele><time>2025-02-16T08:46:25Z</time><src>Hikingbook</src><extensions><gpxhb:speed>0.339998</gpxhb:speed><gpxhb:course>235.001496</gpxhb:course></extensions></trkpt></trkseg><trkseg><trkpt lat="22.918725240144138" lon="120.72976038426232"><ele>400.0778996633134</ele><time>2025-02-16T08:50:00Z</time><src>Hikingbook</src><extensions><gpxhb:speed>0.339998</gpxhb:speed><gpxhb:course>235.001496</gpxhb:course></extensions></trkpt><trkpt lat="22.918909418473774" lon="120.72990431430816"><ele>405.31089715648193</ele><time>2025-02-16T08:50:01Z</time><src>Hikingbook</src><extensions><gpxhb:speed>0.510314</gpxhb:speed><gpxhb:course>-1.000000</gpxhb:course></extensions></trkpt><trkpt lat="22.918764793034246" lon="120.7294680946836"><ele>395.18360740970843</ele><time>2025-02-16T08:50:24Z</time><src>Hikingbook</src><extensions><gpxhb:speed>1.744656</gpxhb:speed><gpxhb:course>258.290313</gpxhb:course></extensions></trkpt><trkpt lat="22.918799383917307" lon="120.72930749314514"><ele>394.0441545673675</ele><time>2025-02-16T08:50:48Z</time><src>Hikingbook</src><extensions><gpxhb:speed>1.102922</gpxhb:speed><gpxhb:course>294.353661</gpxhb:course></extensions></trkpt><trkpt lat="22.918548677658777" lon="120.72879066818805"><ele>390.207452132342</ele><time>2025-02-16T08:51:58Z</time><src>Hikingbook</src><extensions><gpxhb:speed>0.849375</gpxhb:speed><gpxhb:course>242.526748</gpxhb:course></extensions></trkpt><trkpt lat="22.918548064922103" lon="120.72877995422233"><ele>389.78206594358977</ele><time>2025-02-16T08:51:59Z</time><src>Hikingbook</src><extensions><gpxhb:speed>0.737823</gpxhb:speed><gpxhb:course>252.202415</gpxhb:course></extensions></trkpt><trkpt lat="22.918434045531168" lon="120.72837714029639"><ele>390.5771634060885</ele><time>2025-02-16T08:52:33Z</time><src>Hikingbook</src><extensions><gpxhb:speed>1.139740</gpxhb:speed><gpxhb:course>255.018574</gpxhb:course></extensions></trkpt><trkpt lat="22.91826381308507" lon="120.72815157463253"><ele>390.1546518119663</ele><time>2025-02-16T08:52:57Z</time><src>Hikingbook</src><extensions><gpxhb:speed>1.045362</gpxhb:speed><gpxhb:course>225.800849</gpxhb:course></extensions></trkpt><trkpt lat="22.918100646068275" lon="120.72812024265117"><ele>387.8785552146274</ele><time>2025-02-16T08:53:12Z</time><src>Hikingbook</src><extensions><gpxhb:speed>0.620804</gpxhb:speed><gpxhb:course>204.313996</gpxhb:course></extensions></trkpt><trkpt lat="22.91810008232685" lon="120.72799128554102"><ele>388.62011212733523</ele><time>2025-02-16T08:53:32Z</time><src>Hikingbook</src><extensions><gpxhb:speed>0.806315</gpxhb:speed><gpxhb:course>266.373002</gpxhb:course></extensions></trkpt><trkpt lat="22.91796031061774" lon="120.72785612465059"><ele>387.1956806672545</ele><time>2025-02-16T08:53:48Z</time><src>Hikingbook</src><extensions><gpxhb:speed>1.371109</gpxhb:speed><gpxhb:course>214.258013</gpxhb:course></extensions></trkpt><trkpt lat="22.917929937987157" lon="120.72784424563872"><ele>386.20128770977544</ele><time>2025-02-16T08:53:51Z</time><src>Hikingbook</src><extensions><gpxhb:speed>0.991316</gpxhb:speed><gpxhb:course>212.314435</gpxhb:course></extensions></trkpt><trkpt lat="22.917946088217256" lon="120.72769548370674"><ele>385.3471081505845</ele><time>2025-02-16T08:54:06Z</time><src>Hikingbook</src><extensions><gpxhb:speed>0.895754</gpxhb:speed><gpxhb:course>247.095037</gpxhb:course></extensions></trkpt><trkpt lat="22.917849858601905" lon="120.72751354762046"><ele>387.08654058177126</ele><time>2025-02-16T08:54:22Z</time><src>Hikingbook</src><extensions><gpxhb:speed>1.621796</gpxhb:speed><gpxhb:course>239.501145</gpxhb:course></extensions></trkpt><trkpt lat="22.917699773617308" lon="120.72742635714025"><ele>386.141508139435</ele><time>2025-02-16T08:54:36Z</time><src>Hikingbook</src><extensions><gpxhb:speed>1.369856</gpxhb:speed><gpxhb:course>214.014732</gpxhb:course></extensions></trkpt><trkpt lat="22.917692716448467" lon="120.72709482676585"><ele>385.07183464977743</ele><time>2025-02-16T08:55:07Z</time><src>Hikingbook</src><extensions><gpxhb:speed>1.052965</gpxhb:speed><gpxhb:course>257.632376</gpxhb:course></extensions></trkpt><trkpt lat="22.917586499364894" lon="120.72686279014728"><ele>380.366854041972</ele><time>2025-02-16T08:55:35Z</time><src>Hikingbook</src><extensions><gpxhb:speed>0.510809</gpxhb:speed><gpxhb:course>233.681684</gpxhb:course></extensions></trkpt><trkpt lat="22.917584565676663" lon="120.7268523939331"><ele>379.8235523387888</ele><time>2025-02-16T08:55:36Z</time><src>Hikingbook</src><extensions><gpxhb:speed>0.922193</gpxhb:speed><gpxhb:course>249.644551</gpxhb:course></extensions></trkpt><trkpt lat="22.917560500705353" lon="120.72678586853978"><ele>379.505062538541</ele><time>2025-02-16T08:55:49Z</time><src>Hikingbook</src><extensions><gpxhb:speed>0.648630</gpxhb:speed><gpxhb:course>277.683669</gpxhb:course></extensions></trkpt><trkpt lat="22.917690760953782" lon="120.7265448551144"><ele>378.10096467152204</ele><time>2025-02-16T08:56:09Z</time><src>Hikingbook</src><extensions><gpxhb:speed>1.514013</gpxhb:speed><gpxhb:course>286.365022</gpxhb:course></extensions></trkpt><trkpt lat="22.917628126790643" lon="120.7261209304602"><ele>379.83190191211946</ele><time>2025-02-16T08:56:48Z</time><src>Hikingbook</src><extensions><gpxhb:speed>1.186467</gpxhb:speed><gpxhb:course>261.397835</gpxhb:course></extensions></trkpt><trkpt lat="22.917535160698414" lon="120.72598832400716"><ele>379.83906270880885</ele><time>2025-02-16T08:57:02Z</time><src>Hikingbook</src><extensions><gpxhb:speed>0.875733</gpxhb:speed><gpxhb:course>240.338039</gpxhb:course></extensions></trkpt><trkpt lat="22.917565081660598" lon="120.7258369990054"><ele>379.0723090456413</ele><time>2025-02-16T08:57:19Z</time><src>Hikingbook</src><extensions><gpxhb:speed>0.839561</gpxhb:speed><gpxhb:course>280.820444</gpxhb:course></extensions></trkpt><trkpt lat="22.91757603178748" lon="120.72582529010745"><ele>378.60876881267137</ele><time>2025-02-16T08:57:20Z</time><src>Hikingbook</src><extensions><gpxhb:speed>1.023239</gpxhb:speed><gpxhb:course>287.129789</gpxhb:course></extensions></trkpt><trkpt lat="22.917338236709202" lon="120.72582447620098"><ele>375.37778899965576</ele><time>2025-02-16T08:57:35Z</time><src>Hikingbook</src><extensions><gpxhb:speed>2.068289</gpxhb:speed><gpxhb:course>206.157684</gpxhb:course></extensions></trkpt><trkpt lat="22.917364554119818" lon="120.72559768516929"><ele>379.158132933545</ele><time>2025-02-16T08:57:52Z</time><src>Hikingbook</src><extensions><gpxhb:speed>2.019627</gpxhb:speed><gpxhb:course>258.629393</gpxhb:course></extensions></trkpt><trkpt lat="22.917227242422197" lon="120.72545736565223"><ele>376.9845399537295</ele><time>2025-02-16T08:58:08Z</time><src>Hikingbook</src><extensions><gpxhb:speed>0.870679</gpxhb:speed><gpxhb:course>222.475737</gpxhb:course></extensions></trkpt><trkpt lat="22.917266655686372" lon="120.72522841084897"><ele>377.1878372210158</ele><time>2025-02-16T08:58:26Z</time><src>Hikingbook</src><extensions><gpxhb:speed>0.757587</gpxhb:speed><gpxhb:course>264.028563</gpxhb:course></extensions></trkpt><trkpt lat="22.917099778583715" lon="120.72483026907068"><ele>379.84983249367565</ele><time>2025-02-16T08:59:05Z</time><src>Hikingbook</src><extensions><gpxhb:speed>0.689888</gpxhb:speed><gpxhb:course>231.495909</gpxhb:course></extensions></trkpt><trkpt lat="22.917097934860983" lon="120.7248135226032"><ele>380.2062481065755</ele><time>2025-02-16T08:59:06Z</time><src>Hikingbook</src><extensions><gpxhb:speed>0.861715</gpxhb:speed><gpxhb:course>235.707082</gpxhb:course></extensions></trkpt><trkpt lat="22.916913598633112" lon="120.72445803992079"><ele>387.3880098871728</ele><time>2025-02-16T08:59:31Z</time><src>Hikingbook</src><extensions><gpxhb:speed>1.211208</gpxhb:speed><gpxhb:course>246.038000</gpxhb:course></extensions></trkpt><trkpt lat="22.91681184526733" lon="120.72438816055224"><ele>390.7876770399467</ele><time>2025-02-16T08:59:45Z</time><src>Hikingbook</src><extensions><gpxhb:speed>1.011285</gpxhb:speed><gpxhb:course>223.518424</gpxhb:course></extensions></trkpt><trkpt lat="22.916655475485015" lon="120.72444135914158"><ele>395.7024402726185</ele><time>2025-02-16T09:00:03Z</time><src>Hikingbook</src><extensions><gpxhb:speed>0.332480</gpxhb:speed><gpxhb:course>150.308253</gpxhb:course></extensions></trkpt><trkpt lat="22.91661520732718" lon="120.72426502922937"><ele>408.45145452704224</ele><time>2025-02-16T09:00:19Z</time><src>Hikingbook</src><extensions><gpxhb:speed>0.673992</gpxhb:speed><gpxhb:course>185.808390</gpxhb:course></extensions></trkpt><trkpt lat="22.916310746880818" lon="120.72438101391508"><ele>415.87505228970554</ele><time>2025-02-16T09:00:49Z</time><src>Hikingbook</src><extensions><gpxhb:speed>1.422862</gpxhb:speed><gpxhb:course>149.664370</gpxhb:course></extensions></trkpt><trkpt lat="22.916335800776913" lon="120.72465035466048"><ele>410.5057571496136</ele><time>2025-02-16T09:01:05Z</time><src>Hikingbook</src><extensions><gpxhb:speed>0.809180</gpxhb:speed><gpxhb:course>150.742313</gpxhb:course></extensions></trkpt><trkpt lat="22.916132514593052" lon="120.72470498852833"><ele>406.0057461749827</ele><time>2025-02-16T09:01:21Z</time><src>Hikingbook</src><extensions><gpxhb:speed>0.957805</gpxhb:speed><gpxhb:course>179.088851</gpxhb:course></extensions></trkpt><trkpt lat="22.91610744404835" lon="120.72470500977083"><ele>406.10095134232444</ele><time>2025-02-16T09:01:22Z</time><src>Hikingbook</src><extensions><gpxhb:speed>1.013712</gpxhb:speed><gpxhb:course>173.903537</gpxhb:course></extensions></trkpt><trkpt lat="22.915570073098557" lon="120.72462680174766"><ele>393.8172083209898</ele><time>2025-02-16T09:02:10Z</time><src>Hikingbook</src><extensions><gpxhb:speed>1.340557</gpxhb:speed><gpxhb:course>206.552349</gpxhb:course></extensions></trkpt><trkpt lat="22.91546490733191" lon="120.724324337886"><ele>382.9225245603864</ele><time>2025-02-16T09:02:35Z</time><src>Hikingbook</src><extensions><gpxhb:speed>0.771371</gpxhb:speed><gpxhb:course>242.370905</gpxhb:course></extensions></trkpt><trkpt lat="22.915608014628486" lon="120.72440891369972"><ele>372.037198430271</ele><time>2025-02-16T09:03:00Z</time><src>Hikingbook</src><extensions><gpxhb:speed>0.195666</gpxhb:speed><gpxhb:course>258.874252</gpxhb:course></extensions></trkpt><trkpt lat="22.915536683670844" lon="120.72445780276011"><ele>361.37679717004255</ele><time>2025-02-16T09:03:48Z</time><src>Hikingbook</src><extensions><gpxhb:speed>0.000000</gpxhb:speed><gpxhb:course>260.110769</gpxhb:course></extensions></trkpt><trkpt lat="22.915555059257613" lon="120.72441445255686"><ele>359.4106600982967</ele><time>2025-02-16T09:04:05Z</time><src>Hikingbook</src><extensions><gpxhb:speed>0.264843</gpxhb:speed><gpxhb:course>260.110711</gpxhb:course></extensions></trkpt><trkpt lat="22.915377331092586" lon="120.72436381180279"><ele>358.28786933102765</ele><time>2025-02-16T09:04:23Z</time><src>Hikingbook</src><extensions><gpxhb:speed>1.274574</gpxhb:speed><gpxhb:course>184.605551</gpxhb:course></extensions></trkpt><trkpt lat="22.91519457346637" lon="120.72444167063934"><ele>359.5421522474918</ele><time>2025-02-16T09:04:32Z</time><src>Hikingbook</src><extensions><gpxhb:speed>0.924366</gpxhb:speed><gpxhb:course>155.599699</gpxhb:course></extensions></trkpt><trkpt lat="22.915177592733897" lon="120.72446506309039"><ele>359.87171632930557</ele><time>2025-02-16T09:04:33Z</time><src>Hikingbook</src><extensions><gpxhb:speed>0.853978</gpxhb:speed><gpxhb:course>151.953422</gpxhb:course></extensions></trkpt><trkpt lat="22.91511908482353" lon="120.72451124248394"><ele>360.4663294477775</ele><time>2025-02-16T09:04:38Z</time><src>Hikingbook</src><extensions><gpxhb:speed>1.169676</gpxhb:speed><gpxhb:course>155.966428</gpxhb:course></extensions></trkpt><trkpt lat="22.9149554406931" lon="120.72440556839766"><ele>360.70939296595736</ele><time>2025-02-16T09:04:57Z</time><src>Hikingbook</src><extensions><gpxhb:speed>0.073810</gpxhb:speed><gpxhb:course>221.323613</gpxhb:course></extensions></trkpt><trkpt lat="22.914412045874357" lon="120.72393065920275"><ele>367.36656171329764</ele><time>2025-02-16T09:06:07Z</time><src>Hikingbook</src><extensions><gpxhb:speed>0.961539</gpxhb:speed><gpxhb:course>206.303313</gpxhb:course></extensions></trkpt><trkpt lat="22.91440316476338" lon="120.72391750674414"><ele>369.9245142552574</ele><time>2025-02-16T09:06:08Z</time><src>Hikingbook</src><extensions><gpxhb:speed>0.761005</gpxhb:speed><gpxhb:course>201.667328</gpxhb:course></extensions></trkpt><trkpt lat="22.914074403240246" lon="120.72372189320276"><ele>382.93248966141</ele><time>2025-02-16T09:06:48Z</time><src>Hikingbook</src><extensions><gpxhb:speed>0.511714</gpxhb:speed><gpxhb:course>231.045264</gpxhb:course></extensions></trkpt><trkpt lat="22.91386793330055" lon="120.72348566925062"><ele>379.7219913388269</ele><time>2025-02-16T09:07:24Z</time><src>Hikingbook</src><extensions><gpxhb:speed>0.431590</gpxhb:speed><gpxhb:course>212.879410</gpxhb:course></extensions></trkpt><trkpt lat="22.913811172235846" lon="120.72328602417087"><ele>377.51332879054263</ele><time>2025-02-16T09:07:44Z</time><src>Hikingbook</src><extensions><gpxhb:speed>0.868960</gpxhb:speed><gpxhb:course>257.795092</gpxhb:course></extensions></trkpt><trkpt lat="22.913939950692235" lon="120.72307678631076"><ele>362.2313757533887</ele><time>2025-02-16T09:08:37Z</time><src>Hikingbook</src><extensions><gpxhb:speed>0.842305</gpxhb:speed><gpxhb:course>269.730645</gpxhb:course></extensions></trkpt><trkpt lat="22.91387799318841" lon="120.72292379859195"><ele>363.1066162534173</ele><time>2025-02-16T09:08:53Z</time><src>Hikingbook</src><extensions><gpxhb:speed>2.192523</gpxhb:speed><gpxhb:course>258.319800</gpxhb:course></extensions></trkpt><trkpt lat="22.91419432577479" lon="120.72198364471589"><ele>354.16633310833936</ele><time>2025-02-16T09:10:41Z</time><src>Hikingbook</src><extensions><gpxhb:speed>1.470866</gpxhb:speed><gpxhb:course>280.479010</gpxhb:course></extensions></trkpt><trkpt lat="22.914193817366648" lon="120.72196398036446"><ele>354.0948404694027</ele><time>2025-02-16T09:10:42Z</time><src>Hikingbook</src><extensions><gpxhb:speed>1.380095</gpxhb:speed><gpxhb:course>285.257755</gpxhb:course></extensions></trkpt><trkpt lat="22.914232418857168" lon="120.72181308397869"><ele>354.3108304126249</ele><time>2025-02-16T09:10:56Z</time><src>Hikingbook</src><extensions><gpxhb:speed>1.335651</gpxhb:speed><gpxhb:course>285.213472</gpxhb:course></extensions></trkpt><trkpt lat="22.914382320577552" lon="120.72165632682356"><ele>351.50247363796603</ele><time>2025-02-16T09:11:21Z</time><src>Hikingbook</src><extensions><gpxhb:speed>1.299803</gpxhb:speed><gpxhb:course>297.294427</gpxhb:course></extensions></trkpt><trkpt lat="22.91437618256413" lon="120.72116066580257"><ele>345.9343947511069</ele><time>2025-02-16T09:12:03Z</time><src>Hikingbook</src><extensions><gpxhb:speed>1.262267</gpxhb:speed><gpxhb:course>265.144797</gpxhb:course></extensions></trkpt><trkpt lat="22.914476434385293" lon="120.72098945683237"><ele>346.7217273261923</ele><time>2025-02-16T09:12:19Z</time><src>Hikingbook</src><extensions><gpxhb:speed>0.907986</gpxhb:speed><gpxhb:course>302.512808</gpxhb:course></extensions></trkpt><trkpt lat="22.9144845067443" lon="120.72098036788462"><ele>346.8930070265222</ele><time>2025-02-16T09:12:20Z</time><src>Hikingbook</src><extensions><gpxhb:speed>1.126918</gpxhb:speed><gpxhb:course>292.694620</gpxhb:course></extensions></trkpt><trkpt lat="22.914378686957907" lon="120.7204649608339"><ele>348.22388006078023</ele><time>2025-02-16T09:13:10Z</time><src>Hikingbook</src><extensions><gpxhb:speed>1.484603</gpxhb:speed><gpxhb:course>273.908019</gpxhb:course></extensions></trkpt><trkpt lat="22.91458133546628" lon="120.71999284812084"><ele>346.47251085201685</ele><time>2025-02-16T09:13:50Z</time><src>Hikingbook</src><extensions><gpxhb:speed>1.396314</gpxhb:speed><gpxhb:course>283.246395</gpxhb:course></extensions></trkpt><trkpt lat="22.91458350375924" lon="120.71997789930978"><ele>346.4666708544939</ele><time>2025-02-16T09:13:51Z</time><src>Hikingbook</src><extensions><gpxhb:speed>1.565992</gpxhb:speed><gpxhb:course>289.865107</gpxhb:course></extensions></trkpt><trkpt lat="22.914841837472487" lon="120.71962929587066"><ele>344.85893938281464</ele><time>2025-02-16T09:14:28Z</time><src>Hikingbook</src><extensions><gpxhb:speed>1.410252</gpxhb:speed><gpxhb:course>289.793359</gpxhb:course></extensions></trkpt><trkpt lat="22.914886255884294" lon="120.71904752006"><ele>353.11553181545236</ele><time>2025-02-16T09:15:10Z</time><src>Hikingbook</src><extensions><gpxhb:speed>1.150260</gpxhb:speed><gpxhb:course>277.409704</gpxhb:course></extensions></trkpt><trkpt lat="22.91488837741657" lon="120.71902977415536"><ele>353.4289536657411</ele><time>2025-02-16T09:15:11Z</time><src>Hikingbook</src><extensions><gpxhb:speed>1.466646</gpxhb:speed><gpxhb:course>280.804758</gpxhb:course></extensions></trkpt><trkpt lat="22.914744408603973" lon="120.71896054112797"><ele>356.52992642815775</ele><time>2025-02-16T09:15:29Z</time><src>Hikingbook</src><extensions><gpxhb:speed>0.630165</gpxhb:speed><gpxhb:course>172.609961</gpxhb:course></extensions></trkpt><trkpt lat="22.914421017250486" lon="120.71909379702109"><ele>365.8928763420373</ele><time>2025-02-16T09:16:00Z</time><src>Hikingbook</src><extensions><gpxhb:speed>0.978829</gpxhb:speed><gpxhb:course>181.336433</gpxhb:course></extensions></trkpt><trkpt lat="22.913966700920614" lon="120.71911673668457"><ele>367.86907755237553</ele><time>2025-02-16T09:16:39Z</time><src>Hikingbook</src><extensions><gpxhb:speed>1.391677</gpxhb:speed><gpxhb:course>171.241589</gpxhb:course></extensions></trkpt><trkpt lat="22.913948561192075" lon="120.71911524340942"><ele>368.16863856801</ele><time>2025-02-16T09:16:40Z</time><src>Hikingbook</src><extensions><gpxhb:speed>1.524450</gpxhb:speed><gpxhb:course>171.351564</gpxhb:course></extensions></trkpt><trkpt lat="22.913743261379064" lon="120.71906557036803"><ele>374.08302399745935</ele><time>2025-02-16T09:17:04Z</time><src>Hikingbook</src><extensions><gpxhb:speed>0.599583</gpxhb:speed><gpxhb:course>188.738961</gpxhb:course></extensions></trkpt></trkseg></trk></gpx>