<?xml version="1.0" encoding="UTF-8"?>
<gpx version="1.1" creator="Hikingbook" xmlns:xsi="http://www.w3.org/2001/XMLSchema-instance" xmlns="http://www.topografix.com/GPX/1/1" xsi:schemaLocation="http://www.topografix.com/GPX/1/1 https://www.topografix.com/GPX/1/1/gpx.xsd https://hikingbook.net/xmlschemas/1/5 https:/hikingbook.net/xmlschemas/1/5/gpxhb.xsd" xmlns:gpxhb="https://hikingbook.net/xmlschemas/1/5"><metadata><name>🪢烏來大瀑布-（2026-03-23）-「溪降」［🇹🇼新北-烏來］</name><desc>&#xA;---&#xA;W-waterfall (瀑布）&#xA;S-slideway (滑瀑）&#xA;L-left(左岸）&#xA;TL-TopLeft(高左岸）&#xA;BL-BottomLeft(低左岸）&#xA;R-right(右岸）&#xA;TR-TopRight(高右岸）&#xA;BR-BottomRight(低右岸）&#xA;C-center(中岸）&#xA;&#xA;WT-waterfalltop(瀑頂）&#xA;WB-waterfallbottom(瀑底）&#xA;M-middle(中繼點）&#xA;D-deep(深潭）&#xA;G-guide (滑降）&#xA;B-bolt(人工錨點）&#xA;N-nature(天然錨點）&#xA;PB-personal bolt (人力錨點）&#xA;DB-damaged bolt(損壞錨點）&#xA;RB-removal bolt(可拆錨點）&#xA;TR-Traverse(橫移）&#xA;&#xA;Ex: &#xA;W1(M1-L)-B2-18m，D-5m&#xA;「瀑布1（中繼點1-左岸）-bolt有兩顆-使用繩長18米，深潭5公尺長」&#xA;&#xA;成員（10）：&#xA;jimce、&#xA;潾兒、&#xA;錦榮、&#xA;蕭和、&#xA;家閔、&#xA;小草、&#xA;小林、&#xA;小囍、&#xA;Jimmy&#xA;阿源&#xA;&#xA;裝備：&#xA;&#xA;繩(4)- &#xA;Humna(8.0)*100、&#xA;&#xA;C IV(9.0)*100、&#xA;&#xA;PC（8.0）*80、&#xA;&#xA;Kuku（8.0）*70、&#xA;&#xA;Kuku（8.0）*60、&#xA;&#xA;Kuku（8.0）*30、&#xA;&#xA;急救包*2-&#xA;&#xA;&#xA;電鑽*2&#xA;Bolt（M10)*10&#xA;可移除bolt(m8)*6&#xA;&#xA;無線電-&#xA;頻率：&#xA;   長距-144.52000&#xA;   短距-457.51250&#xA;&#xA;啞音：&#xA;&#xA;攝影器材：&#xA;1.)DJI mini 5 pro&#xA;</desc><author><name>Hikingbook</name><link href="https://hikingbook.net"><text>Hikingbook</text></link></author><link href="https://hikingbook.net/hikes/%E7%83%8F%E4%BE%86%E5%A4%A7%E7%80%91%E5%B8%83-2026-03-23-%E6%BA%AA%E9%99%8D-%E6%96%B0%E5%8C%97-%E7%83%8F%E4%BE%86-1564da2c"><text>Hikingbook</text></link><time>2026-06-25T20:03:47.081317768+08:00</time><keywords>Hikingbook,EzLife ,Jimce,Taiwan,Canyoning ,溪降,新北,烏來,烏來大瀑布</keywords><extensions><gpxhb:loadweight>10.0</gpxhb:loadweight><gpxhb:fitnesslevel>1</gpxhb:fitnesslevel><gpxhb:activitytype>backpacking</gpxhb:activitytype><gpxhb:trackimageurl>https://assets.hikingbook.net/users/60w3wu1it91y2jmwdxciziq/s7qy2inzr0itx90jixaxiqg/6a856a0b-6e90-426b-8759-afc1946ec09f.jpg</gpxhb:trackimageurl><gpxhb:device>Apple iPhone 17 Pro</gpxhb:device><gpxhb:source>Hikingbook</gpxhb:source></extensions></metadata><wpt lat="24.853542563619435" lon="121.55776905502177"><ele>510</ele><time>2026-03-22T22:45:26Z</time><name>00 Start</name><cmt>2026-03-23T06:45:26+08:00</cmt><desc>00 Start</desc><src>Hikingbook</src><link href="https://hikingbook.net/hikes/S7qy2inZR0itX90jixaxiQg"><text>Hikingbook</text></link><extensions><gpxhb:weather>Clear</gpxhb:weather><gpxhb:speed>0.034140</gpxhb:speed><gpxhb:course>-1.000000</gpxhb:course></extensions></wpt><wpt lat="24.851009080197347" lon="121.55836801122285"><ele>613</ele><time>2026-03-22T23:08:22Z</time><name>01 三角點 （集合-等隊友）</name><cmt>2026-03-23T07:08:22+08:00</cmt><desc>01 三角點 （集合-等隊友）</desc><src>Hikingbook</src><link href="https://hikingbook.net/hikes/S7qy2inZR0itX90jixaxiQg"><text>Hikingbook</text></link><extensions><gpxhb:weather>Clear</gpxhb:weather><gpxhb:speed>0.000000</gpxhb:speed><gpxhb:course>233.241246</gpxhb:course></extensions></wpt><wpt lat="24.851009503774648" lon="121.55833278373356"><ele>603</ele><time>2026-03-22T23:19:58Z</time><name>02 三角點 （離開）</name><cmt>2026-03-23T07:19:58+08:00</cmt><desc>02 三角點 （離開）</desc><src>Hikingbook</src><link href="https://hikingbook.net/hikes/S7qy2inZR0itX90jixaxiQg"><text>Hikingbook</text></link><extensions><gpxhb:weather>Clear</gpxhb:weather><gpxhb:speed>0.093081</gpxhb:speed><gpxhb:course>-1.000000</gpxhb:course></extensions></wpt><wpt lat="24.845428136674204" lon="121.55468181598755"><ele>444</ele><time>2026-03-23T00:15:42Z</time><name>03 運貨物纜車站</name><cmt>2026-03-23T08:15:42+08:00</cmt><desc>03 運貨物纜車站</desc><src>Hikingbook</src><link href="https://hikingbook.net/hikes/S7qy2inZR0itX90jixaxiQg"><text>Hikingbook</text></link><extensions><gpxhb:weather>Clear</gpxhb:weather><gpxhb:speed>0.000000</gpxhb:speed><gpxhb:course>-1.000000</gpxhb:course></extensions></wpt><wpt lat="24.84543043242764" lon="121.5546867497404"><ele>442</ele><time>2026-03-23T00:32:24Z</time><name>04 W1(WT-R-N-8m)</name><cmt>2026-03-23T08:32:24+08:00</cmt><desc>04 W1(WT-R-N-8m)</desc><src>Hikingbook</src><link href="https://hikingbook.net/hikes/S7qy2inZR0itX90jixaxiQg"><text>Hikingbook</text></link><extensions><gpxhb:weather>Clear</gpxhb:weather><gpxhb:speed>0.176740</gpxhb:speed><gpxhb:course>-1.000000</gpxhb:course></extensions></wpt><wpt lat="24.84557870666268" lon="121.5545487737428"><ele>442</ele><time>2026-03-23T00:47:08Z</time><name>05 W1(M1-R-N-15m)</name><cmt>2026-03-23T08:47:08+08:00</cmt><desc>05 W1(M1-R-N-15m)</desc><src>Hikingbook</src><link href="https://hikingbook.net/hikes/S7qy2inZR0itX90jixaxiQg"><text>Hikingbook</text></link><extensions><gpxhb:weather>Clear</gpxhb:weather><gpxhb:speed>0.520216</gpxhb:speed><gpxhb:course>-1.000000</gpxhb:course></extensions></wpt><wpt lat="24.845606007845632" lon="121.55468010501454"><ele>446</ele><time>2026-03-23T01:12:54Z</time><name>06 W1(M2-R-N-20m)</name><cmt>2026-03-23T09:12:54+08:00</cmt><desc>06 W1(M2-R-N-20m)</desc><src>Hikingbook</src><link href="https://hikingbook.net/hikes/S7qy2inZR0itX90jixaxiQg"><text>Hikingbook</text></link><extensions><gpxhb:weather>Clear</gpxhb:weather><gpxhb:speed>0.000000</gpxhb:speed><gpxhb:course>-1.000000</gpxhb:course></extensions></wpt><wpt lat="24.84550692205823" lon="121.554262107109"><ele>426</ele><time>2026-03-23T02:01:53Z</time><name>07 W2(WT-R-N-8m)</name><cmt>2026-03-23T10:01:53+08:00</cmt><desc>07 W2(WT-R-N-8m)</desc><src>Hikingbook</src><link href="https://hikingbook.net/hikes/S7qy2inZR0itX90jixaxiQg"><text>Hikingbook</text></link><extensions><gpxhb:weather>Clear</gpxhb:weather><gpxhb:speed>0.132834</gpxhb:speed><gpxhb:course>-1.000000</gpxhb:course></extensions></wpt><wpt lat="24.845458315971936" lon="121.55418059324862"><ele>422</ele><time>2026-03-23T02:21:06Z</time><name>08 W2(M1-R-N-12m)</name><cmt>2026-03-23T10:21:06+08:00</cmt><desc>08 W2(M1-R-N-12m)</desc><src>Hikingbook</src><link href="https://hikingbook.net/hikes/S7qy2inZR0itX90jixaxiQg"><text>Hikingbook</text></link><extensions><gpxhb:weather>Clear</gpxhb:weather><gpxhb:speed>0.195710</gpxhb:speed><gpxhb:course>-1.000000</gpxhb:course></extensions></wpt><wpt lat="24.84550467393767" lon="121.55433256793916"><ele>338</ele><time>2026-03-23T02:37:32Z</time><name>09 W3(WT-L-B2-22m)</name><cmt>2026-03-23T10:37:32+08:00</cmt><desc>09 W3(WT-L-B2-22m)</desc><src>Hikingbook</src><link href="https://hikingbook.net/hikes/S7qy2inZR0itX90jixaxiQg"><text>Hikingbook</text></link><extensions><gpxhb:weather>Clear</gpxhb:weather><gpxhb:speed>0.166913</gpxhb:speed><gpxhb:course>-1.000000</gpxhb:course></extensions></wpt><wpt lat="24.845790900247284" lon="121.55402089622318"><ele>392</ele><time>2026-03-23T03:45:06Z</time><name>10 W3(M1-L-B2-30m)</name><cmt>2026-03-23T11:45:06+08:00</cmt><desc>10 W3(M1-L-B2-30m)</desc><src>Hikingbook</src><link href="https://hikingbook.net/hikes/S7qy2inZR0itX90jixaxiQg"><text>Hikingbook</text></link><extensions><gpxhb:weather>Clear</gpxhb:weather><gpxhb:speed>0.040085</gpxhb:speed><gpxhb:course>-1.000000</gpxhb:course></extensions></wpt><wpt lat="24.84651845649361" lon="121.55394034595584"><ele>364</ele><time>2026-03-23T04:03:48Z</time><name>11 W4(WT-R-N-22m)</name><cmt>2026-03-23T12:03:48+08:00</cmt><desc>11 W4(WT-R-N-22m)</desc><src>Hikingbook</src><link href="https://hikingbook.net/hikes/S7qy2inZR0itX90jixaxiQg"><text>Hikingbook</text></link><extensions><gpxhb:weather>Clear</gpxhb:weather><gpxhb:speed>0.000000</gpxhb:speed><gpxhb:course>-1.000000</gpxhb:course></extensions></wpt><wpt lat="24.846878768008626" lon="121.55351204585823"><ele>326</ele><time>2026-03-23T04:37:37Z</time><name>12 W5(WT-R-B1-30m)</name><cmt>2026-03-23T12:37:37+08:00</cmt><desc>12 W5(WT-R-B1-30m)</desc><src>Hikingbook</src><link href="https://hikingbook.net/hikes/S7qy2inZR0itX90jixaxiQg"><text>Hikingbook</text></link><extensions><gpxhb:weather>Clear</gpxhb:weather><gpxhb:speed>0.000000</gpxhb:speed><gpxhb:course>119.469291</gpxhb:course></extensions></wpt><wpt lat="24.847129076794374" lon="121.55307318773173"><ele>269</ele><time>2026-03-23T05:09:55Z</time><name>13 W6(WT-R-B1-20m)</name><cmt>2026-03-23T13:09:55+08:00</cmt><desc>13 W6(WT-R-B1-20m)</desc><src>Hikingbook</src><link href="https://hikingbook.net/hikes/S7qy2inZR0itX90jixaxiQg"><text>Hikingbook</text></link><extensions><gpxhb:weather>Clear</gpxhb:weather><gpxhb:speed>0.063620</gpxhb:speed><gpxhb:course>-1.000000</gpxhb:course></extensions></wpt><wpt lat="24.847449802311235" lon="121.55247469411965"><ele>262</ele><time>2026-03-23T05:54:07Z</time><name>14 W7(WT-L-B2-5m) （烏來大瀑布）</name><cmt>2026-03-23T13:54:07+08:00</cmt><desc>14 W7(WT-L-B2-5m) （烏來大瀑布）</desc><src>Hikingbook</src><link href="https://hikingbook.net/hikes/S7qy2inZR0itX90jixaxiQg"><text>Hikingbook</text></link><extensions><gpxhb:weather>Clear</gpxhb:weather><gpxhb:speed>0.000000</gpxhb:speed><gpxhb:course>345.659974</gpxhb:course></extensions></wpt><wpt lat="24.84748455706826" lon="121.55244671518645"><ele>264</ele><time>2026-03-23T05:54:38Z</time><name>15 W7(M1-R-B2-80m)（烏來大瀑布）</name><cmt>2026-03-23T13:54:38+08:00</cmt><desc>15 W7(M1-R-B2-80m)（烏來大瀑布）</desc><src>Hikingbook</src><link href="https://hikingbook.net/hikes/S7qy2inZR0itX90jixaxiQg"><text>Hikingbook</text></link><extensions><gpxhb:weather>Clear</gpxhb:weather><gpxhb:speed>0.023736</gpxhb:speed><gpxhb:course>359.736529</gpxhb:course></extensions></wpt><wpt lat="24.84755557927547" lon="121.55207169309494"><ele>239</ele><time>2026-03-23T08:01:44Z</time><name>16 W7(M2-L-B2-20m)（烏來大瀑布）</name><cmt>2026-03-23T16:01:44+08:00</cmt><desc>16 W7(M2-L-B2-20m)（烏來大瀑布）</desc><src>Hikingbook</src><link href="https://hikingbook.net/hikes/S7qy2inZR0itX90jixaxiQg"><text>Hikingbook</text></link><extensions><gpxhb:weather>Clear</gpxhb:weather><gpxhb:speed>0.628072</gpxhb:speed><gpxhb:course>-1.000000</gpxhb:course></extensions></wpt><wpt lat="24.846819345561446" lon="121.5512328216742"><ele>177</ele><time>2026-03-23T08:36:17Z</time><name>17 上升</name><cmt>2026-03-23T16:36:17+08:00</cmt><desc>17 上升</desc><src>Hikingbook</src><link href="https://hikingbook.net/hikes/S7qy2inZR0itX90jixaxiQg"><text>Hikingbook</text></link><extensions><gpxhb:weather>Clear</gpxhb:weather><gpxhb:speed>0.034848</gpxhb:speed><gpxhb:course>-1.000000</gpxhb:course></extensions></wpt><wpt lat="24.847064477153815" lon="121.55050502382593"><ele>185</ele><time>2026-03-23T09:35:00Z</time><name>18 B點停車場</name><cmt>2026-03-23T17:35:00+08:00</cmt><desc>18 B點停車場</desc><src>Hikingbook</src><link href="https://hikingbook.net/hikes/S7qy2inZR0itX90jixaxiQg"><text>Hikingbook</text></link><extensions><gpxhb:weather>Clear</gpxhb:weather><gpxhb:speed>-1.000000</gpxhb:speed><gpxhb:course>-1.000000</gpxhb:course></extensions></wpt><trk><name>🪢烏來大瀑布-（2026-03-23）-「溪降」［🇹🇼新北-烏來］</name><cmt>&#xA;---&#xA;W-waterfall (瀑布）&#xA;S-slideway (滑瀑）&#xA;L-left(左岸）&#xA;TL-TopLeft(高左岸）&#xA;BL-BottomLeft(低左岸）&#xA;R-right(右岸）&#xA;TR-TopRight(高右岸）&#xA;BR-BottomRight(低右岸）&#xA;C-center(中岸）&#xA;&#xA;WT-waterfalltop(瀑頂）&#xA;WB-waterfallbottom(瀑底）&#xA;M-middle(中繼點）&#xA;D-deep(深潭）&#xA;G-guide (滑降）&#xA;B-bolt(人工錨點）&#xA;N-nature(天然錨點）&#xA;PB-personal bolt (人力錨點）&#xA;DB-damaged bolt(損壞錨點）&#xA;RB-removal bolt(可拆錨點）&#xA;TR-Traverse(橫移）&#xA;&#xA;Ex: &#xA;W1(M1-L)-B2-18m，D-5m&#xA;「瀑布1（中繼點1-左岸）-bolt有兩顆-使用繩長18米，深潭5公尺長」&#xA;&#xA;成員（10）：&#xA;jimce、&#xA;潾兒、&#xA;錦榮、&#xA;蕭和、&#xA;家閔、&#xA;小草、&#xA;小林、&#xA;小囍、&#xA;Jimmy&#xA;阿源&#xA;&#xA;裝備：&#xA;&#xA;繩(4)- &#xA;Humna(8.0)*100、&#xA;&#xA;C IV(9.0)*100、&#xA;&#xA;PC（8.0）*80、&#xA;&#xA;Kuku（8.0）*70、&#xA;&#xA;Kuku（8.0）*60、&#xA;&#xA;Kuku（8.0）*30、&#xA;&#xA;急救包*2-&#xA;&#xA;&#xA;電鑽*2&#xA;Bolt（M10)*10&#xA;可移除bolt(m8)*6&#xA;&#xA;無線電-&#xA;頻率：&#xA;   長距-144.52000&#xA;   短距-457.51250&#xA;&#xA;啞音：&#xA;&#xA;攝影器材：&#xA;1.)DJI mini 5 pro&#xA;</cmt><desc>&#xA;---&#xA;W-waterfall (瀑布）&#xA;S-slideway (滑瀑）&#xA;L-left(左岸）&#xA;TL-TopLeft(高左岸）&#xA;BL-BottomLeft(低左岸）&#xA;R-right(右岸）&#xA;TR-TopRight(高右岸）&#xA;BR-BottomRight(低右岸）&#xA;C-center(中岸）&#xA;&#xA;WT-waterfalltop(瀑頂）&#xA;WB-waterfallbottom(瀑底）&#xA;M-middle(中繼點）&#xA;D-deep(深潭）&#xA;G-guide (滑降）&#xA;B-bolt(人工錨點）&#xA;N-nature(天然錨點）&#xA;PB-personal bolt (人力錨點）&#xA;DB-damaged bolt(損壞錨點）&#xA;RB-removal bolt(可拆錨點）&#xA;TR-Traverse(橫移）&#xA;&#xA;Ex: &#xA;W1(M1-L)-B2-18m，D-5m&#xA;「瀑布1（中繼點1-左岸）-bolt有兩顆-使用繩長18米，深潭5公尺長」&#xA;&#xA;成員（10）：&#xA;jimce、&#xA;潾兒、&#xA;錦榮、&#xA;蕭和、&#xA;家閔、&#xA;小草、&#xA;小林、&#xA;小囍、&#xA;Jimmy&#xA;阿源&#xA;&#xA;裝備：&#xA;&#xA;繩(4)- &#xA;Humna(8.0)*100、&#xA;&#xA;C IV(9.0)*100、&#xA;&#xA;PC（8.0）*80、&#xA;&#xA;Kuku（8.0）*70、&#xA;&#xA;Kuku（8.0）*60、&#xA;&#xA;Kuku（8.0）*30、&#xA;&#xA;急救包*2-&#xA;&#xA;&#xA;電鑽*2&#xA;Bolt（M10)*10&#xA;可移除bolt(m8)*6&#xA;&#xA;無線電-&#xA;頻率：&#xA;   長距-144.52000&#xA;   短距-457.51250&#xA;&#xA;啞音：&#xA;&#xA;攝影器材：&#xA;1.)DJI mini 5 pro&#xA;</desc><src>Hikingbook</src><link href="https://hikingbook.net/hikes/%E7%83%8F%E4%BE%86%E5%A4%A7%E7%80%91%E5%B8%83-2026-03-23-%E6%BA%AA%E9%99%8D-%E6%96%B0%E5%8C%97-%E7%83%8F%E4%BE%86-1564da2c"><text>Hikingbook</text></link><trkseg><trkpt lat="24.853549029152916" lon="121.55777295271166"><ele>509.60476124144753</ele><time>2026-03-22T22:45:26Z</time><src>Hikingbook</src><extensions><gpxhb:speed>0.034140</gpxhb:speed><gpxhb:course>-1.000000</gpxhb:course></extensions></trkpt><trkpt lat="24.85368873063589" lon="121.5576515128045"><ele>506.18711791341536</ele><time>2026-03-22T22:46:02Z</time><src>Hikingbook</src><extensions><gpxhb:speed>1.088192</gpxhb:speed><gpxhb:course>311.245601</gpxhb:course></extensions></trkpt><trkpt lat="24.853753201020183" lon="121.55748436175239"><ele>504.08818793663204</ele><time>2026-03-22T22:46:19Z</time><src>Hikingbook</src><extensions><gpxhb:speed>0.971192</gpxhb:speed><gpxhb:course>257.987488</gpxhb:course></extensions></trkpt><trkpt lat="24.85368619987772" lon="121.55715989156052"><ele>504.2668116104224</ele><time>2026-03-22T22:48:49Z</time><src>Hikingbook</src><extensions><gpxhb:speed>0.546438</gpxhb:speed><gpxhb:course>279.131830</gpxhb:course></extensions></trkpt><trkpt lat="24.85381372681992" lon="121.55681797367147"><ele>511.56709569393746</ele><time>2026-03-22T22:49:38Z</time><src>Hikingbook</src><extensions><gpxhb:speed>0.539316</gpxhb:speed><gpxhb:course>296.737762</gpxhb:course></extensions></trkpt><trkpt lat="24.853817343664357" lon="121.55680778355125"><ele>511.54747880134704</ele><time>2026-03-22T22:49:39Z</time><src>Hikingbook</src><extensions><gpxhb:speed>0.663180</gpxhb:speed><gpxhb:course>296.737762</gpxhb:course></extensions></trkpt><trkpt lat="24.853890312442278" lon="121.5566440941587"><ele>512.2912796163231</ele><time>2026-03-22T22:50:06Z</time><src>Hikingbook</src><extensions><gpxhb:speed>0.701810</gpxhb:speed><gpxhb:course>303.057312</gpxhb:course></extensions></trkpt><trkpt lat="24.853682152917166" lon="121.55629594064155"><ele>524.5342343751356</ele><time>2026-03-22T22:51:15Z</time><src>Hikingbook</src><extensions><gpxhb:speed>0.043676</gpxhb:speed><gpxhb:course>272.435140</gpxhb:course></extensions></trkpt><trkpt lat="24.853252782114165" lon="121.55704215388245"><ele>520.9087279562322</ele><time>2026-03-22T22:53:40Z</time><src>Hikingbook</src><extensions><gpxhb:speed>0.027422</gpxhb:speed><gpxhb:course>122.145996</gpxhb:course></extensions></trkpt><trkpt lat="24.853002326978164" lon="121.55727829761787"><ele>538.6157735685243</ele><time>2026-03-22T22:55:34Z</time><src>Hikingbook</src><extensions><gpxhb:speed>0.551731</gpxhb:speed><gpxhb:course>175.918061</gpxhb:course></extensions></trkpt><trkpt lat="24.85299922876947" lon="121.55728124476609"><ele>539.0628012439117</ele><time>2026-03-22T22:55:35Z</time><src>Hikingbook</src><extensions><gpxhb:speed>0.277522</gpxhb:speed><gpxhb:course>189.932924</gpxhb:course></extensions></trkpt><trkpt lat="24.852789223565853" lon="121.5574280672731"><ele>542.7577866290068</ele><time>2026-03-22T22:56:21Z</time><src>Hikingbook</src><extensions><gpxhb:speed>0.122558</gpxhb:speed><gpxhb:course>111.474280</gpxhb:course></extensions></trkpt><trkpt lat="24.852613866448767" lon="121.55797347609332"><ele>552.8556682285516</ele><time>2026-03-22T22:57:52Z</time><src>Hikingbook</src><extensions><gpxhb:speed>0.111804</gpxhb:speed><gpxhb:course>-1.000000</gpxhb:course></extensions></trkpt><trkpt lat="24.852313258259535" lon="121.55820742985276"><ele>553.6836724898839</ele><time>2026-03-22T22:58:56Z</time><src>Hikingbook</src><extensions><gpxhb:speed>0.531275</gpxhb:speed><gpxhb:course>101.189492</gpxhb:course></extensions></trkpt><trkpt lat="24.85224899228878" lon="121.5582146712086"><ele>553.457463207328</ele><time>2026-03-22T22:59:12Z</time><src>Hikingbook</src><extensions><gpxhb:speed>0.116710</gpxhb:speed><gpxhb:course>78.635524</gpxhb:course></extensions></trkpt><trkpt lat="24.851873958695627" lon="121.55832427889956"><ele>559.1930704753322</ele><time>2026-03-22T23:00:33Z</time><src>Hikingbook</src><extensions><gpxhb:speed>0.257005</gpxhb:speed><gpxhb:course>144.376235</gpxhb:course></extensions></trkpt><trkpt lat="24.851608133367378" lon="121.55825199183126"><ele>579.0554712776909</ele><time>2026-03-22T23:03:15Z</time><src>Hikingbook</src><extensions><gpxhb:speed>0.027393</gpxhb:speed><gpxhb:course>-1.000000</gpxhb:course></extensions></trkpt><trkpt lat="24.85142491988729" lon="121.5584845519402"><ele>597.3567450676302</ele><time>2026-03-22T23:05:49Z</time><src>Hikingbook</src><extensions><gpxhb:speed>0.261525</gpxhb:speed><gpxhb:course>136.117621</gpxhb:course></extensions></trkpt><trkpt lat="24.851363665278136" lon="121.55844879067989"><ele>598.8846479203668</ele><time>2026-03-22T23:06:14Z</time><src>Hikingbook</src><extensions><gpxhb:speed>0.886194</gpxhb:speed><gpxhb:course>-1.000000</gpxhb:course></extensions></trkpt><trkpt lat="24.851361647323547" lon="121.55844744233059"><ele>599.237789711149</ele><time>2026-03-22T23:06:15Z</time><src>Hikingbook</src><extensions><gpxhb:speed>0.752599</gpxhb:speed><gpxhb:course>-1.000000</gpxhb:course></extensions></trkpt><trkpt lat="24.851167151243963" lon="121.55846770624525"><ele>604.7182453306399</ele><time>2026-03-22T23:07:13Z</time><src>Hikingbook</src><extensions><gpxhb:speed>0.461248</gpxhb:speed><gpxhb:course>183.887289</gpxhb:course></extensions></trkpt><trkpt lat="24.851005017280773" lon="121.55836619120083"><ele>612.3861463922149</ele><time>2026-03-22T23:08:20Z</time><src>Hikingbook</src><extensions><gpxhb:speed>0.036655</gpxhb:speed><gpxhb:course>233.241243</gpxhb:course></extensions></trkpt></trkseg><trkseg><trkpt lat="24.851005017280773" lon="121.55836619120083"><ele>612.3861463922149</ele><time>2026-03-22T23:19:56Z</time><src>Hikingbook</src><extensions><gpxhb:speed>0.036655</gpxhb:speed><gpxhb:course>233.241243</gpxhb:course></extensions></trkpt><trkpt lat="24.850576433428905" lon="121.5582131861574"><ele>605.3636362651775</ele><time>2026-03-22T23:20:53Z</time><src>Hikingbook</src><extensions><gpxhb:speed>0.364434</gpxhb:speed><gpxhb:course>-1.000000</gpxhb:course></extensions></trkpt><trkpt lat="24.85010385104398" lon="121.5582873068355"><ele>587.1032490026604</ele><time>2026-03-22T23:24:44Z</time><src>Hikingbook</src><extensions><gpxhb:speed>0.563188</gpxhb:speed><gpxhb:course>185.311225</gpxhb:course></extensions></trkpt><trkpt lat="24.850097594692485" lon="121.55825732867304"><ele>585.5801289611668</ele><time>2026-03-22T23:25:00Z</time><src>Hikingbook</src><extensions><gpxhb:speed>0.013829</gpxhb:speed><gpxhb:course>206.884685</gpxhb:course></extensions></trkpt><trkpt lat="24.849810771436264" lon="121.5582538342806"><ele>565.7764307211137</ele><time>2026-03-22T23:26:34Z</time><src>Hikingbook</src><extensions><gpxhb:speed>0.032730</gpxhb:speed><gpxhb:course>-1.000000</gpxhb:course></extensions></trkpt><trkpt lat="24.849668704355913" lon="121.55798822610228"><ele>566.8186157768754</ele><time>2026-03-22T23:27:26Z</time><src>Hikingbook</src><extensions><gpxhb:speed>0.356272</gpxhb:speed><gpxhb:course>241.186000</gpxhb:course></extensions></trkpt><trkpt lat="24.849652666454926" lon="121.55779871069731"><ele>571.346702996117</ele><time>2026-03-22T23:28:06Z</time><src>Hikingbook</src><extensions><gpxhb:speed>0.056339</gpxhb:speed><gpxhb:course>161.553030</gpxhb:course></extensions></trkpt><trkpt lat="24.84959554846632" lon="121.55779490555231"><ele>575.863609664383</ele><time>2026-03-22T23:28:30Z</time><src>Hikingbook</src><extensions><gpxhb:speed>0.063193</gpxhb:speed><gpxhb:course>-1.000000</gpxhb:course></extensions></trkpt><trkpt lat="24.849497518696094" lon="121.55755726712958"><ele>579.7819403246361</ele><time>2026-03-22T23:29:17Z</time><src>Hikingbook</src><extensions><gpxhb:speed>0.617273</gpxhb:speed><gpxhb:course>-1.000000</gpxhb:course></extensions></trkpt><trkpt lat="24.849334598133293" lon="121.55754711980035"><ele>576.9427833032125</ele><time>2026-03-22T23:30:39Z</time><src>Hikingbook</src><extensions><gpxhb:speed>0.308871</gpxhb:speed><gpxhb:course>222.571120</gpxhb:course></extensions></trkpt><trkpt lat="24.84931919293659" lon="121.55753618489582"><ele>576.8761670984242</ele><time>2026-03-22T23:30:55Z</time><src>Hikingbook</src><extensions><gpxhb:speed>0.233841</gpxhb:speed><gpxhb:course>179.775707</gpxhb:course></extensions></trkpt><trkpt lat="24.848703561544177" lon="121.55731052809726"><ele>536.0347033027865</ele><time>2026-03-22T23:34:51Z</time><src>Hikingbook</src><extensions><gpxhb:speed>0.357944</gpxhb:speed><gpxhb:course>-1.000000</gpxhb:course></extensions></trkpt><trkpt lat="24.84851552018492" lon="121.55733178790186"><ele>526.9546176997076</ele><time>2026-03-22T23:36:19Z</time><src>Hikingbook</src><extensions><gpxhb:speed>0.441527</gpxhb:speed><gpxhb:course>196.644359</gpxhb:course></extensions></trkpt><trkpt lat="24.848418380490084" lon="121.5574572458694"><ele>522.8261166248507</ele><time>2026-03-22T23:37:45Z</time><src>Hikingbook</src><extensions><gpxhb:speed>0.109679</gpxhb:speed><gpxhb:course>-1.000000</gpxhb:course></extensions></trkpt><trkpt lat="24.848417013293766" lon="121.55746061305445"><ele>522.5242933118469</ele><time>2026-03-22T23:37:47Z</time><src>Hikingbook</src><extensions><gpxhb:speed>0.169455</gpxhb:speed><gpxhb:course>-1.000000</gpxhb:course></extensions></trkpt><trkpt lat="24.84829992233336" lon="121.55740558263119"><ele>516.6601067495944</ele><time>2026-03-22T23:38:33Z</time><src>Hikingbook</src><extensions><gpxhb:speed>0.561261</gpxhb:speed><gpxhb:course>-1.000000</gpxhb:course></extensions></trkpt><trkpt lat="24.848184089704283" lon="121.55745125615326"><ele>514.3420819834372</ele><time>2026-03-22T23:39:25Z</time><src>Hikingbook</src><extensions><gpxhb:speed>0.353089</gpxhb:speed><gpxhb:course>-1.000000</gpxhb:course></extensions></trkpt><trkpt lat="24.84812822926065" lon="121.55738322800971"><ele>511.2845361142072</ele><time>2026-03-22T23:39:43Z</time><src>Hikingbook</src><extensions><gpxhb:speed>0.312239</gpxhb:speed><gpxhb:course>-1.000000</gpxhb:course></extensions></trkpt><trkpt lat="24.848173204794787" lon="121.55710465733335"><ele>512.3582858597107</ele><time>2026-03-22T23:42:48Z</time><src>Hikingbook</src><extensions><gpxhb:speed>0.316169</gpxhb:speed><gpxhb:course>301.967412</gpxhb:course></extensions></trkpt><trkpt lat="24.84798485412238" lon="121.55692998919417"><ele>517.3751188213463</ele><time>2026-03-22T23:44:00Z</time><src>Hikingbook</src><extensions><gpxhb:speed>0.021979</gpxhb:speed><gpxhb:course>270.063579</gpxhb:course></extensions></trkpt><trkpt lat="24.84790874008563" lon="121.55665135257509"><ele>526.6557565752191</ele><time>2026-03-22T23:47:47Z</time><src>Hikingbook</src><extensions><gpxhb:speed>0.067441</gpxhb:speed><gpxhb:course>312.571335</gpxhb:course></extensions></trkpt></trkseg><trkseg><trkpt lat="24.84790874008563" lon="121.55665135257509"><ele>526.6557565752191</ele><time>2026-03-22T23:49:37Z</time><src>Hikingbook</src><extensions><gpxhb:speed>0.067441</gpxhb:speed><gpxhb:course>312.571335</gpxhb:course></extensions></trkpt><trkpt lat="24.84785420681194" lon="121.55654395754567"><ele>526.5426597679992</ele><time>2026-03-22T23:50:06Z</time><src>Hikingbook</src><extensions><gpxhb:speed>0.217039</gpxhb:speed><gpxhb:course>-1.000000</gpxhb:course></extensions></trkpt><trkpt lat="24.847608508255195" lon="121.55640420728793"><ele>518.9440151789656</ele><time>2026-03-22T23:51:33Z</time><src>Hikingbook</src><extensions><gpxhb:speed>0.000000</gpxhb:speed><gpxhb:course>59.664016</gpxhb:course></extensions></trkpt></trkseg><trkseg><trkpt lat="24.847608508255195" lon="121.55640420728793"><ele>518.9440151789656</ele><time>2026-03-22T23:52:58Z</time><src>Hikingbook</src><extensions><gpxhb:speed>0.000000</gpxhb:speed><gpxhb:course>59.664016</gpxhb:course></extensions></trkpt><trkpt lat="24.847311302283526" lon="121.55617911335439"><ele>506.3100244104832</ele><time>2026-03-22T23:54:53Z</time><src>Hikingbook</src><extensions><gpxhb:speed>0.055356</gpxhb:speed><gpxhb:course>343.524477</gpxhb:course></extensions></trkpt></trkseg><trkseg><trkpt lat="24.847311302283526" lon="121.55617911335439"><ele>506.3100244104832</ele><time>2026-03-22T23:58:12Z</time><src>Hikingbook</src><extensions><gpxhb:speed>0.055356</gpxhb:speed><gpxhb:course>343.524477</gpxhb:course></extensions></trkpt><trkpt lat="24.847251246358443" lon="121.55615943386636"><ele>515.7003582517254</ele><time>2026-03-22T23:58:14Z</time><src>Hikingbook</src><extensions><gpxhb:speed>0.000000</gpxhb:speed><gpxhb:course>-1.000000</gpxhb:course></extensions></trkpt><trkpt lat="24.847309397422393" lon="121.556163064775"><ele>508.877282046805</ele><time>2026-03-22T23:58:30Z</time><src>Hikingbook</src><extensions><gpxhb:speed>0.094826</gpxhb:speed><gpxhb:course>-1.000000</gpxhb:course></extensions></trkpt><trkpt lat="24.84722100817282" lon="121.55607257730634"><ele>511.50203784383194</ele><time>2026-03-22T23:58:53Z</time><src>Hikingbook</src><extensions><gpxhb:speed>0.282496</gpxhb:speed><gpxhb:course>257.693305</gpxhb:course></extensions></trkpt><trkpt lat="24.84713834073155" lon="121.55570119307322"><ele>520.7823748098922</ele><time>2026-03-22T23:59:53Z</time><src>Hikingbook</src><extensions><gpxhb:speed>0.495205</gpxhb:speed><gpxhb:course>259.895356</gpxhb:course></extensions></trkpt><trkpt lat="24.84669754202363" lon="121.55544960637084"><ele>510.002304371125</ele><time>2026-03-23T00:02:30Z</time><src>Hikingbook</src><extensions><gpxhb:speed>0.444247</gpxhb:speed><gpxhb:course>-1.000000</gpxhb:course></extensions></trkpt><trkpt lat="24.846691473517794" lon="121.55544896483457"><ele>508.9810292430374</ele><time>2026-03-23T00:02:32Z</time><src>Hikingbook</src><extensions><gpxhb:speed>0.397316</gpxhb:speed><gpxhb:course>-1.000000</gpxhb:course></extensions></trkpt><trkpt lat="24.846104486018913" lon="121.55508615996438"><ele>490.6912623173646</ele><time>2026-03-23T00:05:14Z</time><src>Hikingbook</src><extensions><gpxhb:speed>0.571016</gpxhb:speed><gpxhb:course>225.444929</gpxhb:course></extensions></trkpt><trkpt lat="24.84587224643329" lon="121.55501208022406"><ele>478.68094072707</ele><time>2026-03-23T00:06:57Z</time><src>Hikingbook</src><extensions><gpxhb:speed>0.019779</gpxhb:speed><gpxhb:course>11.039550</gpxhb:course></extensions></trkpt><trkpt lat="24.845870776838403" lon="121.55500767672358"><ele>478.89163716234475</ele><time>2026-03-23T00:06:58Z</time><src>Hikingbook</src><extensions><gpxhb:speed>0.184076</gpxhb:speed><gpxhb:course>11.039550</gpxhb:course></extensions></trkpt><trkpt lat="24.845764533264724" lon="121.55488006571967"><ele>472.063257357929</ele><time>2026-03-23T00:07:59Z</time><src>Hikingbook</src><extensions><gpxhb:speed>0.167401</gpxhb:speed><gpxhb:course>300.127692</gpxhb:course></extensions></trkpt><trkpt lat="24.84566033410878" lon="121.55498402382773"><ele>461.11360726589714</ele><time>2026-03-23T00:10:15Z</time><src>Hikingbook</src><extensions><gpxhb:speed>0.556822</gpxhb:speed><gpxhb:course>-1.000000</gpxhb:course></extensions></trkpt><trkpt lat="24.845595322309784" lon="121.55492607520296"><ele>459.50268846597595</ele><time>2026-03-23T00:11:38Z</time><src>Hikingbook</src><extensions><gpxhb:speed>0.584825</gpxhb:speed><gpxhb:course>-1.000000</gpxhb:course></extensions></trkpt><trkpt lat="24.845527464118817" lon="121.5549518402257"><ele>455.1419999998292</ele><time>2026-03-23T00:12:47Z</time><src>Hikingbook</src><extensions><gpxhb:speed>0.062012</gpxhb:speed><gpxhb:course>-1.000000</gpxhb:course></extensions></trkpt><trkpt lat="24.845465046020454" lon="121.55485551309015"><ele>454.79740429644113</ele><time>2026-03-23T00:13:36Z</time><src>Hikingbook</src><extensions><gpxhb:speed>0.336532</gpxhb:speed><gpxhb:course>-1.000000</gpxhb:course></extensions></trkpt><trkpt lat="24.845506773845262" lon="121.55471998363026"><ele>450.39379545698114</ele><time>2026-03-23T00:14:43Z</time><src>Hikingbook</src><extensions><gpxhb:speed>0.000000</gpxhb:speed><gpxhb:course>291.569703</gpxhb:course></extensions></trkpt><trkpt lat="24.845442782863387" lon="121.55467143742909"><ele>446.4190107968339</ele><time>2026-03-23T00:15:23Z</time><src>Hikingbook</src><extensions><gpxhb:speed>0.071479</gpxhb:speed><gpxhb:course>-1.000000</gpxhb:course></extensions></trkpt></trkseg><trkseg><trkpt lat="24.845442782863387" lon="121.55467143742909"><ele>446.4190107968339</ele><time>2026-03-23T00:47:02Z</time><src>Hikingbook</src><extensions><gpxhb:speed>0.071479</gpxhb:speed><gpxhb:course>-1.000000</gpxhb:course></extensions></trkpt><trkpt lat="24.84554948533965" lon="121.55463391957241"><ele>420.80279946060284</ele><time>2026-03-23T00:47:04Z</time><src>Hikingbook</src><extensions><gpxhb:speed>0.000000</gpxhb:speed><gpxhb:course>-1.000000</gpxhb:course></extensions></trkpt></trkseg><trkseg><trkpt lat="24.84554948533965" lon="121.55463391957241"><ele>420.80279946060284</ele><time>2026-03-23T00:53:31Z</time><src>Hikingbook</src><extensions><gpxhb:speed>0.000000</gpxhb:speed><gpxhb:course>-1.000000</gpxhb:course></extensions></trkpt><trkpt lat="24.845549772160386" lon="121.55455828827257"><ele>435.9553426770324</ele><time>2026-03-23T00:54:10Z</time><src>Hikingbook</src><extensions><gpxhb:speed>0.177673</gpxhb:speed><gpxhb:course>-1.000000</gpxhb:course></extensions></trkpt></trkseg><trkseg><trkpt lat="24.845549772160386" lon="121.55455828827257"><ele>435.9553426770324</ele><time>2026-03-23T01:13:57Z</time><src>Hikingbook</src><extensions><gpxhb:speed>0.177673</gpxhb:speed><gpxhb:course>-1.000000</gpxhb:course></extensions></trkpt><trkpt lat="24.84552777040895" lon="121.55443616664272"><ele>422.50112353663167</ele><time>2026-03-23T01:13:59Z</time><src>Hikingbook</src><extensions><gpxhb:speed>0.047936</gpxhb:speed><gpxhb:course>-1.000000</gpxhb:course></extensions></trkpt></trkseg><trkseg><trkpt lat="24.84552777040895" lon="121.55443616664272"><ele>422.50112353663167</ele><time>2026-03-23T02:01:53Z</time><src>Hikingbook</src><extensions><gpxhb:speed>0.047936</gpxhb:speed><gpxhb:course>-1.000000</gpxhb:course></extensions></trkpt><trkpt lat="24.845485560024983" lon="121.5542163113043"><ele>426.31172818502233</ele><time>2026-03-23T02:02:00Z</time><src>Hikingbook</src><extensions><gpxhb:speed>1.221475</gpxhb:speed><gpxhb:course>266.484716</gpxhb:course></extensions></trkpt><trkpt lat="24.845386623336196" lon="121.55425705263904"><ele>409.7103752434399</ele><time>2026-03-23T02:02:20Z</time><src>Hikingbook</src><extensions><gpxhb:speed>0.031235</gpxhb:speed><gpxhb:course>-1.000000</gpxhb:course></extensions></trkpt></trkseg><trkseg><trkpt lat="24.845386623336196" lon="121.55425705263904"><ele>409.7103752434399</ele><time>2026-03-23T03:45:06Z</time><src>Hikingbook</src><extensions><gpxhb:speed>0.031235</gpxhb:speed><gpxhb:course>-1.000000</gpxhb:course></extensions></trkpt><trkpt lat="24.84576849344952" lon="121.55403684514496"><ele>396.5347787022319</ele><time>2026-03-23T03:45:46Z</time><src>Hikingbook</src><extensions><gpxhb:speed>0.000000</gpxhb:speed><gpxhb:course>-1.000000</gpxhb:course></extensions></trkpt></trkseg><trkseg><trkpt lat="24.84576849344952" lon="121.55403684514496"><ele>396.5347787022319</ele><time>2026-03-23T03:59:11Z</time><src>Hikingbook</src><extensions><gpxhb:speed>0.000000</gpxhb:speed><gpxhb:course>-1.000000</gpxhb:course></extensions></trkpt><trkpt lat="24.845893415664644" lon="121.55384056014596"><ele>362.39925669952447</ele><time>2026-03-23T03:59:13Z</time><src>Hikingbook</src><extensions><gpxhb:speed>1.029200</gpxhb:speed><gpxhb:course>336.126038</gpxhb:course></extensions></trkpt><trkpt lat="24.845932925221394" lon="121.55405360850344"><ele>336.12263305705244</ele><time>2026-03-23T03:59:35Z</time><src>Hikingbook</src><extensions><gpxhb:speed>0.131750</gpxhb:speed><gpxhb:course>-1.000000</gpxhb:course></extensions></trkpt><trkpt lat="24.84586663819995" lon="121.55404662176974"><ele>342.317934925379</ele><time>2026-03-23T03:59:51Z</time><src>Hikingbook</src><extensions><gpxhb:speed>0.253319</gpxhb:speed><gpxhb:course>-1.000000</gpxhb:course></extensions></trkpt><trkpt lat="24.84632206089204" lon="121.55405024033871"><ele>387.8113215527945</ele><time>2026-03-23T04:00:23Z</time><src>Hikingbook</src><extensions><gpxhb:speed>1.884305</gpxhb:speed><gpxhb:course>337.792517</gpxhb:course></extensions></trkpt><trkpt lat="24.84616047169251" lon="121.55376671731636"><ele>374.9760061934807</ele><time>2026-03-23T04:01:41Z</time><src>Hikingbook</src><extensions><gpxhb:speed>1.323717</gpxhb:speed><gpxhb:course>-1.000000</gpxhb:course></extensions></trkpt><trkpt lat="24.84652104985223" lon="121.55395663776"><ele>364.7589509181832</ele><time>2026-03-23T04:03:36Z</time><src>Hikingbook</src><extensions><gpxhb:speed>0.074568</gpxhb:speed><gpxhb:course>40.244653</gpxhb:course></extensions></trkpt></trkseg><trkseg><trkpt lat="24.84652104985223" lon="121.55395663776"><ele>364.7589509181832</ele><time>2026-03-23T04:16:36Z</time><src>Hikingbook</src><extensions><gpxhb:speed>0.074568</gpxhb:speed><gpxhb:course>40.244653</gpxhb:course></extensions></trkpt><trkpt lat="24.84633616209109" lon="121.55389230313111"><ele>377.6537514970347</ele><time>2026-03-23T04:16:45Z</time><src>Hikingbook</src><extensions><gpxhb:speed>-1.000000</gpxhb:speed><gpxhb:course>-1.000000</gpxhb:course></extensions></trkpt><trkpt lat="24.84650021834935" lon="121.5540074964622"><ele>278.54530240166775</ele><time>2026-03-23T04:17:01Z</time><src>Hikingbook</src><extensions><gpxhb:speed>0.750919</gpxhb:speed><gpxhb:course>0.000000</gpxhb:course></extensions></trkpt><trkpt lat="24.846677078288472" lon="121.55370565301385"><ele>371.94128958470924</ele><time>2026-03-23T04:17:25Z</time><src>Hikingbook</src><extensions><gpxhb:speed>0.531273</gpxhb:speed><gpxhb:course>-1.000000</gpxhb:course></extensions></trkpt><trkpt lat="24.846760368094696" lon="121.55381467521164"><ele>354.73255146775756</ele><time>2026-03-23T04:20:46Z</time><src>Hikingbook</src><extensions><gpxhb:speed>0.050060</gpxhb:speed><gpxhb:course>119.754081</gpxhb:course></extensions></trkpt><trkpt lat="24.846682790053585" lon="121.55368117219578"><ele>355.2410141462837</ele><time>2026-03-23T04:22:54Z</time><src>Hikingbook</src><extensions><gpxhb:speed>1.001080</gpxhb:speed><gpxhb:course>285.902361</gpxhb:course></extensions></trkpt><trkpt lat="24.84675583391887" lon="121.55380463271963"><ele>345.9062665399643</ele><time>2026-03-23T04:24:13Z</time><src>Hikingbook</src><extensions><gpxhb:speed>0.000000</gpxhb:speed><gpxhb:course>266.082517</gpxhb:course></extensions></trkpt><trkpt lat="24.846948362096885" lon="121.55363314675256"><ele>360.5697621429593</ele><time>2026-03-23T04:25:50Z</time><src>Hikingbook</src><extensions><gpxhb:speed>0.000000</gpxhb:speed><gpxhb:course>-1.000000</gpxhb:course></extensions></trkpt><trkpt lat="24.84690402462247" lon="121.55368972704298"><ele>347.2703319397723</ele><time>2026-03-23T04:26:23Z</time><src>Hikingbook</src><extensions><gpxhb:speed>0.000000</gpxhb:speed><gpxhb:course>171.261157</gpxhb:course></extensions></trkpt><trkpt lat="24.84692374739103" lon="121.55356457466918"><ele>336.3761822234906</ele><time>2026-03-23T04:28:25Z</time><src>Hikingbook</src><extensions><gpxhb:speed>0.101669</gpxhb:speed><gpxhb:course>173.936014</gpxhb:course></extensions></trkpt><trkpt lat="24.846908120811666" lon="121.55363400104947"><ele>321.2905505183019</ele><time>2026-03-23T04:28:53Z</time><src>Hikingbook</src><extensions><gpxhb:speed>1.009842</gpxhb:speed><gpxhb:course>82.809564</gpxhb:course></extensions></trkpt><trkpt lat="24.846959038959042" lon="121.55361707402444"><ele>330.51841756796114</ele><time>2026-03-23T04:29:09Z</time><src>Hikingbook</src><extensions><gpxhb:speed>0.000000</gpxhb:speed><gpxhb:course>-1.000000</gpxhb:course></extensions></trkpt><trkpt lat="24.846861199461266" lon="121.55346997343419"><ele>333.37358079496437</ele><time>2026-03-23T04:30:42Z</time><src>Hikingbook</src><extensions><gpxhb:speed>0.000000</gpxhb:speed><gpxhb:course>124.557953</gpxhb:course></extensions></trkpt><trkpt lat="24.846975023092156" lon="121.55338779403108"><ele>326.46898892693997</ele><time>2026-03-23T04:31:37Z</time><src>Hikingbook</src><extensions><gpxhb:speed>0.079371</gpxhb:speed><gpxhb:course>354.557251</gpxhb:course></extensions></trkpt><trkpt lat="24.846866298995174" lon="121.55341941639092"><ele>339.26835142392855</ele><time>2026-03-23T04:33:09Z</time><src>Hikingbook</src><extensions><gpxhb:speed>0.039282</gpxhb:speed><gpxhb:course>124.999226</gpxhb:course></extensions></trkpt><trkpt lat="24.84683164621652" lon="121.55348859913417"><ele>328.5029425632133</ele><time>2026-03-23T04:36:17Z</time><src>Hikingbook</src><extensions><gpxhb:speed>0.178746</gpxhb:speed><gpxhb:course>115.712033</gpxhb:course></extensions></trkpt><trkpt lat="24.846865467073613" lon="121.5534431445085"><ele>331.58757933939046</ele><time>2026-03-23T04:37:08Z</time><src>Hikingbook</src><extensions><gpxhb:speed>0.042625</gpxhb:speed><gpxhb:course>-1.000000</gpxhb:course></extensions></trkpt><trkpt lat="24.84688272434496" lon="121.55350591763236"><ele>325.2635316685859</ele><time>2026-03-23T04:37:30Z</time><src>Hikingbook</src><extensions><gpxhb:speed>0.079721</gpxhb:speed><gpxhb:course>162.702766</gpxhb:course></extensions></trkpt></trkseg><trkseg><trkpt lat="24.84688272434496" lon="121.55350591763236"><ele>325.2635316685859</ele><time>2026-03-23T05:09:55Z</time><src>Hikingbook</src><extensions><gpxhb:speed>0.079721</gpxhb:speed><gpxhb:course>162.702766</gpxhb:course></extensions></trkpt><trkpt lat="24.84713908239092" lon="121.5530020813843"><ele>269.9835384579187</ele><time>2026-03-23T05:10:04Z</time><src>Hikingbook</src><extensions><gpxhb:speed>0.838905</gpxhb:speed><gpxhb:course>306.898838</gpxhb:course></extensions></trkpt><trkpt lat="24.847182477826514" lon="121.55310681625798"><ele>267.3194446178748</ele><time>2026-03-23T05:10:56Z</time><src>Hikingbook</src><extensions><gpxhb:speed>0.032701</gpxhb:speed><gpxhb:course>-1.000000</gpxhb:course></extensions></trkpt><trkpt lat="24.847139059754063" lon="121.55302206641034"><ele>278.48535784619014</ele><time>2026-03-23T05:15:08Z</time><src>Hikingbook</src><extensions><gpxhb:speed>0.263970</gpxhb:speed><gpxhb:course>-1.000000</gpxhb:course></extensions></trkpt><trkpt lat="24.847053949399953" lon="121.55306905944516"><ele>282.51143358269746</ele><time>2026-03-23T05:19:19Z</time><src>Hikingbook</src><extensions><gpxhb:speed>0.000000</gpxhb:speed><gpxhb:course>253.107799</gpxhb:course></extensions></trkpt><trkpt lat="24.847097063796195" lon="121.55309722074212"><ele>281.88672585896774</ele><time>2026-03-23T05:22:12Z</time><src>Hikingbook</src><extensions><gpxhb:speed>0.037551</gpxhb:speed><gpxhb:course>226.947928</gpxhb:course></extensions></trkpt><trkpt lat="24.847136516537525" lon="121.5530812010038"><ele>283.2656574704227</ele><time>2026-03-23T05:23:00Z</time><src>Hikingbook</src><extensions><gpxhb:speed>0.000000</gpxhb:speed><gpxhb:course>227.727444</gpxhb:course></extensions></trkpt><trkpt lat="24.847008190402416" lon="121.55306526459661"><ele>283.0134672047758</ele><time>2026-03-23T05:25:51Z</time><src>Hikingbook</src><extensions><gpxhb:speed>0.000000</gpxhb:speed><gpxhb:course>227.727475</gpxhb:course></extensions></trkpt></trkseg><trkseg><trkpt lat="24.847008190402416" lon="121.55306526459661"><ele>283.0134672047758</ele><time>2026-03-23T05:40:36Z</time><src>Hikingbook</src><extensions><gpxhb:speed>0.000000</gpxhb:speed><gpxhb:course>227.727475</gpxhb:course></extensions></trkpt><trkpt lat="24.846888252772263" lon="121.55285387726418"><ele>268.55698075686036</ele><time>2026-03-23T05:40:39Z</time><src>Hikingbook</src><extensions><gpxhb:speed>0.000000</gpxhb:speed><gpxhb:course>-1.000000</gpxhb:course></extensions></trkpt><trkpt lat="24.84708196939527" lon="121.55295299492576"><ele>274.58534284194883</ele><time>2026-03-23T05:40:55Z</time><src>Hikingbook</src><extensions><gpxhb:speed>0.443351</gpxhb:speed><gpxhb:course>0.000000</gpxhb:course></extensions></trkpt><trkpt lat="24.847039876757556" lon="121.55291527925418"><ele>278.94967725735535</ele><time>2026-03-23T05:41:21Z</time><src>Hikingbook</src><extensions><gpxhb:speed>0.253010</gpxhb:speed><gpxhb:course>141.171533</gpxhb:course></extensions></trkpt><trkpt lat="24.847151219823257" lon="121.55290654348667"><ele>273.857415057313</ele><time>2026-03-23T05:42:16Z</time><src>Hikingbook</src><extensions><gpxhb:speed>0.338416</gpxhb:speed><gpxhb:course>320.736883</gpxhb:course></extensions></trkpt><trkpt lat="24.847180859251104" lon="121.5527198735423"><ele>273.9714909432607</ele><time>2026-03-23T05:43:35Z</time><src>Hikingbook</src><extensions><gpxhb:speed>0.668083</gpxhb:speed><gpxhb:course>308.288513</gpxhb:course></extensions></trkpt><trkpt lat="24.847335656636815" lon="121.55262338626544"><ele>262.84715550123553</ele><time>2026-03-23T05:44:48Z</time><src>Hikingbook</src><extensions><gpxhb:speed>0.221234</gpxhb:speed><gpxhb:course>334.199602</gpxhb:course></extensions></trkpt><trkpt lat="24.84744574131281" lon="121.55242056585108"><ele>266.870522985248</ele><time>2026-03-23T05:46:43Z</time><src>Hikingbook</src><extensions><gpxhb:speed>0.309191</gpxhb:speed><gpxhb:course>285.628140</gpxhb:course></extensions></trkpt><trkpt lat="24.847302108117315" lon="121.55257263831705"><ele>265.13058321882136</ele><time>2026-03-23T05:48:37Z</time><src>Hikingbook</src><extensions><gpxhb:speed>0.400407</gpxhb:speed><gpxhb:course>102.111041</gpxhb:course></extensions></trkpt><trkpt lat="24.847440733369925" lon="121.55247454227705"><ele>262.82626831632564</ele><time>2026-03-23T05:53:53Z</time><src>Hikingbook</src><extensions><gpxhb:speed>0.071145</gpxhb:speed><gpxhb:course>322.199461</gpxhb:course></extensions></trkpt></trkseg><trkseg><trkpt lat="24.847440733369925" lon="121.55247454227705"><ele>262.82626831632564</ele><time>2026-03-23T08:01:40Z</time><src>Hikingbook</src><extensions><gpxhb:speed>0.071145</gpxhb:speed><gpxhb:course>322.199461</gpxhb:course></extensions></trkpt><trkpt lat="24.84761939537596" lon="121.55186524927923"><ele>239.06623002696156</ele><time>2026-03-23T08:01:43Z</time><src>Hikingbook</src><extensions><gpxhb:speed>1.190882</gpxhb:speed><gpxhb:course>-1.000000</gpxhb:course></extensions></trkpt></trkseg><trkseg><trkpt lat="24.84761939537596" lon="121.55186524927923"><ele>239.06623002696156</ele><time>2026-03-23T08:26:01Z</time><src>Hikingbook</src><extensions><gpxhb:speed>1.190882</gpxhb:speed><gpxhb:course>-1.000000</gpxhb:course></extensions></trkpt><trkpt lat="24.847808102083157" lon="121.55183612285752"><ele>184.7304594929081</ele><time>2026-03-23T08:26:03Z</time><src>Hikingbook</src><extensions><gpxhb:speed>0.309270</gpxhb:speed><gpxhb:course>-1.000000</gpxhb:course></extensions></trkpt><trkpt lat="24.847647933079628" lon="121.55204664261534"><ele>160.21392213846133</ele><time>2026-03-23T08:26:29Z</time><src>Hikingbook</src><extensions><gpxhb:speed>0.050771</gpxhb:speed><gpxhb:course>-1.000000</gpxhb:course></extensions></trkpt><trkpt lat="24.84763337282749" lon="121.55196503898138"><ele>165.8656903179747</ele><time>2026-03-23T08:27:48Z</time><src>Hikingbook</src><extensions><gpxhb:speed>0.288387</gpxhb:speed><gpxhb:course>274.240968</gpxhb:course></extensions></trkpt><trkpt lat="24.84754666097752" lon="121.55194015342094"><ele>171.47612357659284</ele><time>2026-03-23T08:28:22Z</time><src>Hikingbook</src><extensions><gpxhb:speed>2.551751</gpxhb:speed><gpxhb:course>159.524828</gpxhb:course></extensions></trkpt><trkpt lat="24.847610622282474" lon="121.5518412644025"><ele>155.1343197986925</ele><time>2026-03-23T08:29:32Z</time><src>Hikingbook</src><extensions><gpxhb:speed>0.000000</gpxhb:speed><gpxhb:course>-1.000000</gpxhb:course></extensions></trkpt><trkpt lat="24.847512351050938" lon="121.55166921804435"><ele>160.72876868841269</ele><time>2026-03-23T08:30:22Z</time><src>Hikingbook</src><extensions><gpxhb:speed>0.547466</gpxhb:speed><gpxhb:course>244.337774</gpxhb:course></extensions></trkpt><trkpt lat="24.84731444551169" lon="121.55160301222445"><ele>155.93877005276266</ele><time>2026-03-23T08:30:57Z</time><src>Hikingbook</src><extensions><gpxhb:speed>0.779272</gpxhb:speed><gpxhb:course>237.293263</gpxhb:course></extensions></trkpt><trkpt lat="24.84715555298759" lon="121.55138003125467"><ele>160.58144921661238</ele><time>2026-03-23T08:32:25Z</time><src>Hikingbook</src><extensions><gpxhb:speed>0.184477</gpxhb:speed><gpxhb:course>162.801427</gpxhb:course></extensions></trkpt><trkpt lat="24.846952031930016" lon="121.55133004519944"><ele>164.02152485500096</ele><time>2026-03-23T08:33:44Z</time><src>Hikingbook</src><extensions><gpxhb:speed>0.728252</gpxhb:speed><gpxhb:course>203.796049</gpxhb:course></extensions></trkpt><trkpt lat="24.84697310243353" lon="121.55124427071317"><ele>157.74267076291295</ele><time>2026-03-23T08:34:36Z</time><src>Hikingbook</src><extensions><gpxhb:speed>1.699714</gpxhb:speed><gpxhb:course>-1.000000</gpxhb:course></extensions></trkpt><trkpt lat="24.846914746602984" lon="121.5511885297387"><ele>176.06347063305708</ele><time>2026-03-23T08:35:17Z</time><src>Hikingbook</src><extensions><gpxhb:speed>2.210063</gpxhb:speed><gpxhb:course>-1.000000</gpxhb:course></extensions></trkpt><trkpt lat="24.846913439931942" lon="121.55118530491889"><ele>178.851517663387</ele><time>2026-03-23T08:35:18Z</time><src>Hikingbook</src><extensions><gpxhb:speed>2.690303</gpxhb:speed><gpxhb:course>-1.000000</gpxhb:course></extensions></trkpt><trkpt lat="24.846867059476995" lon="121.55128015151016"><ele>174.20811596693892</ele><time>2026-03-23T08:35:34Z</time><src>Hikingbook</src><extensions><gpxhb:speed>0.000000</gpxhb:speed><gpxhb:course>-1.000000</gpxhb:course></extensions></trkpt><trkpt lat="24.846871126791306" lon="121.55119806541448"><ele>173.13923120075717</ele><time>2026-03-23T08:35:50Z</time><src>Hikingbook</src><extensions><gpxhb:speed>0.000000</gpxhb:speed><gpxhb:course>-1.000000</gpxhb:course></extensions></trkpt><trkpt lat="24.84681035896227" lon="121.55122561849227"><ele>176.87905487991193</ele><time>2026-03-23T08:36:10Z</time><src>Hikingbook</src><extensions><gpxhb:speed>0.146378</gpxhb:speed><gpxhb:course>-1.000000</gpxhb:course></extensions></trkpt></trkseg><trkseg><trkpt lat="24.84681035896227" lon="121.55122561849227"><ele>176.87905487991193</ele><time>2026-03-23T09:32:21Z</time><src>Hikingbook</src><extensions><gpxhb:speed>0.146378</gpxhb:speed><gpxhb:course>-1.000000</gpxhb:course></extensions></trkpt><trkpt lat="24.847049690693797" lon="121.55112848282977"><ele>188.51741874719576</ele><time>2026-03-23T09:32:23Z</time><src>Hikingbook</src><extensions><gpxhb:speed>0.316834</gpxhb:speed><gpxhb:course>-1.000000</gpxhb:course></extensions></trkpt></trkseg></trk></gpx>