<?xml version="1.0" encoding="UTF-8"?>
<gpx version="1.1" creator="Hikingbook" xmlns:xsi="http://www.w3.org/2001/XMLSchema-instance" xmlns="http://www.topografix.com/GPX/1/1" xsi:schemaLocation="http://www.topografix.com/GPX/1/1 https://www.topografix.com/GPX/1/1/gpx.xsd https://hikingbook.net/xmlschemas/1/5 https:/hikingbook.net/xmlschemas/1/5/gpxhb.xsd" xmlns:gpxhb="https://hikingbook.net/xmlschemas/1/5"><metadata><name>🪢牛坪坑溪「AA」-（2026-07-05）-「溪降」［🇹🇼台中-和平］</name><desc>W-waterfall (瀑布）&#xA;S-slideway (滑瀑）&#xA;L-left(左岸）&#xA;TL-TopLeft(高左岸）&#xA;BL-BottomLeft(低左岸）&#xA;R-right(右岸）&#xA;TR-TopRight(高右岸）&#xA;BR-BottomRight(低右岸）&#xA;C-center(中岸）&#xA;&#xA;WT-waterfalltop(瀑頂）&#xA;WB-waterfallbottom(瀑底）&#xA;M-middle(中繼點）&#xA;D-deep(深潭）&#xA;G-guide (滑降）&#xA;B-bolt(人工錨點）&#xA;N-nature(天然錨點）&#xA;PB-personal bolt (人力錨點）&#xA;DB-damaged bolt(損壞錨點）&#xA;RB-removal bolt(可拆錨點）&#xA;TR-Traverse(橫移）&#xA;&#xA;Ex: &#xA;W1(M1-L)-B2-18m，D-5m&#xA;「瀑布1（中繼點1-左岸）-bolt有兩顆-使用繩長18米，深潭5公尺長」&#xA;&#xA;成員（7）：&#xA;jimce、&#xA;中信、&#xA;Stan、&#xA;琪儒、&#xA;莎美、&#xA;Gregory、&#xA;Rouff&#xA;&#xA;裝備：&#xA;&#xA;繩(4）- &#xA;欣達(7.5)*60、&#xA;Humna(8.0)*40、&#xA;欣達(8.0)*30、&#xA;&#xA;急救包*2-&#xA;&#xA;電鑽（Makita 183) *1&#xA;Bolt（M8)*10&#xA;可移除bolt(m8)*6&#xA;拋棄繩8m&#xA;&#xA;&#xA;無線電-&#xA;頻率：&#xA;   長距-144.4200&#xA;   短距-457.51250&#xA;&#xA;啞音：🈚️&#xA;&#xA;攝影器材：&#xA;1.)DJI mini 5 pro *1&#xA;&#xA;</desc><author><name>Hikingbook</name><link href="https://hikingbook.net"><text>Hikingbook</text></link></author><link href="https://hikingbook.net/hikes/%E6%94%B9%E7%89%9B%E5%9D%AA%E5%9D%91%E6%BA%AA-aa-2026-07-05-%E6%BA%AA%E9%99%8D-%E5%8F%B0%E4%B8%AD-1590c267"><text>Hikingbook</text></link><time>2026-07-23T21:33:31.890290501+08:00</time><keywords>Hikingbook,EzLife ,Taiwan,Canyoning ,溪降,牛坪坑</keywords><extensions><gpxhb:postscript>此次停車的點
為私人民宅附近
可以買
⭐️無籽檸檬🍋（$30/公斤）
⭐️樹葡萄釀（$300/一瓶）

可以停車、洗裝備、上廁所、買東西
真是一舉多得😂</gpxhb:postscript><gpxhb:loadweight>3.0</gpxhb:loadweight><gpxhb:fitnesslevel>1</gpxhb:fitnesslevel><gpxhb:activitytype>hiking</gpxhb:activitytype><gpxhb:trackimageurl>https://assets.hikingbook.net/users/60w3wu1it91y2jmwdxciziq/kecnwtofqua37ln3nzw2ha/1a28f0a9-75dd-4420-b1d5-437f6521b70c.jpg</gpxhb:trackimageurl></extensions></metadata><wpt lat="24.130265552111368" lon="120.90693989342725"><ele>706.6</ele><time>2026-07-05T00:29:16Z</time><name>00 Start</name><cmt>2026-07-05T08:29:16+08:00</cmt><desc>00 Start</desc><src>Hikingbook</src><link href="https://hikingbook.net/hikes/kEcNwtOFQua37ln3Nzw2HA"><text>Hikingbook</text></link><extensions><gpxhb:weather>Clear</gpxhb:weather><gpxhb:speed>-1.000000</gpxhb:speed><gpxhb:course>-1.000000</gpxhb:course></extensions></wpt><wpt lat="24.13417023803495" lon="120.9128498839954"><ele>792</ele><time>2026-07-05T00:54:03Z</time><name>01 下切點</name><cmt>2026-07-05T08:54:03+08:00</cmt><desc>01 下切點</desc><src>Hikingbook</src><link href="https://hikingbook.net/hikes/kEcNwtOFQua37ln3Nzw2HA"><text>Hikingbook</text></link><extensions><gpxhb:weather>Clear</gpxhb:weather><gpxhb:speed>-1.000000</gpxhb:speed><gpxhb:course>-1.000000</gpxhb:course></extensions></wpt><wpt lat="24.134936165874258" lon="120.91129468488305"><ele>741.1</ele><time>2026-07-05T01:16:49Z</time><name>02 抵達溪谷</name><cmt>2026-07-05T09:16:49+08:00</cmt><desc>02 抵達溪谷</desc><src>Hikingbook</src><link href="https://hikingbook.net/hikes/kEcNwtOFQua37ln3Nzw2HA"><text>Hikingbook</text></link><extensions><gpxhb:weather>Clear</gpxhb:weather><gpxhb:speed>-1.000000</gpxhb:speed><gpxhb:course>-1.000000</gpxhb:course></extensions></wpt><wpt lat="24.134288512290322" lon="120.9096951633278"><ele>702.5</ele><time>2026-07-05T01:34:33Z</time><name>03 W1(WT-L-B1-3m)</name><cmt>2026-07-05T09:34:33+08:00</cmt><desc>03 W1(WT-L-B1-3m)</desc><src>Hikingbook</src><link href="https://hikingbook.net/hikes/kEcNwtOFQua37ln3Nzw2HA"><text>Hikingbook</text></link><extensions><gpxhb:weather>Clear</gpxhb:weather><gpxhb:speed>-1.000000</gpxhb:speed><gpxhb:course>-1.000000</gpxhb:course></extensions></wpt><wpt lat="24.134331734688374" lon="120.9096674173388"><ele>702.5</ele><time>2026-07-05T01:35:11Z</time><name>04 W1(M1-R-b2-17m)</name><cmt>2026-07-05T09:35:11+08:00</cmt><desc>04 W1(M1-R-b2-17m)</desc><src>Hikingbook</src><link href="https://hikingbook.net/hikes/kEcNwtOFQua37ln3Nzw2HA"><text>Hikingbook</text></link><extensions><gpxhb:weather>Clear</gpxhb:weather><gpxhb:speed>-1.000000</gpxhb:speed><gpxhb:course>-1.000000</gpxhb:course></extensions></wpt><wpt lat="24.134449062360552" lon="120.90894327121816"><ele>683</ele><time>2026-07-05T02:42:21Z</time><name>05 W2(WT-R-B1-2m)</name><cmt>2026-07-05T10:42:21+08:00</cmt><desc>05 W2(WT-R-B1-2m)</desc><src>Hikingbook</src><link href="https://hikingbook.net/hikes/kEcNwtOFQua37ln3Nzw2HA"><text>Hikingbook</text></link><extensions><gpxhb:weather>Clear</gpxhb:weather><gpxhb:speed>-1.000000</gpxhb:speed><gpxhb:course>-1.000000</gpxhb:course></extensions></wpt><wpt lat="24.134362702499136" lon="120.90893348612353"><ele>695.5</ele><time>2026-07-05T02:46:02Z</time><name>06 W3(WT-L-B1-2m)</name><cmt>2026-07-05T10:46:02+08:00</cmt><desc>06 W3(WT-L-B1-2m)</desc><src>Hikingbook</src><link href="https://hikingbook.net/hikes/kEcNwtOFQua37ln3Nzw2HA"><text>Hikingbook</text></link><extensions><gpxhb:weather>Clear</gpxhb:weather><gpxhb:speed>-1.000000</gpxhb:speed><gpxhb:course>-1.000000</gpxhb:course></extensions></wpt><wpt lat="24.1341859602699" lon="120.90891671717577"><ele>704.8</ele><time>2026-07-05T02:46:32Z</time><name>07 W3(WT-C-B1-7m)</name><cmt>2026-07-05T10:46:32+08:00</cmt><desc>07 W3(WT-C-B1-7m)</desc><src>Hikingbook</src><link href="https://hikingbook.net/hikes/kEcNwtOFQua37ln3Nzw2HA"><text>Hikingbook</text></link><extensions><gpxhb:weather>Clear</gpxhb:weather><gpxhb:speed>-1.000000</gpxhb:speed><gpxhb:course>-1.000000</gpxhb:course></extensions></wpt><wpt lat="24.133057026093947" lon="120.90478983058233"><ele>638</ele><time>2026-07-05T04:16:59Z</time><name>08 W4(WT-L-B1-6m)（峽谷）</name><cmt>2026-07-05T12:16:59+08:00</cmt><desc>08 W4(WT-L-B1-6m)（峽谷）</desc><src>Hikingbook</src><link href="https://hikingbook.net/hikes/kEcNwtOFQua37ln3Nzw2HA"><text>Hikingbook</text></link><extensions><gpxhb:weather>Clear</gpxhb:weather><gpxhb:speed>-1.000000</gpxhb:speed><gpxhb:course>-1.000000</gpxhb:course></extensions></wpt><wpt lat="24.132809480457134" lon="120.90479074482035"><ele>622</ele><time>2026-07-05T05:40:38Z</time><name>09 W4(M1-L-B1-8m) （峽谷）</name><cmt>2026-07-05T13:40:38+08:00</cmt><desc>09 W4(M1-L-B1-8m) （峽谷）</desc><src>Hikingbook</src><link href="https://hikingbook.net/hikes/kEcNwtOFQua37ln3Nzw2HA"><text>Hikingbook</text></link><extensions><gpxhb:weather>Clear</gpxhb:weather><gpxhb:speed>-1.000000</gpxhb:speed><gpxhb:course>-1.000000</gpxhb:course></extensions></wpt><wpt lat="24.132098073587375" lon="120.90400026848317"><ele>596.1</ele><time>2026-07-05T06:38:52Z</time><name>10 工寮</name><cmt>2026-07-05T14:38:52+08:00</cmt><desc>10 工寮</desc><src>Hikingbook</src><link href="https://hikingbook.net/hikes/kEcNwtOFQua37ln3Nzw2HA"><text>Hikingbook</text></link><extensions><gpxhb:weather>Clear</gpxhb:weather><gpxhb:speed>-1.000000</gpxhb:speed><gpxhb:course>-1.000000</gpxhb:course></extensions></wpt><wpt lat="24.12962020269802" lon="120.90225243271088"><ele>640.9</ele><time>2026-07-05T07:04:30Z</time><name>11 紅門（旁邊山路可以高饒）</name><cmt>2026-07-05T15:04:30+08:00</cmt><desc>11 紅門（旁邊山路可以高饒）</desc><src>Hikingbook</src><link href="https://hikingbook.net/hikes/kEcNwtOFQua37ln3Nzw2HA"><text>Hikingbook</text></link><extensions><gpxhb:weather>Clear</gpxhb:weather><gpxhb:speed>-1.000000</gpxhb:speed><gpxhb:course>-1.000000</gpxhb:course></extensions></wpt><wpt lat="24.130312252256605" lon="120.90688540724133"><ele>706.1</ele><time>2026-07-05T07:53:52Z</time><name>12 End</name><cmt>2026-07-05T15:53:52+08:00</cmt><desc>12 End</desc><src>Hikingbook</src><link href="https://hikingbook.net/hikes/kEcNwtOFQua37ln3Nzw2HA"><text>Hikingbook</text></link><extensions><gpxhb:weather>Clear</gpxhb:weather><gpxhb:speed>-1.000000</gpxhb:speed><gpxhb:course>-1.000000</gpxhb:course></extensions></wpt><trk><name>🪢牛坪坑溪「AA」-（2026-07-05）-「溪降」［🇹🇼台中-和平］</name><cmt>W-waterfall (瀑布）&#xA;S-slideway (滑瀑）&#xA;L-left(左岸）&#xA;TL-TopLeft(高左岸）&#xA;BL-BottomLeft(低左岸）&#xA;R-right(右岸）&#xA;TR-TopRight(高右岸）&#xA;BR-BottomRight(低右岸）&#xA;C-center(中岸）&#xA;&#xA;WT-waterfalltop(瀑頂）&#xA;WB-waterfallbottom(瀑底）&#xA;M-middle(中繼點）&#xA;D-deep(深潭）&#xA;G-guide (滑降）&#xA;B-bolt(人工錨點）&#xA;N-nature(天然錨點）&#xA;PB-personal bolt (人力錨點）&#xA;DB-damaged bolt(損壞錨點）&#xA;RB-removal bolt(可拆錨點）&#xA;TR-Traverse(橫移）&#xA;&#xA;Ex: &#xA;W1(M1-L)-B2-18m，D-5m&#xA;「瀑布1（中繼點1-左岸）-bolt有兩顆-使用繩長18米，深潭5公尺長」&#xA;&#xA;成員（7）：&#xA;jimce、&#xA;中信、&#xA;Stan、&#xA;琪儒、&#xA;莎美、&#xA;Gregory、&#xA;Rouff&#xA;&#xA;裝備：&#xA;&#xA;繩(4）- &#xA;欣達(7.5)*60、&#xA;Humna(8.0)*40、&#xA;欣達(8.0)*30、&#xA;&#xA;急救包*2-&#xA;&#xA;電鑽（Makita 183) *1&#xA;Bolt（M8)*10&#xA;可移除bolt(m8)*6&#xA;拋棄繩8m&#xA;&#xA;&#xA;無線電-&#xA;頻率：&#xA;   長距-144.4200&#xA;   短距-457.51250&#xA;&#xA;啞音：🈚️&#xA;&#xA;攝影器材：&#xA;1.)DJI mini 5 pro *1&#xA;&#xA;</cmt><desc>W-waterfall (瀑布）&#xA;S-slideway (滑瀑）&#xA;L-left(左岸）&#xA;TL-TopLeft(高左岸）&#xA;BL-BottomLeft(低左岸）&#xA;R-right(右岸）&#xA;TR-TopRight(高右岸）&#xA;BR-BottomRight(低右岸）&#xA;C-center(中岸）&#xA;&#xA;WT-waterfalltop(瀑頂）&#xA;WB-waterfallbottom(瀑底）&#xA;M-middle(中繼點）&#xA;D-deep(深潭）&#xA;G-guide (滑降）&#xA;B-bolt(人工錨點）&#xA;N-nature(天然錨點）&#xA;PB-personal bolt (人力錨點）&#xA;DB-damaged bolt(損壞錨點）&#xA;RB-removal bolt(可拆錨點）&#xA;TR-Traverse(橫移）&#xA;&#xA;Ex: &#xA;W1(M1-L)-B2-18m，D-5m&#xA;「瀑布1（中繼點1-左岸）-bolt有兩顆-使用繩長18米，深潭5公尺長」&#xA;&#xA;成員（7）：&#xA;jimce、&#xA;中信、&#xA;Stan、&#xA;琪儒、&#xA;莎美、&#xA;Gregory、&#xA;Rouff&#xA;&#xA;裝備：&#xA;&#xA;繩(4）- &#xA;欣達(7.5)*60、&#xA;Humna(8.0)*40、&#xA;欣達(8.0)*30、&#xA;&#xA;急救包*2-&#xA;&#xA;電鑽（Makita 183) *1&#xA;Bolt（M8)*10&#xA;可移除bolt(m8)*6&#xA;拋棄繩8m&#xA;&#xA;&#xA;無線電-&#xA;頻率：&#xA;   長距-144.4200&#xA;   短距-457.51250&#xA;&#xA;啞音：🈚️&#xA;&#xA;攝影器材：&#xA;1.)DJI mini 5 pro *1&#xA;&#xA;</desc><src>Hikingbook</src><link href="https://hikingbook.net/hikes/%E6%94%B9%E7%89%9B%E5%9D%AA%E5%9D%91%E6%BA%AA-aa-2026-07-05-%E6%BA%AA%E9%99%8D-%E5%8F%B0%E4%B8%AD-1590c267"><text>Hikingbook</text></link><trkseg><trkpt lat="24.13026339552493" lon="120.90693948425593"><ele>706.6</ele><time>2026-07-05T00:29:17Z</time><src>Hikingbook</src><extensions><gpxhb:speed>-1.000000</gpxhb:speed><gpxhb:course>-1.000000</gpxhb:course></extensions></trkpt><trkpt lat="24.130756493914653" lon="120.9071495185978"><ele>722.1</ele><time>2026-07-05T00:30:54Z</time><src>Hikingbook</src><extensions><gpxhb:speed>-1.000000</gpxhb:speed><gpxhb:course>-1.000000</gpxhb:course></extensions></trkpt><trkpt lat="24.13112577839083" lon="120.90745338552175"><ele>731.5</ele><time>2026-07-05T00:32:21Z</time><src>Hikingbook</src><extensions><gpxhb:speed>-1.000000</gpxhb:speed><gpxhb:course>-1.000000</gpxhb:course></extensions></trkpt><trkpt lat="24.131101496966863" lon="120.90756119761824"><ele>733.1</ele><time>2026-07-05T00:32:38Z</time><src>Hikingbook</src><extensions><gpxhb:speed>-1.000000</gpxhb:speed><gpxhb:course>-1.000000</gpxhb:course></extensions></trkpt><trkpt lat="24.13161041654416" lon="120.90778865244584"><ele>754</ele><time>2026-07-05T00:36:36Z</time><src>Hikingbook</src><extensions><gpxhb:speed>-1.000000</gpxhb:speed><gpxhb:course>-1.000000</gpxhb:course></extensions></trkpt><trkpt lat="24.131793554770137" lon="120.90803218598323"><ele>743.5</ele><time>2026-07-05T00:37:17Z</time><src>Hikingbook</src><extensions><gpxhb:speed>-1.000000</gpxhb:speed><gpxhb:course>-1.000000</gpxhb:course></extensions></trkpt><trkpt lat="24.131775691962975" lon="120.90830059450671"><ele>753.3</ele><time>2026-07-05T00:37:54Z</time><src>Hikingbook</src><extensions><gpxhb:speed>-1.000000</gpxhb:speed><gpxhb:course>-1.000000</gpxhb:course></extensions></trkpt><trkpt lat="24.131910052085537" lon="120.90901588499386"><ele>748.8</ele><time>2026-07-05T00:39:47Z</time><src>Hikingbook</src><extensions><gpxhb:speed>-1.000000</gpxhb:speed><gpxhb:course>-1.000000</gpxhb:course></extensions></trkpt><trkpt lat="24.132035374173157" lon="120.90922957281626"><ele>757.9</ele><time>2026-07-05T00:40:23Z</time><src>Hikingbook</src><extensions><gpxhb:speed>-1.000000</gpxhb:speed><gpxhb:course>-1.000000</gpxhb:course></extensions></trkpt><trkpt lat="24.132731020772255" lon="120.90923961886145"><ele>761.5</ele><time>2026-07-05T00:42:11Z</time><src>Hikingbook</src><extensions><gpxhb:speed>-1.000000</gpxhb:speed><gpxhb:course>-1.000000</gpxhb:course></extensions></trkpt><trkpt lat="24.132923074479383" lon="120.90918642744286"><ele>769.4</ele><time>2026-07-05T00:42:47Z</time><src>Hikingbook</src><extensions><gpxhb:speed>-1.000000</gpxhb:speed><gpxhb:course>-1.000000</gpxhb:course></extensions></trkpt><trkpt lat="24.13300279076696" lon="120.90966594115035"><ele>765.6</ele><time>2026-07-05T00:44:01Z</time><src>Hikingbook</src><extensions><gpxhb:speed>-1.000000</gpxhb:speed><gpxhb:course>-1.000000</gpxhb:course></extensions></trkpt><trkpt lat="24.1334099904853" lon="120.91036321209292"><ele>767.5</ele><time>2026-07-05T00:45:54Z</time><src>Hikingbook</src><extensions><gpxhb:speed>-1.000000</gpxhb:speed><gpxhb:course>-1.000000</gpxhb:course></extensions></trkpt><trkpt lat="24.1332651616717" lon="120.91087729198341"><ele>770.9</ele><time>2026-07-05T00:46:46Z</time><src>Hikingbook</src><extensions><gpxhb:speed>-1.000000</gpxhb:speed><gpxhb:course>-1.000000</gpxhb:course></extensions></trkpt><trkpt lat="24.133300860943645" lon="120.91111417877546"><ele>774.1</ele><time>2026-07-05T00:47:16Z</time><src>Hikingbook</src><extensions><gpxhb:speed>-1.000000</gpxhb:speed><gpxhb:course>-1.000000</gpxhb:course></extensions></trkpt><trkpt lat="24.13346279248151" lon="120.91142023457952"><ele>777.3</ele><time>2026-07-05T00:48:00Z</time><src>Hikingbook</src><extensions><gpxhb:speed>-1.000000</gpxhb:speed><gpxhb:course>-1.000000</gpxhb:course></extensions></trkpt><trkpt lat="24.133436935630563" lon="120.91194966313492"><ele>777.4</ele><time>2026-07-05T00:49:04Z</time><src>Hikingbook</src><extensions><gpxhb:speed>-1.000000</gpxhb:speed><gpxhb:course>-1.000000</gpxhb:course></extensions></trkpt><trkpt lat="24.133641642078395" lon="120.91203959605255"><ele>782.7</ele><time>2026-07-05T00:50:04Z</time><src>Hikingbook</src><extensions><gpxhb:speed>-1.000000</gpxhb:speed><gpxhb:course>-1.000000</gpxhb:course></extensions></trkpt><trkpt lat="24.13400068425025" lon="120.91280404134653"><ele>792.4</ele><time>2026-07-05T00:52:06Z</time><src>Hikingbook</src><extensions><gpxhb:speed>-1.000000</gpxhb:speed><gpxhb:course>-1.000000</gpxhb:course></extensions></trkpt><trkpt lat="24.134179336181287" lon="120.91285876523297"><ele>792</ele><time>2026-07-05T00:52:29Z</time><src>Hikingbook</src><extensions><gpxhb:speed>-1.000000</gpxhb:speed><gpxhb:course>-1.000000</gpxhb:course></extensions></trkpt><trkpt lat="24.1341160681927" lon="120.91239425057852"><ele>775.7</ele><time>2026-07-05T01:01:37Z</time><src>Hikingbook</src><extensions><gpxhb:speed>-1.000000</gpxhb:speed><gpxhb:course>-1.000000</gpxhb:course></extensions></trkpt><trkpt lat="24.134455297340338" lon="120.91191377078265"><ele>748.7</ele><time>2026-07-05T01:06:59Z</time><src>Hikingbook</src><extensions><gpxhb:speed>-1.000000</gpxhb:speed><gpxhb:course>-1.000000</gpxhb:course></extensions></trkpt><trkpt lat="24.134523517005654" lon="120.91162303399003"><ele>744.8</ele><time>2026-07-05T01:11:01Z</time><src>Hikingbook</src><extensions><gpxhb:speed>-1.000000</gpxhb:speed><gpxhb:course>-1.000000</gpxhb:course></extensions></trkpt><trkpt lat="24.13488332071639" lon="120.91120923066283"><ele>737.4</ele><time>2026-07-05T01:15:09Z</time><src>Hikingbook</src><extensions><gpxhb:speed>-1.000000</gpxhb:speed><gpxhb:course>-1.000000</gpxhb:course></extensions></trkpt><trkpt lat="24.13470282172427" lon="120.9108505505461"><ele>733.9</ele><time>2026-07-05T01:20:24Z</time><src>Hikingbook</src><extensions><gpxhb:speed>-1.000000</gpxhb:speed><gpxhb:course>-1.000000</gpxhb:course></extensions></trkpt><trkpt lat="24.134089913691568" lon="120.9108329119659"><ele>728.6</ele><time>2026-07-05T01:22:12Z</time><src>Hikingbook</src><extensions><gpxhb:speed>-1.000000</gpxhb:speed><gpxhb:course>-1.000000</gpxhb:course></extensions></trkpt><trkpt lat="24.133725624553076" lon="120.91043406152843"><ele>719.3</ele><time>2026-07-05T01:24:59Z</time><src>Hikingbook</src><extensions><gpxhb:speed>-1.000000</gpxhb:speed><gpxhb:course>-1.000000</gpxhb:course></extensions></trkpt><trkpt lat="24.133774949967282" lon="120.91025842053074"><ele>719.3</ele><time>2026-07-05T01:26:02Z</time><src>Hikingbook</src><extensions><gpxhb:speed>-1.000000</gpxhb:speed><gpxhb:course>-1.000000</gpxhb:course></extensions></trkpt><trkpt lat="24.134147627136585" lon="120.91015220538162"><ele>715.8</ele><time>2026-07-05T01:26:56Z</time><src>Hikingbook</src><extensions><gpxhb:speed>-1.000000</gpxhb:speed><gpxhb:course>-1.000000</gpxhb:course></extensions></trkpt><trkpt lat="24.134357365678603" lon="120.91001278161289"><ele>714.4</ele><time>2026-07-05T01:31:16Z</time><src>Hikingbook</src><extensions><gpxhb:speed>-1.000000</gpxhb:speed><gpxhb:course>-1.000000</gpxhb:course></extensions></trkpt><trkpt lat="24.134315096060856" lon="120.90940495162805"><ele>694.1</ele><time>2026-07-05T02:39:12Z</time><src>Hikingbook</src><extensions><gpxhb:speed>-1.000000</gpxhb:speed><gpxhb:course>-1.000000</gpxhb:course></extensions></trkpt><trkpt lat="24.134422741134802" lon="120.90915511642149"><ele>686.8</ele><time>2026-07-05T02:41:09Z</time><src>Hikingbook</src><extensions><gpxhb:speed>-1.000000</gpxhb:speed><gpxhb:course>-1.000000</gpxhb:course></extensions></trkpt><trkpt lat="24.134421582909926" lon="120.90869799738955"><ele>680.5</ele><time>2026-07-05T03:12:58Z</time><src>Hikingbook</src><extensions><gpxhb:speed>-1.000000</gpxhb:speed><gpxhb:course>-1.000000</gpxhb:course></extensions></trkpt><trkpt lat="24.13428846700453" lon="120.90833262908474"><ele>672.3</ele><time>2026-07-05T03:14:43Z</time><src>Hikingbook</src><extensions><gpxhb:speed>-1.000000</gpxhb:speed><gpxhb:course>-1.000000</gpxhb:course></extensions></trkpt><trkpt lat="24.133535852707368" lon="120.90832817618985"><ele>662.8</ele><time>2026-07-05T03:28:41Z</time><src>Hikingbook</src><extensions><gpxhb:speed>-1.000000</gpxhb:speed><gpxhb:course>-1.000000</gpxhb:course></extensions></trkpt><trkpt lat="24.132953408047964" lon="120.90790106220739"><ele>661.7</ele><time>2026-07-05T03:31:52Z</time><src>Hikingbook</src><extensions><gpxhb:speed>-1.000000</gpxhb:speed><gpxhb:course>-1.000000</gpxhb:course></extensions></trkpt><trkpt lat="24.132782241365625" lon="120.9077163757309"><ele>654.7</ele><time>2026-07-05T03:32:11Z</time><src>Hikingbook</src><extensions><gpxhb:speed>-1.000000</gpxhb:speed><gpxhb:course>-1.000000</gpxhb:course></extensions></trkpt><trkpt lat="24.1326984415943" lon="120.90748021759813"><ele>654.7</ele><time>2026-07-05T03:32:27Z</time><src>Hikingbook</src><extensions><gpxhb:speed>-1.000000</gpxhb:speed><gpxhb:course>-1.000000</gpxhb:course></extensions></trkpt><trkpt lat="24.13304240243516" lon="120.9071127621199"><ele>651.2</ele><time>2026-07-05T03:48:01Z</time><src>Hikingbook</src><extensions><gpxhb:speed>-1.000000</gpxhb:speed><gpxhb:course>-1.000000</gpxhb:course></extensions></trkpt><trkpt lat="24.133162818357743" lon="120.90661639620342"><ele>637.3</ele><time>2026-07-05T03:48:15Z</time><src>Hikingbook</src><extensions><gpxhb:speed>-1.000000</gpxhb:speed><gpxhb:course>-1.000000</gpxhb:course></extensions></trkpt><trkpt lat="24.133629373679767" lon="120.90595033701669"><ele>633.3</ele><time>2026-07-05T03:52:00Z</time><src>Hikingbook</src><extensions><gpxhb:speed>-1.000000</gpxhb:speed><gpxhb:course>-1.000000</gpxhb:course></extensions></trkpt><trkpt lat="24.13391462647723" lon="120.90532707860395"><ele>627.8</ele><time>2026-07-05T03:58:23Z</time><src>Hikingbook</src><extensions><gpxhb:speed>-1.000000</gpxhb:speed><gpxhb:course>-1.000000</gpxhb:course></extensions></trkpt><trkpt lat="24.133640339459053" lon="120.90496917681743"><ele>631.8</ele><time>2026-07-05T04:13:43Z</time><src>Hikingbook</src><extensions><gpxhb:speed>-1.000000</gpxhb:speed><gpxhb:course>-1.000000</gpxhb:course></extensions></trkpt><trkpt lat="24.133284549118244" lon="120.90476943703447"><ele>620.5</ele><time>2026-07-05T04:16:02Z</time><src>Hikingbook</src><extensions><gpxhb:speed>-1.000000</gpxhb:speed><gpxhb:course>-1.000000</gpxhb:course></extensions></trkpt><trkpt lat="24.132449351987002" lon="120.90483010072974"><ele>609.4</ele><time>2026-07-05T06:32:40Z</time><src>Hikingbook</src><extensions><gpxhb:speed>-1.000000</gpxhb:speed><gpxhb:course>-1.000000</gpxhb:course></extensions></trkpt><trkpt lat="24.13219852397818" lon="120.90478345160139"><ele>593.4</ele><time>2026-07-05T06:33:15Z</time><src>Hikingbook</src><extensions><gpxhb:speed>-1.000000</gpxhb:speed><gpxhb:course>-1.000000</gpxhb:course></extensions></trkpt><trkpt lat="24.13190422168481" lon="120.90454345953086"><ele>589</ele><time>2026-07-05T06:33:36Z</time><src>Hikingbook</src><extensions><gpxhb:speed>-1.000000</gpxhb:speed><gpxhb:course>-1.000000</gpxhb:course></extensions></trkpt><trkpt lat="24.131904795005664" lon="120.9043148477627"><ele>592.1</ele><time>2026-07-05T06:35:52Z</time><src>Hikingbook</src><extensions><gpxhb:speed>-1.000000</gpxhb:speed><gpxhb:course>-1.000000</gpxhb:course></extensions></trkpt><trkpt lat="24.13213175544422" lon="120.90406845497567"><ele>581.3</ele><time>2026-07-05T06:40:19Z</time><src>Hikingbook</src><extensions><gpxhb:speed>-1.000000</gpxhb:speed><gpxhb:course>-1.000000</gpxhb:course></extensions></trkpt><trkpt lat="24.13172875185061" lon="120.90335132731373"><ele>591.6</ele><time>2026-07-05T06:46:09Z</time><src>Hikingbook</src><extensions><gpxhb:speed>-1.000000</gpxhb:speed><gpxhb:course>-1.000000</gpxhb:course></extensions></trkpt><trkpt lat="24.13130418338305" lon="120.90303745556277"><ele>592.2</ele><time>2026-07-05T06:47:39Z</time><src>Hikingbook</src><extensions><gpxhb:speed>-1.000000</gpxhb:speed><gpxhb:course>-1.000000</gpxhb:course></extensions></trkpt><trkpt lat="24.13133203984221" lon="120.90253916638864"><ele>591.1</ele><time>2026-07-05T06:49:10Z</time><src>Hikingbook</src><extensions><gpxhb:speed>-1.000000</gpxhb:speed><gpxhb:course>-1.000000</gpxhb:course></extensions></trkpt><trkpt lat="24.13079759567444" lon="120.90249938906008"><ele>601.2</ele><time>2026-07-05T06:49:30Z</time><src>Hikingbook</src><extensions><gpxhb:speed>-1.000000</gpxhb:speed><gpxhb:course>-1.000000</gpxhb:course></extensions></trkpt><trkpt lat="24.13053810998334" lon="120.90233983059244"><ele>593.5</ele><time>2026-07-05T06:50:12Z</time><src>Hikingbook</src><extensions><gpxhb:speed>-1.000000</gpxhb:speed><gpxhb:course>-1.000000</gpxhb:course></extensions></trkpt><trkpt lat="24.130332248319952" lon="120.90195657138374"><ele>614.6</ele><time>2026-07-05T06:51:04Z</time><src>Hikingbook</src><extensions><gpxhb:speed>-1.000000</gpxhb:speed><gpxhb:course>-1.000000</gpxhb:course></extensions></trkpt><trkpt lat="24.13043154331581" lon="120.90165424132393"><ele>616.2</ele><time>2026-07-05T06:52:09Z</time><src>Hikingbook</src><extensions><gpxhb:speed>-1.000000</gpxhb:speed><gpxhb:course>-1.000000</gpxhb:course></extensions></trkpt><trkpt lat="24.12991176663438" lon="120.90180987308074"><ele>631.7</ele><time>2026-07-05T06:53:35Z</time><src>Hikingbook</src><extensions><gpxhb:speed>-1.000000</gpxhb:speed><gpxhb:course>-1.000000</gpxhb:course></extensions></trkpt><trkpt lat="24.1297252481264" lon="120.90215255753834"><ele>633.8</ele><time>2026-07-05T06:55:38Z</time><src>Hikingbook</src><extensions><gpxhb:speed>-1.000000</gpxhb:speed><gpxhb:course>-1.000000</gpxhb:course></extensions></trkpt><trkpt lat="24.129442858003728" lon="120.90233496844931"><ele>635.3</ele><time>2026-07-05T07:41:12Z</time><src>Hikingbook</src><extensions><gpxhb:speed>-1.000000</gpxhb:speed><gpxhb:course>-1.000000</gpxhb:course></extensions></trkpt><trkpt lat="24.129435985780724" lon="120.90257784500974"><ele>642.6</ele><time>2026-07-05T07:41:45Z</time><src>Hikingbook</src><extensions><gpxhb:speed>-1.000000</gpxhb:speed><gpxhb:course>-1.000000</gpxhb:course></extensions></trkpt><trkpt lat="24.129815525001725" lon="120.90329474695135"><ele>644</ele><time>2026-07-05T07:43:03Z</time><src>Hikingbook</src><extensions><gpxhb:speed>-1.000000</gpxhb:speed><gpxhb:course>-1.000000</gpxhb:course></extensions></trkpt><trkpt lat="24.129225459345577" lon="120.90378860167476"><ele>638.6</ele><time>2026-07-05T07:44:27Z</time><src>Hikingbook</src><extensions><gpxhb:speed>-1.000000</gpxhb:speed><gpxhb:course>-1.000000</gpxhb:course></extensions></trkpt><trkpt lat="24.129184533760238" lon="120.90437741841626"><ele>653.1</ele><time>2026-07-05T07:45:43Z</time><src>Hikingbook</src><extensions><gpxhb:speed>-1.000000</gpxhb:speed><gpxhb:course>-1.000000</gpxhb:course></extensions></trkpt><trkpt lat="24.129364131957676" lon="120.90499089026544"><ele>656.1</ele><time>2026-07-05T07:47:05Z</time><src>Hikingbook</src><extensions><gpxhb:speed>-1.000000</gpxhb:speed><gpxhb:course>-1.000000</gpxhb:course></extensions></trkpt><trkpt lat="24.12927783925102" lon="120.90520920136694"><ele>664.1</ele><time>2026-07-05T07:47:36Z</time><src>Hikingbook</src><extensions><gpxhb:speed>-1.000000</gpxhb:speed><gpxhb:course>-1.000000</gpxhb:course></extensions></trkpt><trkpt lat="24.128892667275565" lon="120.90528901187321"><ele>662.7</ele><time>2026-07-05T07:48:13Z</time><src>Hikingbook</src><extensions><gpxhb:speed>-1.000000</gpxhb:speed><gpxhb:course>-1.000000</gpxhb:course></extensions></trkpt><trkpt lat="24.128552243240172" lon="120.90547226205089"><ele>661.7</ele><time>2026-07-05T07:48:57Z</time><src>Hikingbook</src><extensions><gpxhb:speed>-1.000000</gpxhb:speed><gpxhb:course>-1.000000</gpxhb:course></extensions></trkpt><trkpt lat="24.12839086988607" lon="120.90566166488856"><ele>667</ele><time>2026-07-05T07:49:27Z</time><src>Hikingbook</src><extensions><gpxhb:speed>-1.000000</gpxhb:speed><gpxhb:course>-1.000000</gpxhb:course></extensions></trkpt><trkpt lat="24.128512068941905" lon="120.9060726034595"><ele>676.8</ele><time>2026-07-05T07:50:06Z</time><src>Hikingbook</src><extensions><gpxhb:speed>-1.000000</gpxhb:speed><gpxhb:course>-1.000000</gpxhb:course></extensions></trkpt><trkpt lat="24.128717713980926" lon="120.90607616415016"><ele>677.2</ele><time>2026-07-05T07:50:28Z</time><src>Hikingbook</src><extensions><gpxhb:speed>-1.000000</gpxhb:speed><gpxhb:course>-1.000000</gpxhb:course></extensions></trkpt><trkpt lat="24.128873813983954" lon="120.90628074543713"><ele>679.5</ele><time>2026-07-05T07:50:51Z</time><src>Hikingbook</src><extensions><gpxhb:speed>-1.000000</gpxhb:speed><gpxhb:course>-1.000000</gpxhb:course></extensions></trkpt><trkpt lat="24.129224136484087" lon="120.90637806167888"><ele>680.1</ele><time>2026-07-05T07:51:22Z</time><src>Hikingbook</src><extensions><gpxhb:speed>-1.000000</gpxhb:speed><gpxhb:course>-1.000000</gpxhb:course></extensions></trkpt><trkpt lat="24.130054468279525" lon="120.90687365240154"><ele>706</ele><time>2026-07-05T07:53:09Z</time><src>Hikingbook</src><extensions><gpxhb:speed>-1.000000</gpxhb:speed><gpxhb:course>-1.000000</gpxhb:course></extensions></trkpt><trkpt lat="24.130318217283612" lon="120.90687822502606"><ele>706.1</ele><time>2026-07-05T07:53:50Z</time><src>Hikingbook</src><extensions><gpxhb:speed>-1.000000</gpxhb:speed><gpxhb:course>-1.000000</gpxhb:course></extensions></trkpt></trkseg></trk></gpx>