<?xml version="1.0" encoding="UTF-8"?>
<gpx version="1.1" creator="Hikingbook" xmlns:xsi="http://www.w3.org/2001/XMLSchema-instance" xmlns="http://www.topografix.com/GPX/1/1" xsi:schemaLocation="http://www.topografix.com/GPX/1/1 https://www.topografix.com/GPX/1/1/gpx.xsd https://hikingbook.net/xmlschemas/1/5 https:/hikingbook.net/xmlschemas/1/5/gpxhb.xsd" xmlns:gpxhb="https://hikingbook.net/xmlschemas/1/5"><metadata><name>💦🪢綠寶石(2024-01-21）-「溪降」［🇹🇼高雄-茂林］</name><desc>IG: https://www.instagram.com/p/C2ZrZepPctg/?igsh=MWVvZ2ZzemFwcGZnaA==</desc><author><name>Hikingbook</name><link href="https://hikingbook.net"><text>Hikingbook</text></link></author><link href="https://hikingbook.net/hikes/2024-1-21-%E6%99%A8%E9%96%93%E9%87%8D%E8%A3%9D%E7%99%BB%E5%B1%B1-92a81ab9"><text>Hikingbook</text></link><time>2026-07-30T22:04:24.844108087+08:00</time><keywords>Hikingbook,EzLife,Jimce,綠寶石峽谷,綠寶石,茂林,高雄,垂降,溯溪,Rappeling,Rivertracking,Taiwan,臺灣</keywords><extensions><gpxhb:postscript>1.）綠寶石-鬼斧神工-多納一線天 路線。

2.）前一晚在附近露營區過夜（夜衝），價格在500-600（一帳），很舒服。

3.）標記點，有堰塞湖位置


參與人：
潾兒、Jimce、中信、呂丞喆、嘉玲、怡、梅子、錦榮、程序、謝佳欣、謝小證、銘閔、阿智、HeeroLiu、張哲軒、Kiki、Oscar、雷新、銘哲

-公裝-
繩子：
100+30+46+30

電鑽：
有帶無使用

扁帶：
一捆

</gpxhb:postscript><gpxhb:loadweight>8.2</gpxhb:loadweight><gpxhb:fitnesslevel>1</gpxhb:fitnesslevel><gpxhb:activitytype>others</gpxhb:activitytype><gpxhb:trackimageurl>https://assets.hikingbook.net/users/60w3wu1it91y2jmwdxciziq/8omgkfzirtmxhsqyatokcq/18bb4509-a4a8-4090-a88d-89d8159b4451.jpg</gpxhb:trackimageurl><gpxhb:source>Hikingbook</gpxhb:source></extensions></metadata><wpt lat="22.894518598861453" lon="120.72683368596007"><ele>754</ele><time>2024-01-21T01:19:05Z</time><name>00 A點-開始</name><cmt>2024-01-21T09:19:05+08:00</cmt><desc>00 A點-開始</desc><src>Hikingbook</src><link href="https://hikingbook.net/hikes/8OMgkFzIRtmxHSqYatOkCQ"><text>Hikingbook</text></link><extensions><gpxhb:weather>Clear</gpxhb:weather><gpxhb:speed>0.000000</gpxhb:speed><gpxhb:course>185.798545</gpxhb:course></extensions></wpt><wpt lat="22.894921293032755" lon="120.72810431718125"><ele>725</ele><time>2024-01-21T01:26:35Z</time><name>01 電線桿</name><cmt>2024-01-21T09:26:35+08:00</cmt><desc>01 電線桿</desc><src>Hikingbook</src><link href="https://hikingbook.net/hikes/8OMgkFzIRtmxHSqYatOkCQ"><text>Hikingbook</text></link><extensions><gpxhb:weather>Clear</gpxhb:weather><gpxhb:speed>0.045286</gpxhb:speed><gpxhb:course>54.416559</gpxhb:course></extensions></wpt><wpt lat="22.899032312457123" lon="120.73129211684675"><ele>649</ele><time>2024-01-21T01:58:08Z</time><name>02 瀑1-27米（S瀑）</name><cmt>2024-01-21T09:58:08+08:00</cmt><desc>02 瀑1-27米（S瀑）</desc><src>Hikingbook</src><link href="https://hikingbook.net/hikes/8OMgkFzIRtmxHSqYatOkCQ"><text>Hikingbook</text></link><extensions><gpxhb:weather>Clear</gpxhb:weather><gpxhb:speed>0.036870</gpxhb:speed><gpxhb:course>14.210253</gpxhb:course></extensions></wpt><wpt lat="22.899820010270673" lon="120.73113946951135"><ele>631</ele><time>2024-01-21T03:15:56Z</time><name>03 瀑2-3米</name><cmt>2024-01-21T11:15:56+08:00</cmt><desc>03 瀑2-3米</desc><src>Hikingbook</src><link href="https://hikingbook.net/hikes/8OMgkFzIRtmxHSqYatOkCQ"><text>Hikingbook</text></link><extensions><gpxhb:weather>Clear</gpxhb:weather><gpxhb:speed>1.736427</gpxhb:speed><gpxhb:course>50.307973</gpxhb:course></extensions></wpt><wpt lat="22.90064553759581" lon="120.73152287008898"><ele>597</ele><time>2024-01-21T03:35:23Z</time><name>04 瀑3-28米（扇子瀑布）</name><cmt>2024-01-21T11:35:23+08:00</cmt><desc>04 瀑3-28米（扇子瀑布）</desc><src>Hikingbook</src><link href="https://hikingbook.net/hikes/8OMgkFzIRtmxHSqYatOkCQ"><text>Hikingbook</text></link><extensions><gpxhb:weather>Clear</gpxhb:weather><gpxhb:speed>0.000000</gpxhb:speed><gpxhb:course>316.999273</gpxhb:course></extensions></wpt><wpt lat="22.90140936293773" lon="120.73182745854858"><ele>565</ele><time>2024-01-21T04:59:40Z</time><name>05 瀑4（轉1）-10米</name><cmt>2024-01-21T12:59:40+08:00</cmt><desc>05 瀑4（轉1）-10米</desc><src>Hikingbook</src><link href="https://hikingbook.net/hikes/8OMgkFzIRtmxHSqYatOkCQ"><text>Hikingbook</text></link><extensions><gpxhb:weather>Clear</gpxhb:weather><gpxhb:speed>0.000000</gpxhb:speed><gpxhb:course>38.921800</gpxhb:course></extensions></wpt><wpt lat="22.90144202134161" lon="120.73204368199869"><ele>558</ele><time>2024-01-21T05:09:08Z</time><name>06 瀑4（轉2）-10米(S滑瀑)</name><cmt>2024-01-21T13:09:08+08:00</cmt><desc>06 瀑4（轉2）-10米(S滑瀑)</desc><src>Hikingbook</src><link href="https://hikingbook.net/hikes/8OMgkFzIRtmxHSqYatOkCQ"><text>Hikingbook</text></link><extensions><gpxhb:weather>Clear</gpxhb:weather><gpxhb:speed>0.000000</gpxhb:speed><gpxhb:course>188.640162</gpxhb:course></extensions></wpt><wpt lat="22.90151227267168" lon="120.73218653921106"><ele>532</ele><time>2024-01-21T05:54:04Z</time><name>07 瀑4（轉3）-10米</name><cmt>2024-01-21T13:54:04+08:00</cmt><desc>07 瀑4（轉3）-10米</desc><src>Hikingbook</src><link href="https://hikingbook.net/hikes/8OMgkFzIRtmxHSqYatOkCQ"><text>Hikingbook</text></link><extensions><gpxhb:weather>Clear</gpxhb:weather><gpxhb:speed>0.000000</gpxhb:speed><gpxhb:course>-1.000000</gpxhb:course></extensions></wpt><wpt lat="22.902172054719287" lon="120.73170242549884"><ele>538</ele><time>2024-01-21T06:03:13Z</time><name>08 瀑5-5米（旁邊S瀑布可以滑）</name><cmt>2024-01-21T14:03:13+08:00</cmt><desc>08 瀑5-5米（旁邊S瀑布可以滑）</desc><src>Hikingbook</src><link href="https://hikingbook.net/hikes/8OMgkFzIRtmxHSqYatOkCQ"><text>Hikingbook</text></link><extensions><gpxhb:weather>Clear</gpxhb:weather><gpxhb:speed>0.000000</gpxhb:speed><gpxhb:course>262.066464</gpxhb:course></extensions></wpt><wpt lat="22.902299752474647" lon="120.73147935804047"><ele>526</ele><time>2024-01-21T06:13:11Z</time><name>09 露營/撤退點</name><cmt>2024-01-21T14:13:11+08:00</cmt><desc>09 露營/撤退點</desc><src>Hikingbook</src><link href="https://hikingbook.net/hikes/8OMgkFzIRtmxHSqYatOkCQ"><text>Hikingbook</text></link><extensions><gpxhb:weather>Clear</gpxhb:weather><gpxhb:speed>0.000000</gpxhb:speed><gpxhb:course>-1.000000</gpxhb:course></extensions></wpt><wpt lat="22.90260533397764" lon="120.73099131037623"><ele>544</ele><time>2024-01-21T06:19:24Z</time><name>10 瀑6-7米（可跳水/高繞/垂降）</name><cmt>2024-01-21T14:19:24+08:00</cmt><desc>10 瀑6-7米（可跳水/高繞/垂降）</desc><src>Hikingbook</src><link href="https://hikingbook.net/hikes/8OMgkFzIRtmxHSqYatOkCQ"><text>Hikingbook</text></link><extensions><gpxhb:weather>Clear</gpxhb:weather><gpxhb:speed>0.000000</gpxhb:speed><gpxhb:course>-1.000000</gpxhb:course></extensions></wpt><wpt lat="22.902913730617808" lon="120.73072346799329"><ele>508</ele><time>2024-01-21T06:23:53Z</time><name>11 瀑7-3米（可垂/可跳水）</name><cmt>2024-01-21T14:23:53+08:00</cmt><desc>11 瀑7-3米（可垂/可跳水）</desc><src>Hikingbook</src><link href="https://hikingbook.net/hikes/8OMgkFzIRtmxHSqYatOkCQ"><text>Hikingbook</text></link><extensions><gpxhb:weather>Clear</gpxhb:weather><gpxhb:speed>0.000000</gpxhb:speed><gpxhb:course>331.269222</gpxhb:course></extensions></wpt><wpt lat="22.905591725521923" lon="120.72896888795115"><ele>507</ele><time>2024-01-21T06:42:56Z</time><name>12 鐵廢橋墩上切點</name><cmt>2024-01-21T14:42:56+08:00</cmt><desc>12 鐵廢橋墩上切點</desc><src>Hikingbook</src><link href="https://hikingbook.net/hikes/8OMgkFzIRtmxHSqYatOkCQ"><text>Hikingbook</text></link><extensions><gpxhb:weather>Clear</gpxhb:weather><gpxhb:speed>0.000000</gpxhb:speed><gpxhb:course>327.370049</gpxhb:course></extensions></wpt><wpt lat="22.906548" lon="120.72905"><ele>788</ele><time>2024-01-21T06:50:00Z</time><name>13 堰塞湖</name><cmt>2024-01-21T14:50:00+08:00</cmt><desc>13 堰塞湖</desc><src>Hikingbook</src><link href="https://hikingbook.net/hikes/8OMgkFzIRtmxHSqYatOkCQ"><text>Hikingbook</text></link><extensions><gpxhb:weather>Clear</gpxhb:weather><gpxhb:speed>-1.000000</gpxhb:speed><gpxhb:course>-1.000000</gpxhb:course></extensions></wpt><wpt lat="22.905711606166236" lon="120.72861651901223"><ele>506</ele><time>2024-01-21T07:26:59Z</time><name>14 拉繩上切點</name><cmt>2024-01-21T15:26:59+08:00</cmt><desc>14 拉繩上切點</desc><src>Hikingbook</src><link href="https://hikingbook.net/hikes/8OMgkFzIRtmxHSqYatOkCQ"><text>Hikingbook</text></link><extensions><gpxhb:weather>Clear</gpxhb:weather><gpxhb:speed>0.000000</gpxhb:speed><gpxhb:course>257.695312</gpxhb:course></extensions></wpt><wpt lat="22.905781544396103" lon="120.72845752783017"><ele>515</ele><time>2024-01-21T07:30:15Z</time><name>15 上切-路徑1</name><cmt>2024-01-21T15:30:15+08:00</cmt><desc>15 上切-路徑1</desc><src>Hikingbook</src><link href="https://hikingbook.net/hikes/8OMgkFzIRtmxHSqYatOkCQ"><text>Hikingbook</text></link><extensions><gpxhb:weather>Clear</gpxhb:weather><gpxhb:speed>0.000000</gpxhb:speed><gpxhb:course>286.198599</gpxhb:course></extensions></wpt><wpt lat="22.905955582843553" lon="120.72834023387158"><ele>519</ele><time>2024-01-21T07:32:00Z</time><name>16 上切-路徑2</name><cmt>2024-01-21T15:32:00+08:00</cmt><desc>16 上切-路徑2</desc><src>Hikingbook</src><link href="https://hikingbook.net/hikes/8OMgkFzIRtmxHSqYatOkCQ"><text>Hikingbook</text></link><extensions><gpxhb:weather>Clear</gpxhb:weather><gpxhb:speed>0.074523</gpxhb:speed><gpxhb:course>9.858377</gpxhb:course></extensions></wpt><wpt lat="22.906021636928173" lon="120.72829314085445"><ele>521</ele><time>2024-01-21T07:32:28Z</time><name>17 上切-路徑3</name><cmt>2024-01-21T15:32:28+08:00</cmt><desc>17 上切-路徑3</desc><src>Hikingbook</src><link href="https://hikingbook.net/hikes/8OMgkFzIRtmxHSqYatOkCQ"><text>Hikingbook</text></link><extensions><gpxhb:weather>Clear</gpxhb:weather><gpxhb:speed>0.000000</gpxhb:speed><gpxhb:course>347.222476</gpxhb:course></extensions></wpt><wpt lat="22.906831433714455" lon="120.72796750122147"><ele>539</ele><time>2024-01-21T07:35:54Z</time><name>18 上切-路徑4</name><cmt>2024-01-21T15:35:54+08:00</cmt><desc>18 上切-路徑4</desc><src>Hikingbook</src><link href="https://hikingbook.net/hikes/8OMgkFzIRtmxHSqYatOkCQ"><text>Hikingbook</text></link><extensions><gpxhb:weather>Clear</gpxhb:weather><gpxhb:speed>0.041009</gpxhb:speed><gpxhb:course>57.555323</gpxhb:course></extensions></wpt><wpt lat="22.90758485823354" lon="120.72773976490146"><ele>577</ele><time>2024-01-21T07:41:37Z</time><name>19 上切-路徑5</name><cmt>2024-01-21T15:41:37+08:00</cmt><desc>19 上切-路徑5</desc><src>Hikingbook</src><link href="https://hikingbook.net/hikes/8OMgkFzIRtmxHSqYatOkCQ"><text>Hikingbook</text></link><extensions><gpxhb:weather>Clear</gpxhb:weather><gpxhb:speed>0.215254</gpxhb:speed><gpxhb:course>94.335694</gpxhb:course></extensions></wpt><wpt lat="22.908264825046565" lon="120.72747606276565"><ele>597</ele><time>2024-01-21T07:47:28Z</time><name>20 上切-路徑6</name><cmt>2024-01-21T15:47:28+08:00</cmt><desc>20 上切-路徑6</desc><src>Hikingbook</src><link href="https://hikingbook.net/hikes/8OMgkFzIRtmxHSqYatOkCQ"><text>Hikingbook</text></link><extensions><gpxhb:weather>Clear</gpxhb:weather><gpxhb:speed>0.151681</gpxhb:speed><gpxhb:course>135.030192</gpxhb:course></extensions></wpt><wpt lat="22.90771742725503" lon="120.72591808574082"><ele>614</ele><time>2024-01-21T07:51:04Z</time><name>21 叉路</name><cmt>2024-01-21T15:51:04+08:00</cmt><desc>21 叉路</desc><src>Hikingbook</src><link href="https://hikingbook.net/hikes/8OMgkFzIRtmxHSqYatOkCQ"><text>Hikingbook</text></link><extensions><gpxhb:weather>Clear</gpxhb:weather><gpxhb:speed>0.000000</gpxhb:speed><gpxhb:course>261.919060</gpxhb:course></extensions></wpt><wpt lat="22.907749529201677" lon="120.72657299000606"><ele>616</ele><time>2024-01-21T07:52:20Z</time><name>22 B點-結束</name><cmt>2024-01-21T15:52:20+08:00</cmt><desc>22 B點-結束</desc><src>Hikingbook</src><link href="https://hikingbook.net/hikes/8OMgkFzIRtmxHSqYatOkCQ"><text>Hikingbook</text></link><extensions><gpxhb:weather>Clear</gpxhb:weather><gpxhb:speed>0.000000</gpxhb:speed><gpxhb:course>65.460475</gpxhb:course></extensions></wpt><wpt lat="22.90798877088609" lon="120.72484935896276"><ele>616</ele><time>2024-01-21T07:56:32Z</time><name>23 露營區</name><cmt>2024-01-21T15:56:32+08:00</cmt><desc>23 露營區</desc><src>Hikingbook</src><link href="https://hikingbook.net/hikes/8OMgkFzIRtmxHSqYatOkCQ"><text>Hikingbook</text></link><extensions><gpxhb:weather>Clear</gpxhb:weather><gpxhb:speed>0.000000</gpxhb:speed><gpxhb:course>178.145395</gpxhb:course></extensions></wpt><trk><name>💦🪢綠寶石(2024-01-21）-「溪降」［🇹🇼高雄-茂林］</name><cmt>IG: https://www.instagram.com/p/C2ZrZepPctg/?igsh=MWVvZ2ZzemFwcGZnaA==</cmt><desc>IG: https://www.instagram.com/p/C2ZrZepPctg/?igsh=MWVvZ2ZzemFwcGZnaA==</desc><src>Hikingbook</src><link href="https://hikingbook.net/hikes/2024-1-21-%E6%99%A8%E9%96%93%E9%87%8D%E8%A3%9D%E7%99%BB%E5%B1%B1-92a81ab9"><text>Hikingbook</text></link><trkseg><trkpt lat="22.894518598861453" lon="120.72683368596007"><ele>754.1456750631332</ele><time>2024-01-21T01:19:05Z</time><src>Hikingbook</src><extensions><gpxhb:speed>0.000000</gpxhb:speed><gpxhb:course>185.798545</gpxhb:course></extensions></trkpt><trkpt lat="22.894501781646106" lon="120.72727261673683"><ele>743.0159890186231</ele><time>2024-01-21T01:21:41Z</time><src>Hikingbook</src><extensions><gpxhb:speed>0.451972</gpxhb:speed><gpxhb:course>92.358485</gpxhb:course></extensions></trkpt><trkpt lat="22.894596501349405" lon="120.72732488770924"><ele>742.9137212366243</ele><time>2024-01-21T01:22:11Z</time><src>Hikingbook</src><extensions><gpxhb:speed>0.271134</gpxhb:speed><gpxhb:course>106.336080</gpxhb:course></extensions></trkpt><trkpt lat="22.89470803941781" lon="120.72785174678614"><ele>731.0688652686455</ele><time>2024-01-21T01:24:41Z</time><src>Hikingbook</src><extensions><gpxhb:speed>0.617934</gpxhb:speed><gpxhb:course>28.242442</gpxhb:course></extensions></trkpt><trkpt lat="22.894707965572376" lon="120.72785720178244"><ele>730.8966609999997</ele><time>2024-01-21T01:24:42Z</time><src>Hikingbook</src><extensions><gpxhb:speed>0.469807</gpxhb:speed><gpxhb:course>28.242446</gpxhb:course></extensions></trkpt><trkpt lat="22.89489725029374" lon="120.72812032003841"><ele>726.6585803371073</ele><time>2024-01-21T01:26:02Z</time><src>Hikingbook</src><extensions><gpxhb:speed>0.124927</gpxhb:speed><gpxhb:course>48.639635</gpxhb:course></extensions></trkpt><trkpt lat="22.89517879899587" lon="120.72827730777998"><ele>721.7087922784642</ele><time>2024-01-21T01:27:53Z</time><src>Hikingbook</src><extensions><gpxhb:speed>0.939605</gpxhb:speed><gpxhb:course>18.625201</gpxhb:course></extensions></trkpt><trkpt lat="22.895119835883175" lon="120.72858955364427"><ele>715.4753575825753</ele><time>2024-01-21T01:29:23Z</time><src>Hikingbook</src><extensions><gpxhb:speed>0.670947</gpxhb:speed><gpxhb:course>65.944598</gpxhb:course></extensions></trkpt><trkpt lat="22.895203436298605" lon="120.72867339232262"><ele>714.4756334157073</ele><time>2024-01-21T01:29:53Z</time><src>Hikingbook</src><extensions><gpxhb:speed>0.528521</gpxhb:speed><gpxhb:course>350.470117</gpxhb:course></extensions></trkpt><trkpt lat="22.895208441995734" lon="120.72867213572566"><ele>714.4136608903807</ele><time>2024-01-21T01:29:54Z</time><src>Hikingbook</src><extensions><gpxhb:speed>0.270904</gpxhb:speed><gpxhb:course>350.753688</gpxhb:course></extensions></trkpt><trkpt lat="22.89561138379483" lon="120.72889359451418"><ele>702.5598722638608</ele><time>2024-01-21T01:32:04Z</time><src>Hikingbook</src><extensions><gpxhb:speed>0.443444</gpxhb:speed><gpxhb:course>-1.000000</gpxhb:course></extensions></trkpt><trkpt lat="22.89577387289411" lon="120.72909245350445"><ele>700.5787082542386</ele><time>2024-01-21T01:32:53Z</time><src>Hikingbook</src><extensions><gpxhb:speed>0.416800</gpxhb:speed><gpxhb:course>49.480997</gpxhb:course></extensions></trkpt><trkpt lat="22.89586343981005" lon="120.72953418841266"><ele>693.189422195144</ele><time>2024-01-21T01:34:44Z</time><src>Hikingbook</src><extensions><gpxhb:speed>0.000000</gpxhb:speed><gpxhb:course>67.957826</gpxhb:course></extensions></trkpt><trkpt lat="22.89586281551292" lon="120.72953555918883"><ele>693.176859630292</ele><time>2024-01-21T01:34:45Z</time><src>Hikingbook</src><extensions><gpxhb:speed>0.000000</gpxhb:speed><gpxhb:course>67.957826</gpxhb:course></extensions></trkpt><trkpt lat="22.896020328370838" lon="120.72999392660672"><ele>685.6594979904933</ele><time>2024-01-21T01:36:54Z</time><src>Hikingbook</src><extensions><gpxhb:speed>0.110989</gpxhb:speed><gpxhb:course>100.878511</gpxhb:course></extensions></trkpt><trkpt lat="22.89656144491121" lon="120.73001264626663"><ele>680.7613514476383</ele><time>2024-01-21T01:40:45Z</time><src>Hikingbook</src><extensions><gpxhb:speed>0.318815</gpxhb:speed><gpxhb:course>45.806792</gpxhb:course></extensions></trkpt><trkpt lat="22.896626186622743" lon="120.7300769457612"><ele>683.4360973004259</ele><time>2024-01-21T01:41:14Z</time><src>Hikingbook</src><extensions><gpxhb:speed>0.064978</gpxhb:speed><gpxhb:course>70.794529</gpxhb:course></extensions></trkpt><trkpt lat="22.896630157515975" lon="120.73007746917956"><ele>683.5057306412477</ele><time>2024-01-21T01:41:15Z</time><src>Hikingbook</src><extensions><gpxhb:speed>0.175145</gpxhb:speed><gpxhb:course>70.794527</gpxhb:course></extensions></trkpt><trkpt lat="22.896729006104746" lon="120.73052031913738"><ele>677.9303796200987</ele><time>2024-01-21T01:43:15Z</time><src>Hikingbook</src><extensions><gpxhb:speed>0.605674</gpxhb:speed><gpxhb:course>80.716055</gpxhb:course></extensions></trkpt><trkpt lat="22.89730742519602" lon="120.73078134816834"><ele>680.4229858753056</ele><time>2024-01-21T01:46:06Z</time><src>Hikingbook</src><extensions><gpxhb:speed>0.000000</gpxhb:speed><gpxhb:course>23.775301</gpxhb:course></extensions></trkpt><trkpt lat="22.897307820713575" lon="120.73078132805102"><ele>680.3924769466884</ele><time>2024-01-21T01:46:07Z</time><src>Hikingbook</src><extensions><gpxhb:speed>0.000000</gpxhb:speed><gpxhb:course>23.775301</gpxhb:course></extensions></trkpt><trkpt lat="22.89752016129663" lon="120.73099656543172"><ele>675.5580033278748</ele><time>2024-01-21T01:47:26Z</time><src>Hikingbook</src><extensions><gpxhb:speed>0.416454</gpxhb:speed><gpxhb:course>317.675766</gpxhb:course></extensions></trkpt><trkpt lat="22.89777382192099" lon="120.73094165435218"><ele>672.2801455407765</ele><time>2024-01-21T01:48:57Z</time><src>Hikingbook</src><extensions><gpxhb:speed>0.481766</gpxhb:speed><gpxhb:course>4.770969</gpxhb:course></extensions></trkpt><trkpt lat="22.897872273480946" lon="120.73078125947904"><ele>674.8552487856826</ele><time>2024-01-21T01:49:36Z</time><src>Hikingbook</src><extensions><gpxhb:speed>1.183500</gpxhb:speed><gpxhb:course>307.472288</gpxhb:course></extensions></trkpt><trkpt lat="22.897873428420823" lon="120.73086255776239"><ele>671.9313409313091</ele><time>2024-01-21T01:50:17Z</time><src>Hikingbook</src><extensions><gpxhb:speed>0.395045</gpxhb:speed><gpxhb:course>292.994381</gpxhb:course></extensions></trkpt><trkpt lat="22.8981955938947" lon="120.73094151263867"><ele>655.2278494408608</ele><time>2024-01-21T01:52:07Z</time><src>Hikingbook</src><extensions><gpxhb:speed>0.523343</gpxhb:speed><gpxhb:course>345.971315</gpxhb:course></extensions></trkpt><trkpt lat="22.89820429863324" lon="120.7310592002582"><ele>654.4275605362408</ele><time>2024-01-21T01:52:17Z</time><src>Hikingbook</src><extensions><gpxhb:speed>1.081113</gpxhb:speed><gpxhb:course>31.049868</gpxhb:course></extensions></trkpt></trkseg><trkseg><trkpt lat="22.899496744326534" lon="120.73128656954931"><ele>637.5759600862749</ele><time>2024-01-21T03:14:05Z</time><src>Hikingbook</src><extensions><gpxhb:speed>0.860000</gpxhb:speed><gpxhb:course>178.593750</gpxhb:course></extensions></trkpt><trkpt lat="22.899594309892766" lon="120.73124731224753"><ele>629.9788422287936</ele><time>2024-01-21T03:14:15Z</time><src>Hikingbook</src><extensions><gpxhb:speed>1.280000</gpxhb:speed><gpxhb:course>-1.000000</gpxhb:course></extensions></trkpt><trkpt lat="22.899466692420027" lon="120.73113313775833"><ele>634.950144632292</ele><time>2024-01-21T03:14:35Z</time><src>Hikingbook</src><extensions><gpxhb:speed>0.000000</gpxhb:speed><gpxhb:course>-1.000000</gpxhb:course></extensions></trkpt><trkpt lat="22.899835896505586" lon="120.73117800457078"><ele>632.9757557848936</ele><time>2024-01-21T03:15:35Z</time><src>Hikingbook</src><extensions><gpxhb:speed>1.107941</gpxhb:speed><gpxhb:course>9.187468</gpxhb:course></extensions></trkpt><trkpt lat="22.899807533387374" lon="120.73111694061876"><ele>631.351192484422</ele><time>2024-01-21T03:15:54Z</time><src>Hikingbook</src><extensions><gpxhb:speed>0.122572</gpxhb:speed><gpxhb:course>10.956098</gpxhb:course></extensions></trkpt><trkpt lat="22.8997995226429" lon="120.73117599120266"><ele>631.8119299160658</ele><time>2024-01-21T03:17:05Z</time><src>Hikingbook</src><extensions><gpxhb:speed>0.000000</gpxhb:speed><gpxhb:course>234.398152</gpxhb:course></extensions></trkpt></trkseg><trkseg><trkpt lat="22.89968533434562" lon="120.73094864209322"><ele>628.6801739056282</ele><time>2024-01-21T03:27:25Z</time><src>Hikingbook</src><extensions><gpxhb:speed>0.710000</gpxhb:speed><gpxhb:course>146.601562</gpxhb:course></extensions></trkpt><trkpt lat="22.899914437987803" lon="120.73134712449192"><ele>641.1477217362005</ele><time>2024-01-21T03:29:04Z</time><src>Hikingbook</src><extensions><gpxhb:speed>2.978401</gpxhb:speed><gpxhb:course>-1.000000</gpxhb:course></extensions></trkpt><trkpt lat="22.899854121950437" lon="120.7313762854605"><ele>625.7321642933456</ele><time>2024-01-21T03:29:14Z</time><src>Hikingbook</src><extensions><gpxhb:speed>0.000000</gpxhb:speed><gpxhb:course>83.963132</gpxhb:course></extensions></trkpt><trkpt lat="22.899991871819633" lon="120.73117082774458"><ele>623.2343175739504</ele><time>2024-01-21T03:30:05Z</time><src>Hikingbook</src><extensions><gpxhb:speed>0.766215</gpxhb:speed><gpxhb:course>-1.000000</gpxhb:course></extensions></trkpt><trkpt lat="22.900509331927562" lon="120.7314249875126"><ele>598.2068404121808</ele><time>2024-01-21T03:33:05Z</time><src>Hikingbook</src><extensions><gpxhb:speed>0.944963</gpxhb:speed><gpxhb:course>-1.000000</gpxhb:course></extensions></trkpt></trkseg><trkseg><trkpt lat="22.900831452592183" lon="120.73169619787552"><ele>577.181339263916</ele><time>2024-01-21T03:58:03Z</time><src>Hikingbook</src><extensions><gpxhb:speed>0.000000</gpxhb:speed><gpxhb:course>176.132812</gpxhb:course></extensions></trkpt><trkpt lat="22.900831453200144" lon="120.73169620485584"><ele>577.1814421027124</ele><time>2024-01-21T03:58:04Z</time><src>Hikingbook</src><extensions><gpxhb:speed>0.000000</gpxhb:speed><gpxhb:course>176.132812</gpxhb:course></extensions></trkpt></trkseg><trkseg></trkseg><trkseg><trkpt lat="22.90140188300691" lon="120.73188252758304"><ele>558.1698641506955</ele><time>2024-01-21T05:02:10Z</time><src>Hikingbook</src><extensions><gpxhb:speed>0.000000</gpxhb:speed><gpxhb:course>-1.000000</gpxhb:course></extensions></trkpt><trkpt lat="22.901442865476156" lon="120.73197753467274"><ele>557.595687927408</ele><time>2024-01-21T05:05:32Z</time><src>Hikingbook</src><extensions><gpxhb:speed>0.017565</gpxhb:speed><gpxhb:course>157.024107</gpxhb:course></extensions></trkpt></trkseg><trkseg></trkseg><trkseg></trkseg><trkseg><trkpt lat="22.901555529038756" lon="120.73214918408752"><ele>550.3237744765356</ele><time>2024-01-21T05:54:23Z</time><src>Hikingbook</src><extensions><gpxhb:speed>0.146400</gpxhb:speed><gpxhb:course>-1.000000</gpxhb:course></extensions></trkpt><trkpt lat="22.901562046317306" lon="120.73222709691736"><ele>549.1477190802364</ele><time>2024-01-21T05:55:48Z</time><src>Hikingbook</src><extensions><gpxhb:speed>0.624832</gpxhb:speed><gpxhb:course>-1.000000</gpxhb:course></extensions></trkpt><trkpt lat="22.901637841263312" lon="120.7320953059896"><ele>555.812803011614</ele><time>2024-01-21T06:00:39Z</time><src>Hikingbook</src><extensions><gpxhb:speed>0.378049</gpxhb:speed><gpxhb:course>254.385184</gpxhb:course></extensions></trkpt><trkpt lat="22.901833918042886" lon="120.73227767253056"><ele>553.7799203199221</ele><time>2024-01-21T06:01:21Z</time><src>Hikingbook</src><extensions><gpxhb:speed>0.700799</gpxhb:speed><gpxhb:course>8.999637</gpxhb:course></extensions></trkpt><trkpt lat="22.90194592376417" lon="120.73226188429665"><ele>558.0412641110709</ele><time>2024-01-21T06:01:31Z</time><src>Hikingbook</src><extensions><gpxhb:speed>0.676007</gpxhb:speed><gpxhb:course>324.667278</gpxhb:course></extensions></trkpt><trkpt lat="22.902180391979037" lon="120.73169195562578"><ele>537.7853062135543</ele><time>2024-01-21T06:03:37Z</time><src>Hikingbook</src><extensions><gpxhb:speed>0.000000</gpxhb:speed><gpxhb:course>215.408405</gpxhb:course></extensions></trkpt></trkseg><trkseg></trkseg><trkseg><trkpt lat="22.90235805455278" lon="120.73147728672794"><ele>543.5122664701194</ele><time>2024-01-21T06:17:39Z</time><src>Hikingbook</src><extensions><gpxhb:speed>0.216194</gpxhb:speed><gpxhb:course>-1.000000</gpxhb:course></extensions></trkpt><trkpt lat="22.90234491432932" lon="120.73134908908376"><ele>542.7478524335753</ele><time>2024-01-21T06:18:04Z</time><src>Hikingbook</src><extensions><gpxhb:speed>0.499326</gpxhb:speed><gpxhb:course>201.277797</gpxhb:course></extensions></trkpt><trkpt lat="22.902613616685002" lon="120.73099116700675"><ele>542.8594560901204</ele><time>2024-01-21T06:19:23Z</time><src>Hikingbook</src><extensions><gpxhb:speed>0.186161</gpxhb:speed><gpxhb:course>-1.000000</gpxhb:course></extensions></trkpt><trkpt lat="22.902490645255433" lon="120.73095363616439"><ele>487.46169934851764</ele><time>2024-01-21T06:21:07Z</time><src>Hikingbook</src><extensions><gpxhb:speed>2.120597</gpxhb:speed><gpxhb:course>122.864655</gpxhb:course></extensions></trkpt><trkpt lat="22.902499163732067" lon="120.73084446691757"><ele>485.3130456574692</ele><time>2024-01-21T06:21:17Z</time><src>Hikingbook</src><extensions><gpxhb:speed>0.844773</gpxhb:speed><gpxhb:course>-1.000000</gpxhb:course></extensions></trkpt><trkpt lat="22.902747353434215" lon="120.73081881625099"><ele>496.6881426665283</ele><time>2024-01-21T06:22:22Z</time><src>Hikingbook</src><extensions><gpxhb:speed>0.000000</gpxhb:speed><gpxhb:course>33.470848</gpxhb:course></extensions></trkpt></trkseg><trkseg><trkpt lat="22.902741868127986" lon="120.73073654518723"><ele>492.4700067508966</ele><time>2024-01-21T06:22:54Z</time><src>Hikingbook</src><extensions><gpxhb:speed>0.014425</gpxhb:speed><gpxhb:course>290.213729</gpxhb:course></extensions></trkpt><trkpt lat="22.90295946019769" lon="120.7307498596688"><ele>527.649093521976</ele><time>2024-01-21T06:24:46Z</time><src>Hikingbook</src><extensions><gpxhb:speed>0.091172</gpxhb:speed><gpxhb:course>140.685760</gpxhb:course></extensions></trkpt><trkpt lat="22.902889753040775" lon="120.73070146828856"><ele>505.2396361194832</ele><time>2024-01-21T06:26:35Z</time><src>Hikingbook</src><extensions><gpxhb:speed>0.000000</gpxhb:speed><gpxhb:course>320.976562</gpxhb:course></extensions></trkpt><trkpt lat="22.90300738377969" lon="120.73058976010692"><ele>540.453794715889</ele><time>2024-01-21T06:26:56Z</time><src>Hikingbook</src><extensions><gpxhb:speed>2.095407</gpxhb:speed><gpxhb:course>-1.000000</gpxhb:course></extensions></trkpt><trkpt lat="22.90293347961831" lon="120.73070310244961"><ele>541.8100878382841</ele><time>2024-01-21T06:27:56Z</time><src>Hikingbook</src><extensions><gpxhb:speed>0.000000</gpxhb:speed><gpxhb:course>117.218995</gpxhb:course></extensions></trkpt><trkpt lat="22.902853751514886" lon="120.73067719352403"><ele>537.5854196152408</ele><time>2024-01-21T06:28:16Z</time><src>Hikingbook</src><extensions><gpxhb:speed>0.958926</gpxhb:speed><gpxhb:course>-1.000000</gpxhb:course></extensions></trkpt><trkpt lat="22.90294993269132" lon="120.73076640255394"><ele>548.2930268354023</ele><time>2024-01-21T06:29:06Z</time><src>Hikingbook</src><extensions><gpxhb:speed>0.077461</gpxhb:speed><gpxhb:course>63.098794</gpxhb:course></extensions></trkpt><trkpt lat="22.90287686727293" lon="120.73069576382069"><ele>546.8134446153018</ele><time>2024-01-21T06:29:46Z</time><src>Hikingbook</src><extensions><gpxhb:speed>0.000000</gpxhb:speed><gpxhb:course>102.723176</gpxhb:course></extensions></trkpt><trkpt lat="22.902897174776626" lon="120.73075689191839"><ele>550.3294251285571</ele><time>2024-01-21T06:30:26Z</time><src>Hikingbook</src><extensions><gpxhb:speed>0.076691</gpxhb:speed><gpxhb:course>108.312778</gpxhb:course></extensions></trkpt><trkpt lat="22.903155797688257" lon="120.73032492145455"><ele>545.2517684786019</ele><time>2024-01-21T06:33:50Z</time><src>Hikingbook</src><extensions><gpxhb:speed>4.023082</gpxhb:speed><gpxhb:course>354.647894</gpxhb:course></extensions></trkpt><trkpt lat="22.903057649229314" lon="120.73022052581366"><ele>523.2259063057679</ele><time>2024-01-21T06:34:30Z</time><src>Hikingbook</src><extensions><gpxhb:speed>0.048081</gpxhb:speed><gpxhb:course>-1.000000</gpxhb:course></extensions></trkpt><trkpt lat="22.903304090563488" lon="120.7299438728161"><ele>515.0043995629276</ele><time>2024-01-21T06:34:49Z</time><src>Hikingbook</src><extensions><gpxhb:speed>1.239502</gpxhb:speed><gpxhb:course>315.040412</gpxhb:course></extensions></trkpt><trkpt lat="22.903326166064453" lon="120.72992217429"><ele>515.614349997491</ele><time>2024-01-21T06:34:50Z</time><src>Hikingbook</src><extensions><gpxhb:speed>1.334747</gpxhb:speed><gpxhb:course>316.958757</gpxhb:course></extensions></trkpt><trkpt lat="22.903735690938717" lon="120.73007600034832"><ele>513.7158779223447</ele><time>2024-01-21T06:35:51Z</time><src>Hikingbook</src><extensions><gpxhb:speed>0.548645</gpxhb:speed><gpxhb:course>7.325827</gpxhb:course></extensions></trkpt><trkpt lat="22.904269778069434" lon="120.72979021098155"><ele>506.07141491398</ele><time>2024-01-21T06:38:50Z</time><src>Hikingbook</src><extensions><gpxhb:speed>0.328653</gpxhb:speed><gpxhb:course>2.336495</gpxhb:course></extensions></trkpt><trkpt lat="22.904276138072998" lon="120.72978391829758"><ele>505.95045412684084</ele><time>2024-01-21T06:38:51Z</time><src>Hikingbook</src><extensions><gpxhb:speed>0.349277</gpxhb:speed><gpxhb:course>1.456579</gpxhb:course></extensions></trkpt><trkpt lat="22.904566554784374" lon="120.72950486933753"><ele>509.87709839071834</ele><time>2024-01-21T06:39:32Z</time><src>Hikingbook</src><extensions><gpxhb:speed>1.222523</gpxhb:speed><gpxhb:course>306.019079</gpxhb:course></extensions></trkpt><trkpt lat="22.905067103649944" lon="120.7294327341365"><ele>519.0558607691249</ele><time>2024-01-21T06:40:22Z</time><src>Hikingbook</src><extensions><gpxhb:speed>1.167385</gpxhb:speed><gpxhb:course>350.341163</gpxhb:course></extensions></trkpt><trkpt lat="22.90529948811839" lon="120.72928838207787"><ele>517.3125934370181</ele><time>2024-01-21T06:40:51Z</time><src>Hikingbook</src><extensions><gpxhb:speed>0.985788</gpxhb:speed><gpxhb:course>310.937486</gpxhb:course></extensions></trkpt></trkseg><trkseg><trkpt lat="22.905566376125027" lon="120.72899500698968"><ele>508.41299421340227</ele><time>2024-01-21T06:43:48Z</time><src>Hikingbook</src><extensions><gpxhb:speed>0.000000</gpxhb:speed><gpxhb:course>327.370059</gpxhb:course></extensions></trkpt><trkpt lat="22.905566376125027" lon="120.72899500698968"><ele>508.41299421340227</ele><time>2024-01-21T06:43:50Z</time><src>Hikingbook</src><extensions><gpxhb:speed>0.000000</gpxhb:speed><gpxhb:course>327.370059</gpxhb:course></extensions></trkpt></trkseg><trkseg><trkpt lat="22.90545985570448" lon="120.72881584066965"><ele>512.5801429748535</ele><time>2024-01-21T07:24:12Z</time><src>Hikingbook</src><extensions><gpxhb:speed>0.000000</gpxhb:speed><gpxhb:course>245.390625</gpxhb:course></extensions></trkpt><trkpt lat="22.905438608120118" lon="120.72889989541679"><ele>496.25991663735203</ele><time>2024-01-21T07:24:53Z</time><src>Hikingbook</src><extensions><gpxhb:speed>0.068252</gpxhb:speed><gpxhb:course>-1.000000</gpxhb:course></extensions></trkpt></trkseg><trkseg><trkpt lat="22.905721748201557" lon="120.72858689592236"><ele>507.2933328291401</ele><time>2024-01-21T07:28:48Z</time><src>Hikingbook</src><extensions><gpxhb:speed>0.130371</gpxhb:speed><gpxhb:course>-1.000000</gpxhb:course></extensions></trkpt><trkpt lat="22.905713220473928" lon="120.7284420224126"><ele>513.9211152694048</ele><time>2024-01-21T07:30:01Z</time><src>Hikingbook</src><extensions><gpxhb:speed>0.447456</gpxhb:speed><gpxhb:course>-1.000000</gpxhb:course></extensions></trkpt><trkpt lat="22.906062729212852" lon="120.72820961359334"><ele>522.1287584206973</ele><time>2024-01-21T07:32:52Z</time><src>Hikingbook</src><extensions><gpxhb:speed>0.294195</gpxhb:speed><gpxhb:course>300.855240</gpxhb:course></extensions></trkpt><trkpt lat="22.906314468921472" lon="120.72820817026337"><ele>524.912142563161</ele><time>2024-01-21T07:33:22Z</time><src>Hikingbook</src><extensions><gpxhb:speed>0.625628</gpxhb:speed><gpxhb:course>355.026630</gpxhb:course></extensions></trkpt><trkpt lat="22.90682393381853" lon="120.72797402132053"><ele>538.3004403080627</ele><time>2024-01-21T07:36:01Z</time><src>Hikingbook</src><extensions><gpxhb:speed>0.419913</gpxhb:speed><gpxhb:course>57.555330</gpxhb:course></extensions></trkpt><trkpt lat="22.906824725941078" lon="120.72797732922673"><ele>538.1387827796325</ele><time>2024-01-21T07:36:02Z</time><src>Hikingbook</src><extensions><gpxhb:speed>0.317321</gpxhb:speed><gpxhb:course>57.555329</gpxhb:course></extensions></trkpt><trkpt lat="22.90749161956513" lon="120.72764964948908"><ele>575.0660116059154</ele><time>2024-01-21T07:41:03Z</time><src>Hikingbook</src><extensions><gpxhb:speed>0.861635</gpxhb:speed><gpxhb:course>6.535712</gpxhb:course></extensions></trkpt><trkpt lat="22.90773140996599" lon="120.72777133124256"><ele>583.2157330102352</ele><time>2024-01-21T07:42:26Z</time><src>Hikingbook</src><extensions><gpxhb:speed>0.384857</gpxhb:speed><gpxhb:course>21.365992</gpxhb:course></extensions></trkpt><trkpt lat="22.90773644417822" lon="120.72777240102415"><ele>583.4146895601114</ele><time>2024-01-21T07:42:27Z</time><src>Hikingbook</src><extensions><gpxhb:speed>0.408533</gpxhb:speed><gpxhb:course>21.365992</gpxhb:course></extensions></trkpt><trkpt lat="22.90780180999729" lon="120.7277085080854"><ele>585.009950077953</ele><time>2024-01-21T07:42:57Z</time><src>Hikingbook</src><extensions><gpxhb:speed>0.689065</gpxhb:speed><gpxhb:course>315.361387</gpxhb:course></extensions></trkpt><trkpt lat="22.907854683357417" lon="120.72783264005287"><ele>591.560815746542</ele><time>2024-01-21T07:43:27Z</time><src>Hikingbook</src><extensions><gpxhb:speed>1.411331</gpxhb:speed><gpxhb:course>63.247178</gpxhb:course></extensions></trkpt><trkpt lat="22.90792023102862" lon="120.72770691790828"><ele>586.4096325416216</ele><time>2024-01-21T07:43:57Z</time><src>Hikingbook</src><extensions><gpxhb:speed>0.244256</gpxhb:speed><gpxhb:course>277.570850</gpxhb:course></extensions></trkpt><trkpt lat="22.908121976302535" lon="120.7277769135729"><ele>585.9869879447525</ele><time>2024-01-21T07:45:17Z</time><src>Hikingbook</src><extensions><gpxhb:speed>0.428298</gpxhb:speed><gpxhb:course>97.729904</gpxhb:course></extensions></trkpt><trkpt lat="22.908122634527352" lon="120.72764058306512"><ele>594.1279861106419</ele><time>2024-01-21T07:46:17Z</time><src>Hikingbook</src><extensions><gpxhb:speed>0.254047</gpxhb:speed><gpxhb:course>86.173791</gpxhb:course></extensions></trkpt><trkpt lat="22.908227526389087" lon="120.72766130513965"><ele>598.3801399489178</ele><time>2024-01-21T07:46:36Z</time><src>Hikingbook</src><extensions><gpxhb:speed>0.292840</gpxhb:speed><gpxhb:course>83.651876</gpxhb:course></extensions></trkpt><trkpt lat="22.908196676170718" lon="120.72749492351029"><ele>597.3877548183866</ele><time>2024-01-21T07:47:17Z</time><src>Hikingbook</src><extensions><gpxhb:speed>0.037055</gpxhb:speed><gpxhb:course>135.030188</gpxhb:course></extensions></trkpt><trkpt lat="22.908523156373608" lon="120.72722419942512"><ele>601.4977517970323</ele><time>2024-01-21T07:48:24Z</time><src>Hikingbook</src><extensions><gpxhb:speed>1.014006</gpxhb:speed><gpxhb:course>317.590580</gpxhb:course></extensions></trkpt><trkpt lat="22.908535531573595" lon="120.72721779328893"><ele>601.8145347101861</ele><time>2024-01-21T07:48:25Z</time><src>Hikingbook</src><extensions><gpxhb:speed>1.237288</gpxhb:speed><gpxhb:course>309.127218</gpxhb:course></extensions></trkpt><trkpt lat="22.908090943203668" lon="120.72664204314063"><ele>603.8459086871419</ele><time>2024-01-21T07:49:36Z</time><src>Hikingbook</src><extensions><gpxhb:speed>1.084829</gpxhb:speed><gpxhb:course>228.332985</gpxhb:course></extensions></trkpt><trkpt lat="22.908029139797026" lon="120.72640711920751"><ele>607.0502637020141</ele><time>2024-01-21T07:50:00Z</time><src>Hikingbook</src><extensions><gpxhb:speed>1.005710</gpxhb:speed><gpxhb:course>267.682167</gpxhb:course></extensions></trkpt></trkseg></trk></gpx>