<?xml version="1.0" encoding="UTF-8"?>
<gpx version="1.1" creator="Hikingbook" xmlns:xsi="http://www.w3.org/2001/XMLSchema-instance" xmlns="http://www.topografix.com/GPX/1/1" xsi:schemaLocation="http://www.topografix.com/GPX/1/1 https://www.topografix.com/GPX/1/1/gpx.xsd https://hikingbook.net/xmlschemas/1/5 https:/hikingbook.net/xmlschemas/1/5/gpxhb.xsd" xmlns:gpxhb="https://hikingbook.net/xmlschemas/1/5"><metadata><name>💦🪢美雅谷(2024-01-20）-「溪降」［🇹🇼高雄-茂林］</name><desc>IG: https://www.instagram.com/p/C2ZrZepPctg/?igsh=MWVvZ2ZzemFwcGZnaA==</desc><author><name>Hikingbook</name><link href="https://hikingbook.net"><text>Hikingbook</text></link></author><link href="https://hikingbook.net/hikes/%E7%BE%8E%E9%9B%85%E8%B0%B7-2024-01-20-6fbc9866"><text>Hikingbook</text></link><time>2026-07-30T22:17:13.225152419+08:00</time><keywords>Hikingbook,EzLife,Jimce,美雅谷,高雄,垂降,台灣,Taiwan,rappelling,溯溪</keywords><extensions><gpxhb:postscript>心得：
遇到長鬃山羊，這邊生態很豐富🥰



參與人：
潾兒、Jimce、中信、呂丞喆、嘉玲、怡、梅子、錦榮、程序、謝佳欣、謝小證、銘閔、阿智、HeeroLiu、張哲軒、Kiki、Oscar、雷新、銘哲

-公裝-
繩子：
100+100+30+46+30+26+20

電鑽：
有帶無使用

扁帶：
一捆

</gpxhb:postscript><gpxhb:loadweight>9.5</gpxhb:loadweight><gpxhb:fitnesslevel>1</gpxhb:fitnesslevel><gpxhb:activitytype>others</gpxhb:activitytype><gpxhb:trackimageurl>https://assets.hikingbook.net/users/60w3wu1it91y2jmwdxciziq/vrba91l900tuyb99290vgjb43q/35e79265-4ec7-4383-a8b9-abb09424eab1.jpg</gpxhb:trackimageurl><gpxhb:source>Hikingbook</gpxhb:source></extensions></metadata><wpt lat="22.93122650530594" lon="120.68062803585103"><ele>605</ele><time>2024-01-20T00:05:39Z</time><name>00 A點-開始</name><cmt>2024-01-20T08:05:39+08:00</cmt><desc>00 A點-開始</desc><src>Hikingbook</src><link href="https://hikingbook.net/hikes/VRBa91L900Tuyb99290VgjB43Q"><text>Hikingbook</text></link><extensions><gpxhb:weather>Clear</gpxhb:weather><gpxhb:speed>0.094980</gpxhb:speed><gpxhb:course>-1.000000</gpxhb:course></extensions></wpt><wpt lat="22.932365166355737" lon="120.68077161004835"><ele>646</ele><time>2024-01-20T00:11:45Z</time><name>01 上切路徑-1</name><cmt>2024-01-20T08:11:45+08:00</cmt><desc>01 上切路徑-1</desc><src>Hikingbook</src><link href="https://hikingbook.net/hikes/VRBa91L900Tuyb99290VgjB43Q"><text>Hikingbook</text></link><extensions><gpxhb:weather>Clear</gpxhb:weather><gpxhb:speed>0.000000</gpxhb:speed><gpxhb:course>43.415877</gpxhb:course></extensions></wpt><wpt lat="22.93225220828383" lon="120.68083637518322"><ele>643</ele><time>2024-01-20T00:15:51Z</time><name>02 上切路徑-2</name><cmt>2024-01-20T08:15:51+08:00</cmt><desc>02 上切路徑-2</desc><src>Hikingbook</src><link href="https://hikingbook.net/hikes/VRBa91L900Tuyb99290VgjB43Q"><text>Hikingbook</text></link><extensions><gpxhb:weather>Clear</gpxhb:weather><gpxhb:speed>0.000000</gpxhb:speed><gpxhb:course>139.235545</gpxhb:course></extensions></wpt><wpt lat="22.9323495479858" lon="120.68130612718694"><ele>663</ele><time>2024-01-20T00:20:23Z</time><name>03 上切路徑3（平台）</name><cmt>2024-01-20T08:20:23+08:00</cmt><desc>03 上切路徑3（平台）</desc><src>Hikingbook</src><link href="https://hikingbook.net/hikes/VRBa91L900Tuyb99290VgjB43Q"><text>Hikingbook</text></link><extensions><gpxhb:weather>Clear</gpxhb:weather><gpxhb:speed>0.000000</gpxhb:speed><gpxhb:course>5.127307</gpxhb:course></extensions></wpt><wpt lat="22.932453260370632" lon="120.68179545908048"><ele>682</ele><time>2024-01-20T00:23:56Z</time><name>04 上切路徑4</name><cmt>2024-01-20T08:23:56+08:00</cmt><desc>04 上切路徑4</desc><src>Hikingbook</src><link href="https://hikingbook.net/hikes/VRBa91L900Tuyb99290VgjB43Q"><text>Hikingbook</text></link><extensions><gpxhb:weather>Clear</gpxhb:weather><gpxhb:speed>0.181561</gpxhb:speed><gpxhb:course>78.034819</gpxhb:course></extensions></wpt><wpt lat="22.935393525934963" lon="120.6828044126036"><ele>719</ele><time>2024-01-20T01:02:52Z</time><name>05 瀑1-瀑頂-22.5度</name><cmt>2024-01-20T09:02:52+08:00</cmt><desc>05 瀑1-瀑頂-22.5度</desc><src>Hikingbook</src><link href="https://hikingbook.net/hikes/VRBa91L900Tuyb99290VgjB43Q"><text>Hikingbook</text></link><extensions><gpxhb:weather>Clear</gpxhb:weather><gpxhb:speed>0.000000</gpxhb:speed><gpxhb:course>338.133381</gpxhb:course></extensions></wpt><wpt lat="22.935377424604198" lon="120.68301376897905"><ele>721</ele><time>2024-01-20T01:13:24Z</time><name>06 瀑1-8米（bolt ）</name><cmt>2024-01-20T09:13:24+08:00</cmt><desc>06 瀑1-8米（bolt ）</desc><src>Hikingbook</src><link href="https://hikingbook.net/hikes/VRBa91L900Tuyb99290VgjB43Q"><text>Hikingbook</text></link><extensions><gpxhb:weather>Clear</gpxhb:weather><gpxhb:speed>0.000000</gpxhb:speed><gpxhb:course>239.765625</gpxhb:course></extensions></wpt><wpt lat="22.935353661908707" lon="120.68312633793865"><ele>714</ele><time>2024-01-20T01:31:14Z</time><name>07 &#xA;瀑2-5米（架樹枝）</name><cmt>2024-01-20T09:31:14+08:00</cmt><desc>07 &#xA;瀑2-5米（架樹枝）</desc><src>Hikingbook</src><link href="https://hikingbook.net/hikes/VRBa91L900Tuyb99290VgjB43Q"><text>Hikingbook</text></link><extensions><gpxhb:weather>Clear</gpxhb:weather><gpxhb:speed>0.000000</gpxhb:speed><gpxhb:course>208.476562</gpxhb:course></extensions></wpt><wpt lat="22.935014919167703" lon="120.68352099602757"><ele>713</ele><time>2024-01-20T01:44:02Z</time><name>08 瀑3-21米（hand line到bolt)</name><cmt>2024-01-20T09:44:02+08:00</cmt><desc>08 瀑3-21米（hand line到bolt)</desc><src>Hikingbook</src><link href="https://hikingbook.net/hikes/VRBa91L900Tuyb99290VgjB43Q"><text>Hikingbook</text></link><extensions><gpxhb:weather>Clear</gpxhb:weather><gpxhb:speed>0.000000</gpxhb:speed><gpxhb:course>210.587950</gpxhb:course></extensions></wpt><wpt lat="22.934919646962484" lon="120.68367258656833"><ele>705</ele><time>2024-01-20T02:34:15Z</time><name>09 瀑4-11米</name><cmt>2024-01-20T10:34:15+08:00</cmt><desc>09 瀑4-11米</desc><src>Hikingbook</src><link href="https://hikingbook.net/hikes/VRBa91L900Tuyb99290VgjB43Q"><text>Hikingbook</text></link><extensions><gpxhb:weather>Clear</gpxhb:weather><gpxhb:speed>0.230000</gpxhb:speed><gpxhb:course>45.351562</gpxhb:course></extensions></wpt><wpt lat="22.934708604321" lon="120.683863579618"><ele>700</ele><time>2024-01-20T02:37:57Z</time><name>10 5瀑-3米</name><cmt>2024-01-20T10:37:57+08:00</cmt><desc>10 5瀑-3米</desc><src>Hikingbook</src><link href="https://hikingbook.net/hikes/VRBa91L900Tuyb99290VgjB43Q"><text>Hikingbook</text></link><extensions><gpxhb:weather>Clear</gpxhb:weather><gpxhb:speed>0.000000</gpxhb:speed><gpxhb:course>36.704161</gpxhb:course></extensions></wpt><wpt lat="22.934497929927936" lon="120.6840423584766"><ele>686</ele><time>2024-01-20T02:44:15Z</time><name>11 瀑6-10米（滑瀑）</name><cmt>2024-01-20T10:44:15+08:00</cmt><desc>11 瀑6-10米（滑瀑）</desc><src>Hikingbook</src><link href="https://hikingbook.net/hikes/VRBa91L900Tuyb99290VgjB43Q"><text>Hikingbook</text></link><extensions><gpxhb:weather>Clear</gpxhb:weather><gpxhb:speed>0.000000</gpxhb:speed><gpxhb:course>99.127110</gpxhb:course></extensions></wpt><wpt lat="22.934383786004354" lon="120.68407030422155"><ele>681</ele><time>2024-01-20T02:49:08Z</time><name>12 瀑7-17米</name><cmt>2024-01-20T10:49:08+08:00</cmt><desc>12 瀑7-17米</desc><src>Hikingbook</src><link href="https://hikingbook.net/hikes/VRBa91L900Tuyb99290VgjB43Q"><text>Hikingbook</text></link><extensions><gpxhb:weather>Clear</gpxhb:weather><gpxhb:speed>0.109604</gpxhb:speed><gpxhb:course>189.215411</gpxhb:course></extensions></wpt><wpt lat="22.934088656823384" lon="120.6843279047109"><ele>689</ele><time>2024-01-20T02:56:47Z</time><name>13 不能滑瀑，下面有木頭🪵煞不住會撞樹</name><cmt>2024-01-20T10:56:47+08:00</cmt><desc>13 不能滑瀑，下面有木頭🪵煞不住會撞樹</desc><src>Hikingbook</src><link href="https://hikingbook.net/hikes/VRBa91L900Tuyb99290VgjB43Q"><text>Hikingbook</text></link><extensions><gpxhb:weather>Clear</gpxhb:weather><gpxhb:speed>0.000000</gpxhb:speed><gpxhb:course>208.318818</gpxhb:course></extensions></wpt><wpt lat="22.933941688409945" lon="120.68465343687747"><ele>768</ele><time>2024-01-20T03:05:01Z</time><name>14 小滑瀑/水小可滑，可高繞到</name><cmt>2024-01-20T11:05:01+08:00</cmt><desc>14 小滑瀑/水小可滑，可高繞到</desc><src>Hikingbook</src><link href="https://hikingbook.net/hikes/VRBa91L900Tuyb99290VgjB43Q"><text>Hikingbook</text></link><extensions><gpxhb:weather>Clear</gpxhb:weather><gpxhb:speed>0.000000</gpxhb:speed><gpxhb:course>18.632812</gpxhb:course></extensions></wpt><wpt lat="22.932941423020758" lon="120.68644032170658"><ele>594</ele><time>2024-01-20T03:28:13Z</time><name>15 拍攝-開始（長鬃山羊，遭遇點）</name><cmt>2024-01-20T11:28:13+08:00</cmt><desc>15 拍攝-開始（長鬃山羊，遭遇點）</desc><src>Hikingbook</src><link href="https://hikingbook.net/hikes/VRBa91L900Tuyb99290VgjB43Q"><text>Hikingbook</text></link><extensions><gpxhb:weather>Clear</gpxhb:weather><gpxhb:speed>0.000000</gpxhb:speed><gpxhb:course>46.969938</gpxhb:course></extensions></wpt><wpt lat="22.93293053227472" lon="120.6864018714133"><ele>597</ele><time>2024-01-20T03:36:52Z</time><name>16 拍攝-離開</name><cmt>2024-01-20T11:36:52+08:00</cmt><desc>16 拍攝-離開</desc><src>Hikingbook</src><link href="https://hikingbook.net/hikes/VRBa91L900Tuyb99290VgjB43Q"><text>Hikingbook</text></link><extensions><gpxhb:weather>Clear</gpxhb:weather><gpxhb:speed>0.049535</gpxhb:speed><gpxhb:course>-1.000000</gpxhb:course></extensions></wpt><wpt lat="22.93238313375116" lon="120.68670246713862"><ele>588</ele><time>2024-01-20T03:41:46Z</time><name>17 右切</name><cmt>2024-01-20T11:41:46+08:00</cmt><desc>17 右切</desc><src>Hikingbook</src><link href="https://hikingbook.net/hikes/VRBa91L900Tuyb99290VgjB43Q"><text>Hikingbook</text></link><extensions><gpxhb:weather>Clear</gpxhb:weather><gpxhb:speed>0.000000</gpxhb:speed><gpxhb:course>208.273550</gpxhb:course></extensions></wpt><wpt lat="22.932176309329684" lon="120.68663705071546"><ele>586</ele><time>2024-01-20T03:44:47Z</time><name>18 瀑8-20米</name><cmt>2024-01-20T11:44:47+08:00</cmt><desc>18 瀑8-20米</desc><src>Hikingbook</src><link href="https://hikingbook.net/hikes/VRBa91L900Tuyb99290VgjB43Q"><text>Hikingbook</text></link><extensions><gpxhb:weather>Clear</gpxhb:weather><gpxhb:speed>0.140674</gpxhb:speed><gpxhb:course>-1.000000</gpxhb:course></extensions></wpt><wpt lat="22.932001471051905" lon="120.6867052998427"><ele>581</ele><time>2024-01-20T04:08:21Z</time><name>19 8瀑-瀑布底</name><cmt>2024-01-20T12:08:21+08:00</cmt><desc>19 8瀑-瀑布底</desc><src>Hikingbook</src><link href="https://hikingbook.net/hikes/VRBa91L900Tuyb99290VgjB43Q"><text>Hikingbook</text></link><extensions><gpxhb:weather>Clear</gpxhb:weather><gpxhb:speed>0.000000</gpxhb:speed><gpxhb:course>98.322370</gpxhb:course></extensions></wpt><wpt lat="22.931493250674503" lon="120.68643006507371"><ele>578</ele><time>2024-01-20T04:15:51Z</time><name>20 落石區</name><cmt>2024-01-20T12:15:51+08:00</cmt><desc>20 落石區</desc><src>Hikingbook</src><link href="https://hikingbook.net/hikes/VRBa91L900Tuyb99290VgjB43Q"><text>Hikingbook</text></link><extensions><gpxhb:weather>Clear</gpxhb:weather><gpxhb:speed>0.000000</gpxhb:speed><gpxhb:course>-1.000000</gpxhb:course></extensions></wpt><wpt lat="22.931181305427096" lon="120.68674922322812"><ele>541</ele><time>2024-01-20T04:19:38Z</time><name>21 瀑9-7米（水小可滑瀑/可垂）</name><cmt>2024-01-20T12:19:38+08:00</cmt><desc>21 瀑9-7米（水小可滑瀑/可垂）</desc><src>Hikingbook</src><link href="https://hikingbook.net/hikes/VRBa91L900Tuyb99290VgjB43Q"><text>Hikingbook</text></link><extensions><gpxhb:weather>Clear</gpxhb:weather><gpxhb:speed>0.131287</gpxhb:speed><gpxhb:course>124.743468</gpxhb:course></extensions></wpt><wpt lat="22.930318824713474" lon="120.68671158526816"><ele>509</ele><time>2024-01-20T04:31:58Z</time><name>22 瀑10-6米</name><cmt>2024-01-20T12:31:58+08:00</cmt><desc>22 瀑10-6米</desc><src>Hikingbook</src><link href="https://hikingbook.net/hikes/VRBa91L900Tuyb99290VgjB43Q"><text>Hikingbook</text></link><extensions><gpxhb:weather>Clear</gpxhb:weather><gpxhb:speed>0.318732</gpxhb:speed><gpxhb:course>155.105520</gpxhb:course></extensions></wpt><wpt lat="22.930018941554568" lon="120.686578222679"><ele>504</ele><time>2024-01-20T04:39:56Z</time><name>23 瀑11-6米（水小可滑/可垂）</name><cmt>2024-01-20T12:39:56+08:00</cmt><desc>23 瀑11-6米（水小可滑/可垂）</desc><src>Hikingbook</src><link href="https://hikingbook.net/hikes/VRBa91L900Tuyb99290VgjB43Q"><text>Hikingbook</text></link><extensions><gpxhb:weather>Clear</gpxhb:weather><gpxhb:speed>0.504040</gpxhb:speed><gpxhb:course>329.928618</gpxhb:course></extensions></wpt><wpt lat="22.929649981530446" lon="120.68673608559908"><ele>524</ele><time>2024-01-20T04:44:34Z</time><name>24 瀑12-3米</name><cmt>2024-01-20T12:44:34+08:00</cmt><desc>24 瀑12-3米</desc><src>Hikingbook</src><link href="https://hikingbook.net/hikes/VRBa91L900Tuyb99290VgjB43Q"><text>Hikingbook</text></link><extensions><gpxhb:weather>Clear</gpxhb:weather><gpxhb:speed>0.000000</gpxhb:speed><gpxhb:course>-1.000000</gpxhb:course></extensions></wpt><wpt lat="22.929579317529218" lon="120.68691701457361"><ele>518</ele><time>2024-01-20T04:52:21Z</time><name>25 右切</name><cmt>2024-01-20T12:52:21+08:00</cmt><desc>25 右切</desc><src>Hikingbook</src><link href="https://hikingbook.net/hikes/VRBa91L900Tuyb99290VgjB43Q"><text>Hikingbook</text></link><extensions><gpxhb:weather>Clear</gpxhb:weather><gpxhb:speed>0.000000</gpxhb:speed><gpxhb:course>81.736476</gpxhb:course></extensions></wpt><wpt lat="22.929511042783577" lon="120.68700466635342"><ele>543</ele><time>2024-01-20T04:58:49Z</time><name>26 瀑13-8米（瀑頂）</name><cmt>2024-01-20T12:58:49+08:00</cmt><desc>26 瀑13-8米（瀑頂）</desc><src>Hikingbook</src><link href="https://hikingbook.net/hikes/VRBa91L900Tuyb99290VgjB43Q"><text>Hikingbook</text></link><extensions><gpxhb:weather>Clear</gpxhb:weather><gpxhb:speed>0.000000</gpxhb:speed><gpxhb:course>-1.000000</gpxhb:course></extensions></wpt><wpt lat="22.929532342011722" lon="120.68709842865435"><ele>526</ele><time>2024-01-20T05:03:32Z</time><name>27 瀑13-8米（瀑底深潭）</name><cmt>2024-01-20T13:03:32+08:00</cmt><desc>27 瀑13-8米（瀑底深潭）</desc><src>Hikingbook</src><link href="https://hikingbook.net/hikes/VRBa91L900Tuyb99290VgjB43Q"><text>Hikingbook</text></link><extensions><gpxhb:weather>Clear</gpxhb:weather><gpxhb:speed>0.066422</gpxhb:speed><gpxhb:course>59.518469</gpxhb:course></extensions></wpt><wpt lat="22.929523880609214" lon="120.68711184907767"><ele>492</ele><time>2024-01-20T05:32:25Z</time><name>28 瀑14（轉1）-30米（主瀑）</name><cmt>2024-01-20T13:32:25+08:00</cmt><desc>28 瀑14（轉1）-30米（主瀑）</desc><src>Hikingbook</src><link href="https://hikingbook.net/hikes/VRBa91L900Tuyb99290VgjB43Q"><text>Hikingbook</text></link><extensions><gpxhb:weather>Clear</gpxhb:weather><gpxhb:speed>0.000000</gpxhb:speed><gpxhb:course>-1.000000</gpxhb:course></extensions></wpt><wpt lat="22.929319192853534" lon="120.68714340868667"><ele>475</ele><time>2024-01-20T05:45:31Z</time><name>29 瀑14（轉2）-55米（主瀑）</name><cmt>2024-01-20T13:45:31+08:00</cmt><desc>29 瀑14（轉2）-55米（主瀑）</desc><src>Hikingbook</src><link href="https://hikingbook.net/hikes/VRBa91L900Tuyb99290VgjB43Q"><text>Hikingbook</text></link><extensions><gpxhb:weather>Clear</gpxhb:weather><gpxhb:speed>0.000000</gpxhb:speed><gpxhb:course>99.009895</gpxhb:course></extensions></wpt><wpt lat="22.929023661106942" lon="120.6873832991642"><ele>412</ele><time>2024-01-20T07:44:19Z</time><name>30 瀑14（瀑底）-55米（主瀑）</name><cmt>2024-01-20T15:44:19+08:00</cmt><desc>30 瀑14（瀑底）-55米（主瀑）</desc><src>Hikingbook</src><link href="https://hikingbook.net/hikes/VRBa91L900Tuyb99290VgjB43Q"><text>Hikingbook</text></link><extensions><gpxhb:weather>Clear</gpxhb:weather><gpxhb:speed>0.332673</gpxhb:speed><gpxhb:course>-1.000000</gpxhb:course></extensions></wpt><wpt lat="22.928988444640233" lon="120.68730287265096"><ele>435</ele><time>2024-01-20T07:58:52Z</time><name>31 瀑14-拍攝完畢離開</name><cmt>2024-01-20T15:58:52+08:00</cmt><desc>31 瀑14-拍攝完畢離開</desc><src>Hikingbook</src><link href="https://hikingbook.net/hikes/VRBa91L900Tuyb99290VgjB43Q"><text>Hikingbook</text></link><extensions><gpxhb:weather>Clear</gpxhb:weather><gpxhb:speed>0.000000</gpxhb:speed><gpxhb:course>348.750000</gpxhb:course></extensions></wpt><wpt lat="22.925435792877614" lon="120.68549141036765"><ele>381</ele><time>2024-01-20T08:12:23Z</time><name>32 步道</name><cmt>2024-01-20T16:12:23+08:00</cmt><desc>32 步道</desc><src>Hikingbook</src><link href="https://hikingbook.net/hikes/VRBa91L900Tuyb99290VgjB43Q"><text>Hikingbook</text></link><extensions><gpxhb:weather>Clear</gpxhb:weather><gpxhb:speed>1.050417</gpxhb:speed><gpxhb:course>262.588355</gpxhb:course></extensions></wpt><wpt lat="22.924137099299983" lon="120.68349871198413"><ele>394</ele><time>2024-01-20T08:17:55Z</time><name>33 拉繩</name><cmt>2024-01-20T16:17:55+08:00</cmt><desc>33 拉繩</desc><src>Hikingbook</src><link href="https://hikingbook.net/hikes/VRBa91L900Tuyb99290VgjB43Q"><text>Hikingbook</text></link><extensions><gpxhb:weather>Clear</gpxhb:weather><gpxhb:speed>0.000000</gpxhb:speed><gpxhb:course>-1.000000</gpxhb:course></extensions></wpt><wpt lat="22.92346810091267" lon="120.6823698649665"><ele>390</ele><time>2024-01-20T08:21:18Z</time><name>34 B點-結束</name><cmt>2024-01-20T16:21:18+08:00</cmt><desc>34 B點-結束</desc><src>Hikingbook</src><link href="https://hikingbook.net/hikes/VRBa91L900Tuyb99290VgjB43Q"><text>Hikingbook</text></link><extensions><gpxhb:weather>Clear</gpxhb:weather><gpxhb:speed>0.000000</gpxhb:speed><gpxhb:course>201.895344</gpxhb:course></extensions></wpt><trk><name>💦🪢美雅谷(2024-01-20）-「溪降」［🇹🇼高雄-茂林］</name><cmt>IG: https://www.instagram.com/p/C2ZrZepPctg/?igsh=MWVvZ2ZzemFwcGZnaA==</cmt><desc>IG: https://www.instagram.com/p/C2ZrZepPctg/?igsh=MWVvZ2ZzemFwcGZnaA==</desc><src>Hikingbook</src><link href="https://hikingbook.net/hikes/%E7%BE%8E%E9%9B%85%E8%B0%B7-2024-01-20-6fbc9866"><text>Hikingbook</text></link><trkseg><trkpt lat="22.931267662677772" lon="120.68062954389724"><ele>605.1682619927451</ele><time>2024-01-20T00:05:39Z</time><src>Hikingbook</src><extensions><gpxhb:speed>0.520000</gpxhb:speed><gpxhb:course>217.617186</gpxhb:course></extensions></trkpt><trkpt lat="22.931376280869202" lon="120.68057361967354"><ele>606.8389951276805</ele><time>2024-01-20T00:06:43Z</time><src>Hikingbook</src><extensions><gpxhb:speed>0.334058</gpxhb:speed><gpxhb:course>-1.000000</gpxhb:course></extensions></trkpt><trkpt lat="22.932119890010604" lon="120.68066327991423"><ele>643.0274130731361</ele><time>2024-01-20T00:09:41Z</time><src>Hikingbook</src><extensions><gpxhb:speed>1.274543</gpxhb:speed><gpxhb:course>5.749485</gpxhb:course></extensions></trkpt><trkpt lat="22.93227363719195" lon="120.68080075168328"><ele>642.4657033579153</ele><time>2024-01-20T00:10:46Z</time><src>Hikingbook</src><extensions><gpxhb:speed>0.519696</gpxhb:speed><gpxhb:course>86.471871</gpxhb:course></extensions></trkpt><trkpt lat="22.93227667435383" lon="120.68079713203751"><ele>642.764588845623</ele><time>2024-01-20T00:10:47Z</time><src>Hikingbook</src><extensions><gpxhb:speed>0.070186</gpxhb:speed><gpxhb:course>85.351969</gpxhb:course></extensions></trkpt><trkpt lat="22.932385094521706" lon="120.68088670728167"><ele>648.7845209764442</ele><time>2024-01-20T00:14:10Z</time><src>Hikingbook</src><extensions><gpxhb:speed>0.000000</gpxhb:speed><gpxhb:course>-1.000000</gpxhb:course></extensions></trkpt><trkpt lat="22.93226058118589" lon="120.68083182080623"><ele>642.9918634359573</ele><time>2024-01-20T00:15:39Z</time><src>Hikingbook</src><extensions><gpxhb:speed>0.109098</gpxhb:speed><gpxhb:course>206.928663</gpxhb:course></extensions></trkpt><trkpt lat="22.93220897143275" lon="120.68106089827073"><ele>653.2937896304471</ele><time>2024-01-20T00:18:54Z</time><src>Hikingbook</src><extensions><gpxhb:speed>0.121598</gpxhb:speed><gpxhb:course>50.925747</gpxhb:course></extensions></trkpt><trkpt lat="22.932487333449554" lon="120.68156394270615"><ele>674.5066103226502</ele><time>2024-01-20T00:22:52Z</time><src>Hikingbook</src><extensions><gpxhb:speed>0.298524</gpxhb:speed><gpxhb:course>350.321364</gpxhb:course></extensions></trkpt><trkpt lat="22.93245168784049" lon="120.68179543904402"><ele>682.3533370753177</ele><time>2024-01-20T00:23:57Z</time><src>Hikingbook</src><extensions><gpxhb:speed>0.181561</gpxhb:speed><gpxhb:course>78.034819</gpxhb:course></extensions></trkpt><trkpt lat="22.932451860553556" lon="120.68179577556707"><ele>682.2327076829849</ele><time>2024-01-20T00:23:58Z</time><src>Hikingbook</src><extensions><gpxhb:speed>0.037653</gpxhb:speed><gpxhb:course>78.034816</gpxhb:course></extensions></trkpt><trkpt lat="22.93218202896458" lon="120.68216446035527"><ele>691.6630184151935</ele><time>2024-01-20T00:27:05Z</time><src>Hikingbook</src><extensions><gpxhb:speed>0.267006</gpxhb:speed><gpxhb:course>-1.000000</gpxhb:course></extensions></trkpt><trkpt lat="22.932300682804282" lon="120.68222816904529"><ele>696.6691234566448</ele><time>2024-01-20T00:29:25Z</time><src>Hikingbook</src><extensions><gpxhb:speed>0.115420</gpxhb:speed><gpxhb:course>25.618131</gpxhb:course></extensions></trkpt><trkpt lat="22.932363545324822" lon="120.6824984993529"><ele>703.8452381580049</ele><time>2024-01-20T00:30:45Z</time><src>Hikingbook</src><extensions><gpxhb:speed>0.161191</gpxhb:speed><gpxhb:course>188.735577</gpxhb:course></extensions></trkpt><trkpt lat="22.932488944279775" lon="120.68258858709312"><ele>710.9543110621715</ele><time>2024-01-20T00:32:14Z</time><src>Hikingbook</src><extensions><gpxhb:speed>0.069253</gpxhb:speed><gpxhb:course>134.392051</gpxhb:course></extensions></trkpt><trkpt lat="22.932848968598446" lon="120.68261861859905"><ele>725.7759954708547</ele><time>2024-01-20T00:37:15Z</time><src>Hikingbook</src><extensions><gpxhb:speed>0.000000</gpxhb:speed><gpxhb:course>98.176230</gpxhb:course></extensions></trkpt></trkseg><trkseg><trkpt lat="22.932893573327856" lon="120.68266944039677"><ele>726.500171661377</ele><time>2024-01-20T00:41:01Z</time><src>Hikingbook</src><extensions><gpxhb:speed>0.000000</gpxhb:speed><gpxhb:course>166.640625</gpxhb:course></extensions></trkpt><trkpt lat="22.93329220308188" lon="120.68285369296842"><ele>738.3246730638708</ele><time>2024-01-20T00:42:33Z</time><src>Hikingbook</src><extensions><gpxhb:speed>0.481845</gpxhb:speed><gpxhb:course>2.420648</gpxhb:course></extensions></trkpt><trkpt lat="22.93360785098099" lon="120.68332140147477"><ele>759.4768539402683</ele><time>2024-01-20T00:45:13Z</time><src>Hikingbook</src><extensions><gpxhb:speed>0.833674</gpxhb:speed><gpxhb:course>87.733593</gpxhb:course></extensions></trkpt></trkseg><trkseg></trkseg><trkseg><trkpt lat="22.934412274400625" lon="120.6826530855349"><ele>765.1969749107957</ele><time>2024-01-20T00:51:32Z</time><src>Hikingbook</src><extensions><gpxhb:speed>0.172905</gpxhb:speed><gpxhb:course>-1.000000</gpxhb:course></extensions></trkpt><trkpt lat="22.93454002571232" lon="120.68258243382705"><ele>759.1109774225281</ele><time>2024-01-20T00:51:57Z</time><src>Hikingbook</src><extensions><gpxhb:speed>0.265510</gpxhb:speed><gpxhb:course>340.981158</gpxhb:course></extensions></trkpt><trkpt lat="22.93460571228822" lon="120.68278970193536"><ele>754.6023972027862</ele><time>2024-01-20T00:52:52Z</time><src>Hikingbook</src><extensions><gpxhb:speed>0.242664</gpxhb:speed><gpxhb:course>-1.000000</gpxhb:course></extensions></trkpt><trkpt lat="22.93504805993883" lon="120.68299038824968"><ele>733.8156969494422</ele><time>2024-01-20T00:56:33Z</time><src>Hikingbook</src><extensions><gpxhb:speed>0.057021</gpxhb:speed><gpxhb:course>300.084141</gpxhb:course></extensions></trkpt><trkpt lat="22.93528625878645" lon="120.68294188153256"><ele>727.8949334136018</ele><time>2024-01-20T00:57:33Z</time><src>Hikingbook</src><extensions><gpxhb:speed>0.425384</gpxhb:speed><gpxhb:course>273.241108</gpxhb:course></extensions></trkpt></trkseg><trkseg><trkpt lat="22.935383752941092" lon="120.68301779229257"><ele>721.275562286377</ele><time>2024-01-20T01:13:24Z</time><src>Hikingbook</src><extensions><gpxhb:speed>0.000000</gpxhb:speed><gpxhb:course>239.765625</gpxhb:course></extensions></trkpt><trkpt lat="22.935297308050433" lon="120.68293785984429"><ele>724.8494496603031</ele><time>2024-01-20T01:15:24Z</time><src>Hikingbook</src><extensions><gpxhb:speed>0.054218</gpxhb:speed><gpxhb:course>-1.000000</gpxhb:course></extensions></trkpt></trkseg><trkseg><trkpt lat="22.93534959668567" lon="120.68312164407287"><ele>714.462818145752</ele><time>2024-01-20T01:31:14Z</time><src>Hikingbook</src><extensions><gpxhb:speed>0.000000</gpxhb:speed><gpxhb:course>208.476562</gpxhb:course></extensions></trkpt><trkpt lat="22.935175875991607" lon="120.6830951574927"><ele>732.1322466386268</ele><time>2024-01-20T01:34:46Z</time><src>Hikingbook</src><extensions><gpxhb:speed>0.000000</gpxhb:speed><gpxhb:course>234.346982</gpxhb:course></extensions></trkpt><trkpt lat="22.93507967212398" lon="120.68327665695776"><ele>729.0853220369198</ele><time>2024-01-20T01:37:39Z</time><src>Hikingbook</src><extensions><gpxhb:speed>0.041412</gpxhb:speed><gpxhb:course>37.832851</gpxhb:course></extensions></trkpt><trkpt lat="22.93522487439834" lon="120.683383595467"><ele>723.8206045847768</ele><time>2024-01-20T01:38:19Z</time><src>Hikingbook</src><extensions><gpxhb:speed>0.000000</gpxhb:speed><gpxhb:course>35.576364</gpxhb:course></extensions></trkpt><trkpt lat="22.935044178289374" lon="120.68336488666178"><ele>714.8939422217165</ele><time>2024-01-20T01:39:29Z</time><src>Hikingbook</src><extensions><gpxhb:speed>0.000000</gpxhb:speed><gpxhb:course>340.641614</gpxhb:course></extensions></trkpt><trkpt lat="22.935024292940504" lon="120.68351681443028"><ele>724.6557253182596</ele><time>2024-01-20T01:40:39Z</time><src>Hikingbook</src><extensions><gpxhb:speed>0.059720</gpxhb:speed><gpxhb:course>96.986016</gpxhb:course></extensions></trkpt><trkpt lat="22.93511033478981" lon="120.68354757478845"><ele>721.1230480549817</ele><time>2024-01-20T01:40:59Z</time><src>Hikingbook</src><extensions><gpxhb:speed>0.099066</gpxhb:speed><gpxhb:course>96.986020</gpxhb:course></extensions></trkpt><trkpt lat="22.935039272171604" lon="120.68359358478538"><ele>716.9761347604683</ele><time>2024-01-20T01:41:29Z</time><src>Hikingbook</src><extensions><gpxhb:speed>0.701292</gpxhb:speed><gpxhb:course>138.333069</gpxhb:course></extensions></trkpt><trkpt lat="22.934936883368938" lon="120.68350431412789"><ele>713.4375441347777</ele><time>2024-01-20T01:43:49Z</time><src>Hikingbook</src><extensions><gpxhb:speed>1.371125</gpxhb:speed><gpxhb:course>214.780055</gpxhb:course></extensions></trkpt><trkpt lat="22.935017487474" lon="120.6835214340906"><ele>712.5223827949523</ele><time>2024-01-20T01:45:00Z</time><src>Hikingbook</src><extensions><gpxhb:speed>0.000000</gpxhb:speed><gpxhb:course>338.367498</gpxhb:course></extensions></trkpt></trkseg><trkseg><trkpt lat="22.93492513710906" lon="120.68367040727351"><ele>704.725269317627</ele><time>2024-01-20T02:34:15Z</time><src>Hikingbook</src><extensions><gpxhb:speed>0.000000</gpxhb:speed><gpxhb:course>-1.000000</gpxhb:course></extensions></trkpt><trkpt lat="22.93476491439832" lon="120.68368710072757"><ele>702.5351310157685</ele><time>2024-01-20T02:36:07Z</time><src>Hikingbook</src><extensions><gpxhb:speed>0.345685</gpxhb:speed><gpxhb:course>-1.000000</gpxhb:course></extensions></trkpt><trkpt lat="22.934946202883832" lon="120.68401983979071"><ele>706.3509319380711</ele><time>2024-01-20T02:36:28Z</time><src>Hikingbook</src><extensions><gpxhb:speed>1.623973</gpxhb:speed><gpxhb:course>-1.000000</gpxhb:course></extensions></trkpt><trkpt lat="22.934647206027726" lon="120.68375869364125"><ele>702.7086535501718</ele><time>2024-01-20T02:36:48Z</time><src>Hikingbook</src><extensions><gpxhb:speed>0.267043</gpxhb:speed><gpxhb:course>193.590155</gpxhb:course></extensions></trkpt><trkpt lat="22.934707496623524" lon="120.68372660859514"><ele>693.5718597848636</ele><time>2024-01-20T02:36:58Z</time><src>Hikingbook</src><extensions><gpxhb:speed>0.233312</gpxhb:speed><gpxhb:course>252.234738</gpxhb:course></extensions></trkpt><trkpt lat="22.93458693419228" lon="120.68408316781598"><ele>684.8152451611204</ele><time>2024-01-20T02:43:11Z</time><src>Hikingbook</src><extensions><gpxhb:speed>0.116831</gpxhb:speed><gpxhb:course>75.587168</gpxhb:course></extensions></trkpt><trkpt lat="22.934471927798054" lon="120.68398584567709"><ele>695.4886979617614</ele><time>2024-01-20T02:46:34Z</time><src>Hikingbook</src><extensions><gpxhb:speed>0.000000</gpxhb:speed><gpxhb:course>252.037540</gpxhb:course></extensions></trkpt><trkpt lat="22.93451661337009" lon="120.68407115830261"><ele>687.3915159771526</ele><time>2024-01-20T02:48:05Z</time><src>Hikingbook</src><extensions><gpxhb:speed>0.091017</gpxhb:speed><gpxhb:course>139.774289</gpxhb:course></extensions></trkpt><trkpt lat="22.93435451318128" lon="120.68411999625292"><ele>692.631983829122</ele><time>2024-01-20T02:48:35Z</time><src>Hikingbook</src><extensions><gpxhb:speed>0.906010</gpxhb:speed><gpxhb:course>210.626492</gpxhb:course></extensions></trkpt><trkpt lat="22.93436890038169" lon="120.68397376400823"><ele>662.1178886411745</ele><time>2024-01-20T02:50:20Z</time><src>Hikingbook</src><extensions><gpxhb:speed>0.498577</gpxhb:speed><gpxhb:course>109.873971</gpxhb:course></extensions></trkpt><trkpt lat="22.93431605803395" lon="120.68401235984055"><ele>664.8545505215151</ele><time>2024-01-20T02:50:50Z</time><src>Hikingbook</src><extensions><gpxhb:speed>0.661459</gpxhb:speed><gpxhb:course>74.683143</gpxhb:course></extensions></trkpt><trkpt lat="22.934438241699972" lon="120.68417149645701"><ele>667.950278055535</ele><time>2024-01-20T02:51:47Z</time><src>Hikingbook</src><extensions><gpxhb:speed>0.168078</gpxhb:speed><gpxhb:course>90.465059</gpxhb:course></extensions></trkpt><trkpt lat="22.934307710125807" lon="120.68414103476442"><ele>658.0113610402593</ele><time>2024-01-20T02:54:17Z</time><src>Hikingbook</src><extensions><gpxhb:speed>0.315922</gpxhb:speed><gpxhb:course>170.334156</gpxhb:course></extensions></trkpt><trkpt lat="22.934269910656006" lon="120.68440999801359"><ele>662.535695000101</ele><time>2024-01-20T02:55:57Z</time><src>Hikingbook</src><extensions><gpxhb:speed>0.473875</gpxhb:speed><gpxhb:course>80.757158</gpxhb:course></extensions></trkpt></trkseg><trkseg></trkseg><trkseg><trkpt lat="22.933941729084054" lon="120.68465335572996"><ele>643.1098199770739</ele><time>2024-01-20T03:05:03Z</time><src>Hikingbook</src><extensions><gpxhb:speed>0.000000</gpxhb:speed><gpxhb:course>18.632812</gpxhb:course></extensions></trkpt><trkpt lat="22.93381398748702" lon="120.68451065965131"><ele>633.2537994787043</ele><time>2024-01-20T03:05:46Z</time><src>Hikingbook</src><extensions><gpxhb:speed>0.093889</gpxhb:speed><gpxhb:course>-1.000000</gpxhb:course></extensions></trkpt><trkpt lat="22.93390844385206" lon="120.68463674475154"><ele>635.0582955287091</ele><time>2024-01-20T03:06:59Z</time><src>Hikingbook</src><extensions><gpxhb:speed>0.200974</gpxhb:speed><gpxhb:course>-1.000000</gpxhb:course></extensions></trkpt><trkpt lat="22.93388562862071" lon="120.68522591880198"><ele>638.7664651665609</ele><time>2024-01-20T03:10:23Z</time><src>Hikingbook</src><extensions><gpxhb:speed>1.017883</gpxhb:speed><gpxhb:course>126.388260</gpxhb:course></extensions></trkpt><trkpt lat="22.93369717824594" lon="120.68551811184915"><ele>620.7796192047055</ele><time>2024-01-20T03:14:13Z</time><src>Hikingbook</src><extensions><gpxhb:speed>0.216799</gpxhb:speed><gpxhb:course>117.902890</gpxhb:course></extensions></trkpt><trkpt lat="22.93351187467279" lon="120.6855416186846"><ele>623.4397724188643</ele><time>2024-01-20T03:15:12Z</time><src>Hikingbook</src><extensions><gpxhb:speed>0.744104</gpxhb:speed><gpxhb:course>166.238856</gpxhb:course></extensions></trkpt></trkseg><trkseg><trkpt lat="22.933325862976655" lon="120.68614844039966"><ele>606.1448959354311</ele><time>2024-01-20T03:20:45Z</time><src>Hikingbook</src><extensions><gpxhb:speed>0.000000</gpxhb:speed><gpxhb:course>330.928432</gpxhb:course></extensions></trkpt><trkpt lat="22.93294984175951" lon="120.68641659647797"><ele>597.5350889709445</ele><time>2024-01-20T03:23:48Z</time><src>Hikingbook</src><extensions><gpxhb:speed>0.000000</gpxhb:speed><gpxhb:course>119.635028</gpxhb:course></extensions></trkpt></trkseg><trkseg></trkseg><trkseg><trkpt lat="22.932889484801112" lon="120.68639062708613"><ele>594.0211589950449</ele><time>2024-01-20T03:36:30Z</time><src>Hikingbook</src><extensions><gpxhb:speed>0.120581</gpxhb:speed><gpxhb:course>-1.000000</gpxhb:course></extensions></trkpt><trkpt lat="22.932942949718832" lon="120.68643044875289"><ele>594.3766801861694</ele><time>2024-01-20T03:37:05Z</time><src>Hikingbook</src><extensions><gpxhb:speed>0.050435</gpxhb:speed><gpxhb:course>-1.000000</gpxhb:course></extensions></trkpt><trkpt lat="22.932815308259155" lon="120.68646448082428"><ele>592.3656184078765</ele><time>2024-01-20T03:38:24Z</time><src>Hikingbook</src><extensions><gpxhb:speed>0.677312</gpxhb:speed><gpxhb:course>140.053074</gpxhb:course></extensions></trkpt><trkpt lat="22.932707164631026" lon="120.6867664036189"><ele>587.9879870451988</ele><time>2024-01-20T03:39:24Z</time><src>Hikingbook</src><extensions><gpxhb:speed>0.944046</gpxhb:speed><gpxhb:course>136.177958</gpxhb:course></extensions></trkpt><trkpt lat="22.932569206345097" lon="120.68682133631161"><ele>585.7081989045626</ele><time>2024-01-20T03:39:54Z</time><src>Hikingbook</src><extensions><gpxhb:speed>0.151567</gpxhb:speed><gpxhb:course>142.173365</gpxhb:course></extensions></trkpt><trkpt lat="22.932184966615363" lon="120.68665043747399"><ele>584.1022836814128</ele><time>2024-01-20T03:45:25Z</time><src>Hikingbook</src><extensions><gpxhb:speed>0.000000</gpxhb:speed><gpxhb:course>-1.000000</gpxhb:course></extensions></trkpt></trkseg><trkseg></trkseg><trkseg></trkseg><trkseg><trkpt lat="22.9315046863278" lon="120.68637835253547"><ele>576.3943591691212</ele><time>2024-01-20T04:15:51Z</time><src>Hikingbook</src><extensions><gpxhb:speed>0.000000</gpxhb:speed><gpxhb:course>194.765625</gpxhb:course></extensions></trkpt><trkpt lat="22.93147656926501" lon="120.686566492365"><ele>555.075242655468</ele><time>2024-01-20T04:16:02Z</time><src>Hikingbook</src><extensions><gpxhb:speed>0.000000</gpxhb:speed><gpxhb:course>224.648438</gpxhb:course></extensions></trkpt><trkpt lat="22.931481466108245" lon="120.68650755224114"><ele>538.1436698502592</ele><time>2024-01-20T04:16:29Z</time><src>Hikingbook</src><extensions><gpxhb:speed>0.429411</gpxhb:speed><gpxhb:course>-1.000000</gpxhb:course></extensions></trkpt><trkpt lat="22.931142762597695" lon="120.68680941655286"><ele>531.0946782546458</ele><time>2024-01-20T04:21:56Z</time><src>Hikingbook</src><extensions><gpxhb:speed>0.273783</gpxhb:speed><gpxhb:course>-1.000000</gpxhb:course></extensions></trkpt><trkpt lat="22.930971498759583" lon="120.68674550166122"><ele>519.7041047249535</ele><time>2024-01-20T04:25:25Z</time><src>Hikingbook</src><extensions><gpxhb:speed>0.045649</gpxhb:speed><gpxhb:course>184.436770</gpxhb:course></extensions></trkpt><trkpt lat="22.93078257880802" lon="120.68682299196695"><ele>521.9476184867591</ele><time>2024-01-20T04:26:45Z</time><src>Hikingbook</src><extensions><gpxhb:speed>0.485382</gpxhb:speed><gpxhb:course>144.055535</gpxhb:course></extensions></trkpt><trkpt lat="22.930594306985338" lon="120.68668639720987"><ele>536.8889087669224</ele><time>2024-01-20T04:27:45Z</time><src>Hikingbook</src><extensions><gpxhb:speed>0.053645</gpxhb:speed><gpxhb:course>206.496189</gpxhb:course></extensions></trkpt><trkpt lat="22.9305906146937" lon="120.68668604942461"><ele>536.501092704301</ele><time>2024-01-20T04:27:46Z</time><src>Hikingbook</src><extensions><gpxhb:speed>0.093332</gpxhb:speed><gpxhb:course>206.496188</gpxhb:course></extensions></trkpt><trkpt lat="22.93059291792678" lon="120.68662321823332"><ele>512.5296850627379</ele><time>2024-01-20T04:30:16Z</time><src>Hikingbook</src><extensions><gpxhb:speed>0.000000</gpxhb:speed><gpxhb:course>-1.000000</gpxhb:course></extensions></trkpt><trkpt lat="22.93051128545283" lon="120.68671872265168"><ele>512.2040212182076</ele><time>2024-01-20T04:31:17Z</time><src>Hikingbook</src><extensions><gpxhb:speed>0.605429</gpxhb:speed><gpxhb:course>161.173342</gpxhb:course></extensions></trkpt><trkpt lat="22.930370759153078" lon="120.68667315398022"><ele>507.82646857737166</ele><time>2024-01-20T04:31:47Z</time><src>Hikingbook</src><extensions><gpxhb:speed>0.611491</gpxhb:speed><gpxhb:course>177.105957</gpxhb:course></extensions></trkpt><trkpt lat="22.930313688416927" lon="120.68677871093216"><ele>511.88613336632335</ele><time>2024-01-20T04:33:47Z</time><src>Hikingbook</src><extensions><gpxhb:speed>0.231231</gpxhb:speed><gpxhb:course>59.884477</gpxhb:course></extensions></trkpt><trkpt lat="22.930004798749778" lon="120.68657808299693"><ele>504.46646872870696</ele><time>2024-01-20T04:39:42Z</time><src>Hikingbook</src><extensions><gpxhb:speed>0.170797</gpxhb:speed><gpxhb:course>145.998886</gpxhb:course></extensions></trkpt><trkpt lat="22.929569087984262" lon="120.68702790098534"><ele>586.4755387494479</ele><time>2024-01-20T04:41:20Z</time><src>Hikingbook</src><extensions><gpxhb:speed>2.354859</gpxhb:speed><gpxhb:course>137.817999</gpxhb:course></extensions></trkpt><trkpt lat="22.92990484780098" lon="120.68676061329903"><ele>555.6641788694614</ele><time>2024-01-20T04:41:37Z</time><src>Hikingbook</src><extensions><gpxhb:speed>0.000000</gpxhb:speed><gpxhb:course>52.110096</gpxhb:course></extensions></trkpt><trkpt lat="22.929896916996995" lon="120.68664651092737"><ele>537.138736889909</ele><time>2024-01-20T04:41:52Z</time><src>Hikingbook</src><extensions><gpxhb:speed>0.126886</gpxhb:speed><gpxhb:course>34.036516</gpxhb:course></extensions></trkpt><trkpt lat="22.92977664395889" lon="120.68675807261735"><ele>516.8942822596341</ele><time>2024-01-20T04:42:52Z</time><src>Hikingbook</src><extensions><gpxhb:speed>0.391034</gpxhb:speed><gpxhb:course>155.758855</gpxhb:course></extensions></trkpt><trkpt lat="22.929682975819798" lon="120.68671546159153"><ele>517.7205393196955</ele><time>2024-01-20T04:44:02Z</time><src>Hikingbook</src><extensions><gpxhb:speed>0.696299</gpxhb:speed><gpxhb:course>212.704913</gpxhb:course></extensions></trkpt></trkseg><trkseg><trkpt lat="22.929596551709707" lon="120.68692996177886"><ele>513.3422121712938</ele><time>2024-01-20T04:54:43Z</time><src>Hikingbook</src><extensions><gpxhb:speed>0.000000</gpxhb:speed><gpxhb:course>-1.000000</gpxhb:course></extensions></trkpt><trkpt lat="22.92951241023722" lon="120.68706931343753"><ele>532.5347529096618</ele><time>2024-01-20T05:03:07Z</time><src>Hikingbook</src><extensions><gpxhb:speed>0.764343</gpxhb:speed><gpxhb:course>190.347582</gpxhb:course></extensions></trkpt><trkpt lat="22.929571621036526" lon="120.68709583003734"><ele>525.8534599806106</ele><time>2024-01-20T05:04:22Z</time><src>Hikingbook</src><extensions><gpxhb:speed>0.000000</gpxhb:speed><gpxhb:course>176.107179</gpxhb:course></extensions></trkpt><trkpt lat="22.929499456072197" lon="120.68709816399203"><ele>515.0067415713215</ele><time>2024-01-20T05:07:46Z</time><src>Hikingbook</src><extensions><gpxhb:speed>0.157607</gpxhb:speed><gpxhb:course>209.297235</gpxhb:course></extensions></trkpt></trkseg><trkseg></trkseg><trkseg></trkseg><trkseg><trkpt lat="22.929590516745048" lon="120.68689408723328"><ele>509.68718338012695</ele><time>2024-01-20T05:39:55Z</time><src>Hikingbook</src><extensions><gpxhb:speed>0.150000</gpxhb:speed><gpxhb:course>137.109375</gpxhb:course></extensions></trkpt><trkpt lat="22.929508104067185" lon="120.68711408972806"><ele>489.7662695503751</ele><time>2024-01-20T05:40:10Z</time><src>Hikingbook</src><extensions><gpxhb:speed>0.000000</gpxhb:speed><gpxhb:course>-1.000000</gpxhb:course></extensions></trkpt><trkpt lat="22.929522446080636" lon="120.68705052484233"><ele>488.1308592025603</ele><time>2024-01-20T05:40:54Z</time><src>Hikingbook</src><extensions><gpxhb:speed>0.211371</gpxhb:speed><gpxhb:course>-1.000000</gpxhb:course></extensions></trkpt><trkpt lat="22.929328234828752" lon="120.68713880257137"><ele>475.7680166377354</ele><time>2024-01-20T05:46:11Z</time><src>Hikingbook</src><extensions><gpxhb:speed>0.000000</gpxhb:speed><gpxhb:course>144.091891</gpxhb:course></extensions></trkpt></trkseg><trkseg><trkpt lat="22.929359759479492" lon="120.68715871130146"><ele>465.323055784218</ele><time>2024-01-20T06:21:55Z</time><src>Hikingbook</src><extensions><gpxhb:speed>0.220370</gpxhb:speed><gpxhb:course>168.011636</gpxhb:course></extensions></trkpt><trkpt lat="22.92898518157129" lon="120.68743111134411"><ele>407.97340435741194</ele><time>2024-01-20T06:33:03Z</time><src>Hikingbook</src><extensions><gpxhb:speed>0.000000</gpxhb:speed><gpxhb:course>140.843804</gpxhb:course></extensions></trkpt></trkseg><trkseg><trkpt lat="22.92898764835943" lon="120.68729893315647"><ele>434.7007942199707</ele><time>2024-01-20T07:58:52Z</time><src>Hikingbook</src><extensions><gpxhb:speed>0.000000</gpxhb:speed><gpxhb:course>348.750000</gpxhb:course></extensions></trkpt><trkpt lat="22.92805615700168" lon="120.68745948180795"><ele>398.3542858172422</ele><time>2024-01-20T08:01:56Z</time><src>Hikingbook</src><extensions><gpxhb:speed>0.540197</gpxhb:speed><gpxhb:course>64.526791</gpxhb:course></extensions></trkpt><trkpt lat="22.928053402633562" lon="120.68746223821363"><ele>398.8762101985274</ele><time>2024-01-20T08:01:57Z</time><src>Hikingbook</src><extensions><gpxhb:speed>0.487985</gpxhb:speed><gpxhb:course>73.066354</gpxhb:course></extensions></trkpt><trkpt lat="22.927520997071962" lon="120.68748835182329"><ele>401.06450872227373</ele><time>2024-01-20T08:04:07Z</time><src>Hikingbook</src><extensions><gpxhb:speed>0.603910</gpxhb:speed><gpxhb:course>157.018330</gpxhb:course></extensions></trkpt><trkpt lat="22.927070955660472" lon="120.68738758764138"><ele>398.06362110655465</ele><time>2024-01-20T08:05:27Z</time><src>Hikingbook</src><extensions><gpxhb:speed>0.882508</gpxhb:speed><gpxhb:course>178.520349</gpxhb:course></extensions></trkpt><trkpt lat="22.927060908027087" lon="120.68738492955659"><ele>397.73856809223554</ele><time>2024-01-20T08:05:28Z</time><src>Hikingbook</src><extensions><gpxhb:speed>0.881394</gpxhb:speed><gpxhb:course>176.399998</gpxhb:course></extensions></trkpt><trkpt lat="22.926910792178457" lon="120.6873688558428"><ele>394.5129878137272</ele><time>2024-01-20T08:05:48Z</time><src>Hikingbook</src><extensions><gpxhb:speed>0.444670</gpxhb:speed><gpxhb:course>168.351919</gpxhb:course></extensions></trkpt><trkpt lat="22.9267914253159" lon="120.6872190209622"><ele>390.74123462583634</ele><time>2024-01-20T08:06:28Z</time><src>Hikingbook</src><extensions><gpxhb:speed>0.660559</gpxhb:speed><gpxhb:course>178.531028</gpxhb:course></extensions></trkpt><trkpt lat="22.926632294625154" lon="120.68722328822103"><ele>388.7576614051437</ele><time>2024-01-20T08:07:07Z</time><src>Hikingbook</src><extensions><gpxhb:speed>0.592791</gpxhb:speed><gpxhb:course>156.241603</gpxhb:course></extensions></trkpt><trkpt lat="22.926392588541916" lon="120.6866719991299"><ele>380.99693451595675</ele><time>2024-01-20T08:08:28Z</time><src>Hikingbook</src><extensions><gpxhb:speed>0.190367</gpxhb:speed><gpxhb:course>236.124855</gpxhb:course></extensions></trkpt><trkpt lat="22.92639160075399" lon="120.68666293349825"><ele>380.946524107083</ele><time>2024-01-20T08:08:29Z</time><src>Hikingbook</src><extensions><gpxhb:speed>0.372829</gpxhb:speed><gpxhb:course>236.124849</gpxhb:course></extensions></trkpt><trkpt lat="22.926056480859348" lon="120.68631256762895"><ele>377.64598686218216</ele><time>2024-01-20T08:09:29Z</time><src>Hikingbook</src><extensions><gpxhb:speed>0.648164</gpxhb:speed><gpxhb:course>208.248406</gpxhb:course></extensions></trkpt><trkpt lat="22.92604404408796" lon="120.68605260286441"><ele>378.667608938931</ele><time>2024-01-20T08:10:29Z</time><src>Hikingbook</src><extensions><gpxhb:speed>0.484178</gpxhb:speed><gpxhb:course>274.801193</gpxhb:course></extensions></trkpt><trkpt lat="22.92582863396764" lon="120.68583179279189"><ele>365.43471294034174</ele><time>2024-01-20T08:11:08Z</time><src>Hikingbook</src><extensions><gpxhb:speed>0.683962</gpxhb:speed><gpxhb:course>211.839619</gpxhb:course></extensions></trkpt><trkpt lat="22.925818962823154" lon="120.68582987987288"><ele>365.23533875786524</ele><time>2024-01-20T08:11:09Z</time><src>Hikingbook</src><extensions><gpxhb:speed>1.027066</gpxhb:speed><gpxhb:course>191.440781</gpxhb:course></extensions></trkpt><trkpt lat="22.925433255330333" lon="120.68561665187657"><ele>377.07584157217826</ele><time>2024-01-20T08:12:10Z</time><src>Hikingbook</src><extensions><gpxhb:speed>0.687844</gpxhb:speed><gpxhb:course>248.300735</gpxhb:course></extensions></trkpt><trkpt lat="22.925516405835808" lon="120.68508357543477"><ele>396.9291789983322</ele><time>2024-01-20T08:13:17Z</time><src>Hikingbook</src><extensions><gpxhb:speed>0.919778</gpxhb:speed><gpxhb:course>273.382447</gpxhb:course></extensions></trkpt><trkpt lat="22.925429001596655" lon="120.68494628724319"><ele>398.9998213009928</ele><time>2024-01-20T08:13:32Z</time><src>Hikingbook</src><extensions><gpxhb:speed>0.635784</gpxhb:speed><gpxhb:course>217.950181</gpxhb:course></extensions></trkpt><trkpt lat="22.925422778252603" lon="120.6849410704104"><ele>398.8436428708341</ele><time>2024-01-20T08:13:33Z</time><src>Hikingbook</src><extensions><gpxhb:speed>0.792061</gpxhb:speed><gpxhb:course>223.149353</gpxhb:course></extensions></trkpt><trkpt lat="22.92502311541114" lon="120.68484362958664"><ele>390.5171439610947</ele><time>2024-01-20T08:14:23Z</time><src>Hikingbook</src><extensions><gpxhb:speed>0.766014</gpxhb:speed><gpxhb:course>194.949575</gpxhb:course></extensions></trkpt><trkpt lat="22.92456260400345" lon="120.68442375170561"><ele>392.7118635262842</ele><time>2024-01-20T08:15:22Z</time><src>Hikingbook</src><extensions><gpxhb:speed>0.930765</gpxhb:speed><gpxhb:course>193.461550</gpxhb:course></extensions></trkpt><trkpt lat="22.924557249702946" lon="120.68441583344442"><ele>392.992652887995</ele><time>2024-01-20T08:15:23Z</time><src>Hikingbook</src><extensions><gpxhb:speed>0.833914</gpxhb:speed><gpxhb:course>208.105783</gpxhb:course></extensions></trkpt><trkpt lat="22.924138407712245" lon="120.6839762581845"><ele>396.40735913994126</ele><time>2024-01-20T08:16:24Z</time><src>Hikingbook</src><extensions><gpxhb:speed>1.050742</gpxhb:speed><gpxhb:course>223.011070</gpxhb:course></extensions></trkpt><trkpt lat="22.92411834972443" lon="120.68355694748908"><ele>391.4429382220356</ele><time>2024-01-20T08:17:24Z</time><src>Hikingbook</src><extensions><gpxhb:speed>0.731091</gpxhb:speed><gpxhb:course>269.599342</gpxhb:course></extensions></trkpt><trkpt lat="22.92411970002952" lon="120.68354833028792"><ele>391.73221626591777</ele><time>2024-01-20T08:17:25Z</time><src>Hikingbook</src><extensions><gpxhb:speed>0.759872</gpxhb:speed><gpxhb:course>277.821115</gpxhb:course></extensions></trkpt><trkpt lat="22.924068984173804" lon="120.68328485339059"><ele>389.0192628478823</ele><time>2024-01-20T08:19:00Z</time><src>Hikingbook</src><extensions><gpxhb:speed>0.602313</gpxhb:speed><gpxhb:course>267.565642</gpxhb:course></extensions></trkpt><trkpt lat="22.92380140378206" lon="120.68310216533028"><ele>386.86220881269844</ele><time>2024-01-20T08:19:30Z</time><src>Hikingbook</src><extensions><gpxhb:speed>0.849540</gpxhb:speed><gpxhb:course>209.572730</gpxhb:course></extensions></trkpt><trkpt lat="22.923603039729322" lon="120.68273418175959"><ele>382.9221736287273</ele><time>2024-01-20T08:20:11Z</time><src>Hikingbook</src><extensions><gpxhb:speed>1.315788</gpxhb:speed><gpxhb:course>239.018496</gpxhb:course></extensions></trkpt></trkseg></trk></gpx>