<?xml version="1.0" encoding="UTF-8"?>
<gpx version="1.1" creator="Hikingbook" xmlns:xsi="http://www.w3.org/2001/XMLSchema-instance" xmlns="http://www.topografix.com/GPX/1/1" xsi:schemaLocation="http://www.topografix.com/GPX/1/1 https://www.topografix.com/GPX/1/1/gpx.xsd https://hikingbook.net/xmlschemas/1/5 https:/hikingbook.net/xmlschemas/1/5/gpxhb.xsd" xmlns:gpxhb="https://hikingbook.net/xmlschemas/1/5"><metadata><name>💦🪢茄苳四瀑（2023-11-11）-「溪降」［🇹🇼新北-汐止］</name><desc>使用 Hikingbook App 記錄，介面最好用，功能最完整，分享最方便！現已支援 iOS 與 Android 雙平臺。</desc><author><name>Hikingbook</name><link href="https://hikingbook.net"><text>Hikingbook</text></link></author><link href="https://hikingbook.net/hikes/2023-11-11-%E6%99%A8%E9%96%93%E9%87%8D%E8%A3%9D%E7%99%BB%E5%B1%B1-58726966"><text>Hikingbook</text></link><time>2026-07-15T23:00:57.782158215+08:00</time><keywords>Hikingbook,EzLife,Jimce,垂降,Rappeling,茄苳四瀑,溯溪,汐止,Taiwan</keywords><extensions><gpxhb:loadweight>0.0</gpxhb:loadweight><gpxhb:fitnesslevel>1</gpxhb:fitnesslevel><gpxhb:activitytype>others</gpxhb:activitytype><gpxhb:trackimageurl>https://assets.hikingbook.net/users/60w3wu1it91y2jmwdxciziq/xdsxidcotmuszlsctqajrq/8fb147be-337e-4cff-8ce6-62d501490726.jpg</gpxhb:trackimageurl><gpxhb:device>Apple iPhone 13 Pro</gpxhb:device><gpxhb:source>Hikingbook</gpxhb:source></extensions></metadata><wpt lat="25.05352527591437" lon="121.67616759143037"><ele>199</ele><time>2023-11-11T02:28:09Z</time><name>00 停車點-開始</name><cmt>2023-11-11T10:28:09+08:00</cmt><desc>00 停車點-開始</desc><src>Hikingbook</src><link href="https://hikingbook.net/hikes/xDsXIDcOTMuSZlscTQajrQ"><text>Hikingbook</text></link><extensions><gpxhb:weather>Clear</gpxhb:weather><gpxhb:speed>0.262312</gpxhb:speed><gpxhb:course>-1.000000</gpxhb:course></extensions></wpt><wpt lat="25.05316191056916" lon="121.67656040243503"><ele>213</ele><time>2023-11-11T02:31:49Z</time><name>01 第一瀑</name><cmt>2023-11-11T10:31:49+08:00</cmt><desc>01 第一瀑</desc><src>Hikingbook</src><link href="https://hikingbook.net/hikes/xDsXIDcOTMuSZlscTQajrQ"><text>Hikingbook</text></link><extensions><gpxhb:weather>Clear</gpxhb:weather><gpxhb:speed>0.000000</gpxhb:speed><gpxhb:course>140.674705</gpxhb:course></extensions></wpt><wpt lat="25.053006855107686" lon="121.6764243437426"><ele>227</ele><time>2023-11-11T02:39:18Z</time><name>02 第二瀑</name><cmt>2023-11-11T10:39:18+08:00</cmt><desc>02 第二瀑</desc><src>Hikingbook</src><link href="https://hikingbook.net/hikes/xDsXIDcOTMuSZlscTQajrQ"><text>Hikingbook</text></link><extensions><gpxhb:weather>Clear</gpxhb:weather><gpxhb:speed>0.000000</gpxhb:speed><gpxhb:course>238.382788</gpxhb:course></extensions></wpt><wpt lat="25.05285857832705" lon="121.6764300729351"><ele>239</ele><time>2023-11-11T02:41:34Z</time><name>03 等待隊友</name><cmt>2023-11-11T10:41:34+08:00</cmt><desc>03 等待隊友</desc><src>Hikingbook</src><link href="https://hikingbook.net/hikes/xDsXIDcOTMuSZlscTQajrQ"><text>Hikingbook</text></link><extensions><gpxhb:weather>Clear</gpxhb:weather><gpxhb:speed>0.179101</gpxhb:speed><gpxhb:course>154.246415</gpxhb:course></extensions></wpt><wpt lat="25.052896589030745" lon="121.67648271347326"><ele>237</ele><time>2023-11-11T02:58:02Z</time><name>04 繼續前行</name><cmt>2023-11-11T10:58:02+08:00</cmt><desc>04 繼續前行</desc><src>Hikingbook</src><link href="https://hikingbook.net/hikes/xDsXIDcOTMuSZlscTQajrQ"><text>Hikingbook</text></link><extensions><gpxhb:weather>Clear</gpxhb:weather><gpxhb:speed>0.176596</gpxhb:speed><gpxhb:course>-1.000000</gpxhb:course></extensions></wpt><wpt lat="25.052877106887188" lon="121.6763825558733"><ele>237</ele><time>2023-11-11T03:03:07Z</time><name>05 左切路徑</name><cmt>2023-11-11T11:03:07+08:00</cmt><desc>05 左切路徑</desc><src>Hikingbook</src><link href="https://hikingbook.net/hikes/xDsXIDcOTMuSZlscTQajrQ"><text>Hikingbook</text></link><extensions><gpxhb:weather>Clear</gpxhb:weather><gpxhb:speed>0.000000</gpxhb:speed><gpxhb:course>-1.000000</gpxhb:course></extensions></wpt><wpt lat="25.05284785446313" lon="121.6764344009318"><ele>237</ele><time>2023-11-11T03:07:59Z</time><name>06 路跡</name><cmt>2023-11-11T11:07:59+08:00</cmt><desc>06 路跡</desc><src>Hikingbook</src><link href="https://hikingbook.net/hikes/xDsXIDcOTMuSZlscTQajrQ"><text>Hikingbook</text></link><extensions><gpxhb:weather>Clear</gpxhb:weather><gpxhb:speed>0.000000</gpxhb:speed><gpxhb:course>-1.000000</gpxhb:course></extensions></wpt><wpt lat="25.052920498182797" lon="121.67647719879228"><ele>235</ele><time>2023-11-11T03:08:40Z</time><name>07 路跡</name><cmt>2023-11-11T11:08:40+08:00</cmt><desc>07 路跡</desc><src>Hikingbook</src><link href="https://hikingbook.net/hikes/xDsXIDcOTMuSZlscTQajrQ"><text>Hikingbook</text></link><extensions><gpxhb:weather>Clear</gpxhb:weather><gpxhb:speed>0.945956</gpxhb:speed><gpxhb:course>124.167006</gpxhb:course></extensions></wpt><wpt lat="25.052911892911084" lon="121.67625423307798"><ele>242</ele><time>2023-11-11T03:11:51Z</time><name>08 等待隊友</name><cmt>2023-11-11T11:11:51+08:00</cmt><desc>08 等待隊友</desc><src>Hikingbook</src><link href="https://hikingbook.net/hikes/xDsXIDcOTMuSZlscTQajrQ"><text>Hikingbook</text></link><extensions><gpxhb:weather>Clear</gpxhb:weather><gpxhb:speed>0.000000</gpxhb:speed><gpxhb:course>151.154311</gpxhb:course></extensions></wpt><wpt lat="25.052863203499232" lon="121.67635849146541"><ele>251</ele><time>2023-11-11T03:15:23Z</time><name>09 繼續前行</name><cmt>2023-11-11T11:15:23+08:00</cmt><desc>09 繼續前行</desc><src>Hikingbook</src><link href="https://hikingbook.net/hikes/xDsXIDcOTMuSZlscTQajrQ"><text>Hikingbook</text></link><extensions><gpxhb:weather>Clear</gpxhb:weather><gpxhb:speed>0.729990</gpxhb:speed><gpxhb:course>-1.000000</gpxhb:course></extensions></wpt><wpt lat="25.052255976998264" lon="121.6761527071453"><ele>275</ele><time>2023-11-11T03:20:04Z</time><name>10 第三瀑</name><cmt>2023-11-11T11:20:04+08:00</cmt><desc>10 第三瀑</desc><src>Hikingbook</src><link href="https://hikingbook.net/hikes/xDsXIDcOTMuSZlscTQajrQ"><text>Hikingbook</text></link><extensions><gpxhb:weather>Clear</gpxhb:weather><gpxhb:speed>0.000000</gpxhb:speed><gpxhb:course>274.289714</gpxhb:course></extensions></wpt><wpt lat="25.052160386109826" lon="121.67619507427743"><ele>279</ele><time>2023-11-11T03:22:58Z</time><name>11 等待隊友</name><cmt>2023-11-11T11:22:58+08:00</cmt><desc>11 等待隊友</desc><src>Hikingbook</src><link href="https://hikingbook.net/hikes/xDsXIDcOTMuSZlscTQajrQ"><text>Hikingbook</text></link><extensions><gpxhb:weather>Clear</gpxhb:weather><gpxhb:speed>0.000000</gpxhb:speed><gpxhb:course>-1.000000</gpxhb:course></extensions></wpt><wpt lat="25.05216152408758" lon="121.6761681252361"><ele>283</ele><time>2023-11-11T03:29:30Z</time><name>12 繼續前行</name><cmt>2023-11-11T11:29:30+08:00</cmt><desc>12 繼續前行</desc><src>Hikingbook</src><link href="https://hikingbook.net/hikes/xDsXIDcOTMuSZlscTQajrQ"><text>Hikingbook</text></link><extensions><gpxhb:weather>Clear</gpxhb:weather><gpxhb:speed>0.000000</gpxhb:speed><gpxhb:course>-1.000000</gpxhb:course></extensions></wpt><wpt lat="25.05171281119325" lon="121.67644861939405"><ele>293</ele><time>2023-11-11T03:33:39Z</time><name>13 第四瀑</name><cmt>2023-11-11T11:33:39+08:00</cmt><desc>13 第四瀑</desc><src>Hikingbook</src><link href="https://hikingbook.net/hikes/xDsXIDcOTMuSZlscTQajrQ"><text>Hikingbook</text></link><extensions><gpxhb:weather>Clear</gpxhb:weather><gpxhb:speed>0.000000</gpxhb:speed><gpxhb:course>140.420798</gpxhb:course></extensions></wpt><wpt lat="25.051472372885335" lon="121.67635936002779"><ele>298</ele><time>2023-11-11T03:36:31Z</time><name>14 等待隊友</name><cmt>2023-11-11T11:36:31+08:00</cmt><desc>14 等待隊友</desc><src>Hikingbook</src><link href="https://hikingbook.net/hikes/xDsXIDcOTMuSZlscTQajrQ"><text>Hikingbook</text></link><extensions><gpxhb:weather>Clear</gpxhb:weather><gpxhb:speed>0.000000</gpxhb:speed><gpxhb:course>-1.000000</gpxhb:course></extensions></wpt><wpt lat="25.05173153246292" lon="121.67636174719937"><ele>273</ele><time>2023-11-11T04:42:51Z</time><name>15 繼續前行</name><cmt>2023-11-11T12:42:51+08:00</cmt><desc>15 繼續前行</desc><src>Hikingbook</src><link href="https://hikingbook.net/hikes/xDsXIDcOTMuSZlscTQajrQ"><text>Hikingbook</text></link><extensions><gpxhb:weather>Clear</gpxhb:weather><gpxhb:speed>0.000000</gpxhb:speed><gpxhb:course>65.390625</gpxhb:course></extensions></wpt><wpt lat="25.052218426606984" lon="121.6760900878708"><ele>279</ele><time>2023-11-11T04:47:48Z</time><name>16 等待隊友</name><cmt>2023-11-11T12:47:48+08:00</cmt><desc>16 等待隊友</desc><src>Hikingbook</src><link href="https://hikingbook.net/hikes/xDsXIDcOTMuSZlscTQajrQ"><text>Hikingbook</text></link><extensions><gpxhb:weather>Clear</gpxhb:weather><gpxhb:speed>0.000000</gpxhb:speed><gpxhb:course>56.498834</gpxhb:course></extensions></wpt><wpt lat="25.052238805234836" lon="121.67614339862175"><ele>241</ele><time>2023-11-11T04:58:43Z</time><name>17 繼續前行</name><cmt>2023-11-11T12:58:43+08:00</cmt><desc>17 繼續前行</desc><src>Hikingbook</src><link href="https://hikingbook.net/hikes/xDsXIDcOTMuSZlscTQajrQ"><text>Hikingbook</text></link><extensions><gpxhb:weather>Clear</gpxhb:weather><gpxhb:speed>0.210000</gpxhb:speed><gpxhb:course>-1.000000</gpxhb:course></extensions></wpt><wpt lat="25.05289741359534" lon="121.67637533835504"><ele>235</ele><time>2023-11-11T05:04:20Z</time><name>18 景色</name><cmt>2023-11-11T13:04:20+08:00</cmt><desc>18 景色</desc><src>Hikingbook</src><link href="https://hikingbook.net/hikes/xDsXIDcOTMuSZlscTQajrQ"><text>Hikingbook</text></link><extensions><gpxhb:weather>Clear</gpxhb:weather><gpxhb:speed>0.000000</gpxhb:speed><gpxhb:course>336.571215</gpxhb:course></extensions></wpt><wpt lat="25.052871303656186" lon="121.67628454987116"><ele>223</ele><time>2023-11-11T05:26:50Z</time><name>19 等待隊友</name><cmt>2023-11-11T13:26:50+08:00</cmt><desc>19 等待隊友</desc><src>Hikingbook</src><link href="https://hikingbook.net/hikes/xDsXIDcOTMuSZlscTQajrQ"><text>Hikingbook</text></link><extensions><gpxhb:weather>Clear</gpxhb:weather><gpxhb:speed>0.000000</gpxhb:speed><gpxhb:course>-1.000000</gpxhb:course></extensions></wpt><wpt lat="25.053205196769024" lon="121.67655285459168"><ele>217</ele><time>2023-11-11T05:42:53Z</time><name>20 繼續記錄</name><cmt>2023-11-11T13:42:53+08:00</cmt><desc>20 繼續記錄</desc><src>Hikingbook</src><link href="https://hikingbook.net/hikes/xDsXIDcOTMuSZlscTQajrQ"><text>Hikingbook</text></link><extensions><gpxhb:weather>Clear</gpxhb:weather><gpxhb:speed>0.000000</gpxhb:speed><gpxhb:course>330.820312</gpxhb:course></extensions></wpt><wpt lat="25.053537162036125" lon="121.67623224679537"><ele>188</ele><time>2023-11-11T05:49:24Z</time><name>21 停車點-結束</name><cmt>2023-11-11T13:49:24+08:00</cmt><desc>21 停車點-結束</desc><src>Hikingbook</src><link href="https://hikingbook.net/hikes/xDsXIDcOTMuSZlscTQajrQ"><text>Hikingbook</text></link><extensions><gpxhb:weather>Clear</gpxhb:weather><gpxhb:speed>0.000000</gpxhb:speed><gpxhb:course>-1.000000</gpxhb:course></extensions></wpt><trk><name>💦🪢茄苳四瀑（2023-11-11）-「溪降」［🇹🇼新北-汐止］</name><cmt>使用 Hikingbook App 記錄，介面最好用，功能最完整，分享最方便！現已支援 iOS 與 Android 雙平臺。</cmt><desc>使用 Hikingbook App 記錄，介面最好用，功能最完整，分享最方便！現已支援 iOS 與 Android 雙平臺。</desc><src>Hikingbook</src><link href="https://hikingbook.net/hikes/2023-11-11-%E6%99%A8%E9%96%93%E9%87%8D%E8%A3%9D%E7%99%BB%E5%B1%B1-58726966"><text>Hikingbook</text></link><trkseg><trkpt lat="25.05352966840416" lon="121.67616490035579"><ele>198.8981880992651</ele><time>2023-11-11T02:28:09Z</time><src>Hikingbook</src><extensions><gpxhb:speed>0.429567</gpxhb:speed><gpxhb:course>58.864968</gpxhb:course></extensions></trkpt><trkpt lat="25.05360447210371" lon="121.6761739597291"><ele>198.83360394380293</ele><time>2023-11-11T02:28:50Z</time><src>Hikingbook</src><extensions><gpxhb:speed>0.624524</gpxhb:speed><gpxhb:course>-1.000000</gpxhb:course></extensions></trkpt><trkpt lat="25.05342846916214" lon="121.67644836367786"><ele>206.75680215991335</ele><time>2023-11-11T02:30:14Z</time><src>Hikingbook</src><extensions><gpxhb:speed>0.597563</gpxhb:speed><gpxhb:course>117.772587</gpxhb:course></extensions></trkpt><trkpt lat="25.053158762878322" lon="121.67657624656847"><ele>210.99566604677713</ele><time>2023-11-11T02:31:44Z</time><src>Hikingbook</src><extensions><gpxhb:speed>0.185847</gpxhb:speed><gpxhb:course>140.674716</gpxhb:course></extensions></trkpt><trkpt lat="25.05317542877935" lon="121.67649193128189"><ele>214.0038197333154</ele><time>2023-11-11T02:31:56Z</time><src>Hikingbook</src><extensions><gpxhb:speed>0.129265</gpxhb:speed><gpxhb:course>140.674664</gpxhb:course></extensions></trkpt><trkpt lat="25.05317870637846" lon="121.67648221886041"><ele>228.33799271007592</ele><time>2023-11-11T02:36:12Z</time><src>Hikingbook</src><extensions><gpxhb:speed>0.313573</gpxhb:speed><gpxhb:course>122.471224</gpxhb:course></extensions></trkpt><trkpt lat="25.05292892515291" lon="121.67648162555992"><ele>240.6627647934329</ele><time>2023-11-11T02:40:55Z</time><src>Hikingbook</src><extensions><gpxhb:speed>0.228531</gpxhb:speed><gpxhb:course>61.769415</gpxhb:course></extensions></trkpt><trkpt lat="25.0528722799477" lon="121.67641515688062"><ele>235.45669092940244</ele><time>2023-11-11T02:43:15Z</time><src>Hikingbook</src><extensions><gpxhb:speed>0.000000</gpxhb:speed><gpxhb:course>333.208382</gpxhb:course></extensions></trkpt></trkseg><trkseg><trkpt lat="25.052896589030745" lon="121.67648271347326"><ele>237.26643118448555</ele><time>2023-11-11T02:52:16Z</time><src>Hikingbook</src><extensions><gpxhb:speed>0.176596</gpxhb:speed><gpxhb:course>-1.000000</gpxhb:course></extensions></trkpt><trkpt lat="25.05284112930197" lon="121.67643393931318"><ele>235.87457139690426</ele><time>2023-11-11T03:00:18Z</time><src>Hikingbook</src><extensions><gpxhb:speed>0.000000</gpxhb:speed><gpxhb:course>-1.000000</gpxhb:course></extensions></trkpt></trkseg><trkseg></trkseg><trkseg><trkpt lat="25.052856518419514" lon="121.67635094494874"><ele>250.9359049871564</ele><time>2023-11-11T03:15:23Z</time><src>Hikingbook</src><extensions><gpxhb:speed>0.518330</gpxhb:speed><gpxhb:course>-1.000000</gpxhb:course></extensions></trkpt><trkpt lat="25.0527875948446" lon="121.6763649965201"><ele>243.5358757086268</ele><time>2023-11-11T03:15:40Z</time><src>Hikingbook</src><extensions><gpxhb:speed>0.521918</gpxhb:speed><gpxhb:course>231.346438</gpxhb:course></extensions></trkpt><trkpt lat="25.052772942213384" lon="121.67624710024256"><ele>240.4484817540761</ele><time>2023-11-11T03:15:52Z</time><src>Hikingbook</src><extensions><gpxhb:speed>0.961463</gpxhb:speed><gpxhb:course>283.314873</gpxhb:course></extensions></trkpt><trkpt lat="25.05271812510869" lon="121.67636855908223"><ele>248.72741467173356</ele><time>2023-11-11T03:16:08Z</time><src>Hikingbook</src><extensions><gpxhb:speed>0.265152</gpxhb:speed><gpxhb:course>-1.000000</gpxhb:course></extensions></trkpt><trkpt lat="25.052672647025197" lon="121.67620096933013"><ele>251.39898450568492</ele><time>2023-11-11T03:16:33Z</time><src>Hikingbook</src><extensions><gpxhb:speed>0.500134</gpxhb:speed><gpxhb:course>-1.000000</gpxhb:course></extensions></trkpt><trkpt lat="25.052625407285106" lon="121.67626892063039"><ele>252.39857657583443</ele><time>2023-11-11T03:16:39Z</time><src>Hikingbook</src><extensions><gpxhb:speed>0.671620</gpxhb:speed><gpxhb:course>-1.000000</gpxhb:course></extensions></trkpt><trkpt lat="25.052485054834598" lon="121.67613445108007"><ele>258.9084777630851</ele><time>2023-11-11T03:17:13Z</time><src>Hikingbook</src><extensions><gpxhb:speed>0.399466</gpxhb:speed><gpxhb:course>271.901645</gpxhb:course></extensions></trkpt><trkpt lat="25.052346555058453" lon="121.67626323161005"><ele>268.30764692113235</ele><time>2023-11-11T03:18:03Z</time><src>Hikingbook</src><extensions><gpxhb:speed>1.121344</gpxhb:speed><gpxhb:course>193.156946</gpxhb:course></extensions></trkpt><trkpt lat="25.05234036713579" lon="121.67614033188325"><ele>266.0761874311243</ele><time>2023-11-11T03:18:46Z</time><src>Hikingbook</src><extensions><gpxhb:speed>1.095114</gpxhb:speed><gpxhb:course>166.771623</gpxhb:course></extensions></trkpt><trkpt lat="25.05213470705919" lon="121.67623423231304"><ele>276.5773983965909</ele><time>2023-11-11T03:21:30Z</time><src>Hikingbook</src><extensions><gpxhb:speed>0.318950</gpxhb:speed><gpxhb:course>70.963494</gpxhb:course></extensions></trkpt><trkpt lat="25.052078678380788" lon="121.67617691926964"><ele>279.536768140733</ele><time>2023-11-11T03:21:34Z</time><src>Hikingbook</src><extensions><gpxhb:speed>0.231379</gpxhb:speed><gpxhb:course>70.963483</gpxhb:course></extensions></trkpt><trkpt lat="25.052227295063332" lon="121.67611489880214"><ele>282.5507707095197</ele><time>2023-11-11T03:22:20Z</time><src>Hikingbook</src><extensions><gpxhb:speed>0.000000</gpxhb:speed><gpxhb:course>-1.000000</gpxhb:course></extensions></trkpt><trkpt lat="25.05215711790432" lon="121.67619138823879"><ele>278.550841338397</ele><time>2023-11-11T03:22:58Z</time><src>Hikingbook</src><extensions><gpxhb:speed>0.000000</gpxhb:speed><gpxhb:course>-1.000000</gpxhb:course></extensions></trkpt></trkseg><trkseg><trkpt lat="25.05216152408758" lon="121.6761681252361"><ele>282.5056774020195</ele><time>2023-11-11T03:29:30Z</time><src>Hikingbook</src><extensions><gpxhb:speed>0.000000</gpxhb:speed><gpxhb:course>-1.000000</gpxhb:course></extensions></trkpt><trkpt lat="25.052062490369906" lon="121.67614938694054"><ele>281.9378716336756</ele><time>2023-11-11T03:30:12Z</time><src>Hikingbook</src><extensions><gpxhb:speed>0.370558</gpxhb:speed><gpxhb:course>-1.000000</gpxhb:course></extensions></trkpt><trkpt lat="25.051734008789442" lon="121.67640457348708"><ele>289.6328666880369</ele><time>2023-11-11T03:33:03Z</time><src>Hikingbook</src><extensions><gpxhb:speed>0.469970</gpxhb:speed><gpxhb:course>115.859138</gpxhb:course></extensions></trkpt><trkpt lat="25.051579091798743" lon="121.67637002477436"><ele>297.07406372638735</ele><time>2023-11-11T03:34:34Z</time><src>Hikingbook</src><extensions><gpxhb:speed>0.104031</gpxhb:speed><gpxhb:course>193.145385</gpxhb:course></extensions></trkpt><trkpt lat="25.05163370396476" lon="121.67639592131039"><ele>298.9457637799317</ele><time>2023-11-11T03:34:59Z</time><src>Hikingbook</src><extensions><gpxhb:speed>1.273678</gpxhb:speed><gpxhb:course>-1.000000</gpxhb:course></extensions></trkpt><trkpt lat="25.051608236676064" lon="121.67626859797893"><ele>287.5540467518906</ele><time>2023-11-11T03:36:19Z</time><src>Hikingbook</src><extensions><gpxhb:speed>0.155758</gpxhb:speed><gpxhb:course>-1.000000</gpxhb:course></extensions></trkpt><trkpt lat="25.051459402728657" lon="121.67635026464423"><ele>298.94947980359353</ele><time>2023-11-11T03:36:28Z</time><src>Hikingbook</src><extensions><gpxhb:speed>0.000000</gpxhb:speed><gpxhb:course>-1.000000</gpxhb:course></extensions></trkpt></trkseg><trkseg><trkpt lat="25.05168591205192" lon="121.67642546236472"><ele>269.78767539439946</ele><time>2023-11-11T04:42:48Z</time><src>Hikingbook</src><extensions><gpxhb:speed>0.000000</gpxhb:speed><gpxhb:course>298.125000</gpxhb:course></extensions></trkpt><trkpt lat="25.05174162456376" lon="121.67629425217419"><ele>277.9635404761763</ele><time>2023-11-11T04:42:59Z</time><src>Hikingbook</src><extensions><gpxhb:speed>0.570000</gpxhb:speed><gpxhb:course>212.695311</gpxhb:course></extensions></trkpt><trkpt lat="25.052048961996324" lon="121.67618732668303"><ele>281.08587473891737</ele><time>2023-11-11T04:45:50Z</time><src>Hikingbook</src><extensions><gpxhb:speed>0.361385</gpxhb:speed><gpxhb:course>17.581702</gpxhb:course></extensions></trkpt><trkpt lat="25.052220426697964" lon="121.67609443259869"><ele>279.39223634510523</ele><time>2023-11-11T04:47:48Z</time><src>Hikingbook</src><extensions><gpxhb:speed>0.000000</gpxhb:speed><gpxhb:course>56.498834</gpxhb:course></extensions></trkpt></trkseg><trkseg></trkseg><trkseg></trkseg><trkseg><trkpt lat="25.053221290023114" lon="121.67656676855094"><ele>216.88940620422363</ele><time>2023-11-11T05:42:53Z</time><src>Hikingbook</src><extensions><gpxhb:speed>0.240000</gpxhb:speed><gpxhb:course>84.375000</gpxhb:course></extensions></trkpt><trkpt lat="25.05317475927815" lon="121.67650464625906"><ele>203.45725623027525</ele><time>2023-11-11T05:43:06Z</time><src>Hikingbook</src><extensions><gpxhb:speed>0.170000</gpxhb:speed><gpxhb:course>-1.000000</gpxhb:course></extensions></trkpt></trkseg><trkseg><trkpt lat="25.053511555329944" lon="121.67620835837133"><ele>187.81823921203613</ele><time>2023-11-11T05:49:10Z</time><src>Hikingbook</src><extensions><gpxhb:speed>0.000000</gpxhb:speed><gpxhb:course>208.125000</gpxhb:course></extensions></trkpt><trkpt lat="25.053536421482143" lon="121.67623127014322"><ele>188.17214713951662</ele><time>2023-11-11T05:49:21Z</time><src>Hikingbook</src><extensions><gpxhb:speed>0.000000</gpxhb:speed><gpxhb:course>-1.000000</gpxhb:course></extensions></trkpt></trkseg></trk></gpx>