<?xml version="1.0" encoding="UTF-8"?>
<gpx version="1.1" creator="Hikingbook" xmlns:xsi="http://www.w3.org/2001/XMLSchema-instance" xmlns="http://www.topografix.com/GPX/1/1" xsi:schemaLocation="http://www.topografix.com/GPX/1/1 https://www.topografix.com/GPX/1/1/gpx.xsd https://hikingbook.net/xmlschemas/1/5 https:/hikingbook.net/xmlschemas/1/5/gpxhb.xsd" xmlns:gpxhb="https://hikingbook.net/xmlschemas/1/5"><metadata><name>🪢蔚藍瀑布群-(2025-05-31）-「溪降」［🇹🇼宜蘭-東澳］</name><desc>W-waterfall (瀑布）&#xA;S-slideway (滑瀑）&#xA;L-left(左岸）&#xA;TL-TopLeft(高左岸）&#xA;BL-BottomLeft(低左岸）&#xA;R-right(右岸）&#xA;TR-TopRight(高右岸）&#xA;BR-BottomRight(低右岸）&#xA;C-center(中岸）&#xA;&#xA;WT-waterfalltop(瀑頂）&#xA;WB-waterfallbottom(瀑底）&#xA;M-middle(中繼點）&#xA;D-deep(深潭）&#xA;G-guide (滑降）&#xA;B-bolt(人工錨點）&#xA;N-nature(天然錨點）&#xA;PB-personal bolt (人力錨點）&#xA;DB-damaged bolt(損壞錨點）&#xA;TR-Traverse(橫移）&#xA;&#xA;Ex: &#xA;W1(M1-L)-B2-18m，D-5m&#xA;「瀑布1（中繼點1-左岸）-bolt有兩顆-使用繩長18米，深潭5公尺長」&#xA;&#xA;成員：&#xA;潾兒、&#xA;Jimce、&#xA;其鑫Charlie 🐝 、&#xA;彭瑞杰、&#xA;孫崇誠 、&#xA;魚魚、&#xA;李斯特*3&#xA;&#xA;裝備：&#xA;繩- &#xA;欣達 8.5-100m&#xA;Kuku 9.0-100m&#xA;&#xA;電鑽組*1&#xA;（M8)Bolt*7set&#xA;&#xA;面鏡*1&#xA;呼吸管*1&#xA;蛙鞋*1&#xA;&#xA;急救包：&#xA;&#xA;無線電-&#xA;頻率：457.51250&#xA;啞音：D023N&#xA;&#xA;接駁（船駁）-&#xA;李進財&#xA;0912 299 395&#xA;$500&#xA;</desc><author><name>Hikingbook</name><link href="https://hikingbook.net"><text>Hikingbook</text></link></author><link href="https://hikingbook.net/hikes/2025-5-31-%E6%99%A8%E9%96%93%E9%87%8D%E8%A3%9D%E7%99%BB%E5%B1%B1-b6a2dab2"><text>Hikingbook</text></link><time>2026-07-03T20:10:56.504461183+08:00</time><keywords>Hikingbook,EzLife,蔚藍瀑布,南澳,宜蘭,Taiwan,Canyoning ,溪降</keywords><extensions><gpxhb:postscript>要跟船家約14:30
粉鳥林漁港離路線終點
船開過來約15分鐘</gpxhb:postscript><gpxhb:loadweight>10.0</gpxhb:loadweight><gpxhb:fitnesslevel>1</gpxhb:fitnesslevel><gpxhb:activitytype>others</gpxhb:activitytype><gpxhb:trackimageurl>https://assets.hikingbook.net/users/60w3wu1it91y2jmwdxciziq/4bwgwu4vspygzowqo56v5w/47b2eb2c-37d1-48a9-9cb3-e5c95a77e634.jpg</gpxhb:trackimageurl><gpxhb:device>Apple iPhone 13 Pro</gpxhb:device><gpxhb:source>Hikingbook</gpxhb:source></extensions></metadata><wpt lat="24.533175788842637" lon="121.86196960520172"><ele>327</ele><time>2025-05-31T01:09:22Z</time><name>00 Start</name><cmt>2025-05-31T09:09:22+08:00</cmt><desc>00 Start</desc><src>Hikingbook</src><link href="https://hikingbook.net/hikes/4BWGwu4vSPyGZOWqo56V5w"><text>Hikingbook</text></link><extensions><gpxhb:weather>Clear</gpxhb:weather><gpxhb:speed>0.000000</gpxhb:speed><gpxhb:course>-1.000000</gpxhb:course></extensions></wpt><wpt lat="24.533177590944426" lon="121.86197077866817"><ele>317</ele><time>2025-05-31T01:09:32Z</time><name>01 W1(WT-M-N-6m)</name><cmt>2025-05-31T09:09:32+08:00</cmt><desc>01 W1(WT-M-N-6m)</desc><src>Hikingbook</src><link href="https://hikingbook.net/hikes/4BWGwu4vSPyGZOWqo56V5w"><text>Hikingbook</text></link><extensions><gpxhb:weather>Clear</gpxhb:weather><gpxhb:speed>0.000000</gpxhb:speed><gpxhb:course>-1.000000</gpxhb:course></extensions></wpt><wpt lat="24.5305873393118" lon="121.86184825778714"><ele>193</ele><time>2025-05-31T01:47:46Z</time><name>02 W2(WT-L-B1-6m)</name><cmt>2025-05-31T09:47:46+08:00</cmt><desc>02 W2(WT-L-B1-6m)</desc><src>Hikingbook</src><link href="https://hikingbook.net/hikes/4BWGwu4vSPyGZOWqo56V5w"><text>Hikingbook</text></link><extensions><gpxhb:weather>Clear</gpxhb:weather><gpxhb:speed>0.000000</gpxhb:speed><gpxhb:course>126.003527</gpxhb:course></extensions></wpt><wpt lat="24.529759747537337" lon="121.86190418500757"><ele>158</ele><time>2025-05-31T02:42:40Z</time><name>03 W3(WT-L-N-10m)</name><cmt>2025-05-31T10:42:40+08:00</cmt><desc>03 W3(WT-L-N-10m)</desc><src>Hikingbook</src><link href="https://hikingbook.net/hikes/4BWGwu4vSPyGZOWqo56V5w"><text>Hikingbook</text></link><extensions><gpxhb:weather>Clear</gpxhb:weather><gpxhb:speed>0.000000</gpxhb:speed><gpxhb:course>27.575310</gpxhb:course></extensions></wpt><wpt lat="24.52960254161109" lon="121.86169090692127"><ele>168</ele><time>2025-05-31T03:20:57Z</time><name>04 W3(M1-R-B2-30m)</name><cmt>2025-05-31T11:20:57+08:00</cmt><desc>04 W3(M1-R-B2-30m)</desc><src>Hikingbook</src><link href="https://hikingbook.net/hikes/4BWGwu4vSPyGZOWqo56V5w"><text>Hikingbook</text></link><extensions><gpxhb:weather>Clear</gpxhb:weather><gpxhb:speed>0.340000</gpxhb:speed><gpxhb:course>36.562500</gpxhb:course></extensions></wpt><wpt lat="24.52951155483844" lon="121.86178435163163"><ele>136</ele><time>2025-05-31T03:49:50Z</time><name>05 W4(WT-R-B1-3m)</name><cmt>2025-05-31T11:49:50+08:00</cmt><desc>05 W4(WT-R-B1-3m)</desc><src>Hikingbook</src><link href="https://hikingbook.net/hikes/4BWGwu4vSPyGZOWqo56V5w"><text>Hikingbook</text></link><extensions><gpxhb:weather>Clear</gpxhb:weather><gpxhb:speed>0.006916</gpxhb:speed><gpxhb:course>-1.000000</gpxhb:course></extensions></wpt><wpt lat="24.529411001787857" lon="121.8617443806979"><ele>126</ele><time>2025-05-31T03:52:53Z</time><name>06 W5(WT-R-B1-3m)</name><cmt>2025-05-31T11:52:53+08:00</cmt><desc>06 W5(WT-R-B1-3m)</desc><src>Hikingbook</src><link href="https://hikingbook.net/hikes/4BWGwu4vSPyGZOWqo56V5w"><text>Hikingbook</text></link><extensions><gpxhb:weather>Clear</gpxhb:weather><gpxhb:speed>0.000000</gpxhb:speed><gpxhb:course>-1.000000</gpxhb:course></extensions></wpt><wpt lat="24.529048749268547" lon="121.86156526219273"><ele>134</ele><time>2025-05-31T04:32:22Z</time><name>07 W6(WT-R-B1-6m)</name><cmt>2025-05-31T12:32:22+08:00</cmt><desc>07 W6(WT-R-B1-6m)</desc><src>Hikingbook</src><link href="https://hikingbook.net/hikes/4BWGwu4vSPyGZOWqo56V5w"><text>Hikingbook</text></link><extensions><gpxhb:weather>Clear</gpxhb:weather><gpxhb:speed>1.880000</gpxhb:speed><gpxhb:course>263.671875</gpxhb:course></extensions></wpt><wpt lat="24.529015515022472" lon="121.86173901904547"><ele>90</ele><time>2025-05-31T04:46:26Z</time><name>08 W6(WT-L-B2-23m)</name><cmt>2025-05-31T12:46:26+08:00</cmt><desc>08 W6(WT-L-B2-23m)</desc><src>Hikingbook</src><link href="https://hikingbook.net/hikes/4BWGwu4vSPyGZOWqo56V5w"><text>Hikingbook</text></link><extensions><gpxhb:weather>Clear</gpxhb:weather><gpxhb:speed>0.000000</gpxhb:speed><gpxhb:course>-1.000000</gpxhb:course></extensions></wpt><wpt lat="24.52853576807443" lon="121.8618615410333"><ele>38</ele><time>2025-05-31T05:50:30Z</time><name>09 崩塌點</name><cmt>2025-05-31T13:50:30+08:00</cmt><desc>09 崩塌點</desc><src>Hikingbook</src><link href="https://hikingbook.net/hikes/4BWGwu4vSPyGZOWqo56V5w"><text>Hikingbook</text></link><extensions><gpxhb:weather>Clear</gpxhb:weather><gpxhb:speed>0.000000</gpxhb:speed><gpxhb:course>169.986785</gpxhb:course></extensions></wpt><wpt lat="24.528377887788597" lon="121.8618900662927"><ele>31</ele><time>2025-05-31T05:53:51Z</time><name>10 W7(WT-M1-B1-9m)</name><cmt>2025-05-31T13:53:51+08:00</cmt><desc>10 W7(WT-M1-B1-9m)</desc><src>Hikingbook</src><link href="https://hikingbook.net/hikes/4BWGwu4vSPyGZOWqo56V5w"><text>Hikingbook</text></link><extensions><gpxhb:weather>Clear</gpxhb:weather><gpxhb:speed>0.000000</gpxhb:speed><gpxhb:course>151.232877</gpxhb:course></extensions></wpt><wpt lat="24.528130677883276" lon="121.86192385407634"><ele>5</ele><time>2025-05-31T06:01:33Z</time><name>11 End</name><cmt>2025-05-31T14:01:33+08:00</cmt><desc>11 End</desc><src>Hikingbook</src><link href="https://hikingbook.net/hikes/4BWGwu4vSPyGZOWqo56V5w"><text>Hikingbook</text></link><extensions><gpxhb:weather>Clear</gpxhb:weather><gpxhb:speed>0.000000</gpxhb:speed><gpxhb:course>-1.000000</gpxhb:course></extensions></wpt><trk><name>🪢蔚藍瀑布群-(2025-05-31）-「溪降」［🇹🇼宜蘭-東澳］</name><cmt>W-waterfall (瀑布）&#xA;S-slideway (滑瀑）&#xA;L-left(左岸）&#xA;TL-TopLeft(高左岸）&#xA;BL-BottomLeft(低左岸）&#xA;R-right(右岸）&#xA;TR-TopRight(高右岸）&#xA;BR-BottomRight(低右岸）&#xA;C-center(中岸）&#xA;&#xA;WT-waterfalltop(瀑頂）&#xA;WB-waterfallbottom(瀑底）&#xA;M-middle(中繼點）&#xA;D-deep(深潭）&#xA;G-guide (滑降）&#xA;B-bolt(人工錨點）&#xA;N-nature(天然錨點）&#xA;PB-personal bolt (人力錨點）&#xA;DB-damaged bolt(損壞錨點）&#xA;TR-Traverse(橫移）&#xA;&#xA;Ex: &#xA;W1(M1-L)-B2-18m，D-5m&#xA;「瀑布1（中繼點1-左岸）-bolt有兩顆-使用繩長18米，深潭5公尺長」&#xA;&#xA;成員：&#xA;潾兒、&#xA;Jimce、&#xA;其鑫Charlie 🐝 、&#xA;彭瑞杰、&#xA;孫崇誠 、&#xA;魚魚、&#xA;李斯特*3&#xA;&#xA;裝備：&#xA;繩- &#xA;欣達 8.5-100m&#xA;Kuku 9.0-100m&#xA;&#xA;電鑽組*1&#xA;（M8)Bolt*7set&#xA;&#xA;面鏡*1&#xA;呼吸管*1&#xA;蛙鞋*1&#xA;&#xA;急救包：&#xA;&#xA;無線電-&#xA;頻率：457.51250&#xA;啞音：D023N&#xA;&#xA;接駁（船駁）-&#xA;李進財&#xA;0912 299 395&#xA;$500&#xA;</cmt><desc>W-waterfall (瀑布）&#xA;S-slideway (滑瀑）&#xA;L-left(左岸）&#xA;TL-TopLeft(高左岸）&#xA;BL-BottomLeft(低左岸）&#xA;R-right(右岸）&#xA;TR-TopRight(高右岸）&#xA;BR-BottomRight(低右岸）&#xA;C-center(中岸）&#xA;&#xA;WT-waterfalltop(瀑頂）&#xA;WB-waterfallbottom(瀑底）&#xA;M-middle(中繼點）&#xA;D-deep(深潭）&#xA;G-guide (滑降）&#xA;B-bolt(人工錨點）&#xA;N-nature(天然錨點）&#xA;PB-personal bolt (人力錨點）&#xA;DB-damaged bolt(損壞錨點）&#xA;TR-Traverse(橫移）&#xA;&#xA;Ex: &#xA;W1(M1-L)-B2-18m，D-5m&#xA;「瀑布1（中繼點1-左岸）-bolt有兩顆-使用繩長18米，深潭5公尺長」&#xA;&#xA;成員：&#xA;潾兒、&#xA;Jimce、&#xA;其鑫Charlie 🐝 、&#xA;彭瑞杰、&#xA;孫崇誠 、&#xA;魚魚、&#xA;李斯特*3&#xA;&#xA;裝備：&#xA;繩- &#xA;欣達 8.5-100m&#xA;Kuku 9.0-100m&#xA;&#xA;電鑽組*1&#xA;（M8)Bolt*7set&#xA;&#xA;面鏡*1&#xA;呼吸管*1&#xA;蛙鞋*1&#xA;&#xA;急救包：&#xA;&#xA;無線電-&#xA;頻率：457.51250&#xA;啞音：D023N&#xA;&#xA;接駁（船駁）-&#xA;李進財&#xA;0912 299 395&#xA;$500&#xA;</desc><src>Hikingbook</src><link href="https://hikingbook.net/hikes/2025-5-31-%E6%99%A8%E9%96%93%E9%87%8D%E8%A3%9D%E7%99%BB%E5%B1%B1-b6a2dab2"><text>Hikingbook</text></link><trkseg><trkpt lat="24.533164846720975" lon="121.8619671730987"><ele>326.95088393379945</ele><time>2025-05-31T01:09:23Z</time><src>Hikingbook</src><extensions><gpxhb:speed>0.000000</gpxhb:speed><gpxhb:course>-1.000000</gpxhb:course></extensions></trkpt><trkpt lat="24.533123657770545" lon="121.86198839600824"><ele>318.90673392236056</ele><time>2025-05-31T01:10:10Z</time><src>Hikingbook</src><extensions><gpxhb:speed>0.010875</gpxhb:speed><gpxhb:course>-1.000000</gpxhb:course></extensions></trkpt></trkseg><trkseg><trkpt lat="24.533123657770545" lon="121.86198839600824"><ele>318.90673392236056</ele><time>2025-05-31T01:19:58Z</time><src>Hikingbook</src><extensions><gpxhb:speed>0.010875</gpxhb:speed><gpxhb:course>-1.000000</gpxhb:course></extensions></trkpt><trkpt lat="24.533014504711055" lon="121.86206883300346"><ele>324.0668716623855</ele><time>2025-05-31T01:20:27Z</time><src>Hikingbook</src><extensions><gpxhb:speed>0.368443</gpxhb:speed><gpxhb:course>-1.000000</gpxhb:course></extensions></trkpt><trkpt lat="24.53283780324443" lon="121.86194840817429"><ele>308.31991694094376</ele><time>2025-05-31T01:22:18Z</time><src>Hikingbook</src><extensions><gpxhb:speed>0.414903</gpxhb:speed><gpxhb:course>245.212640</gpxhb:course></extensions></trkpt><trkpt lat="24.532731853461577" lon="121.86204360670408"><ele>301.57690806231477</ele><time>2025-05-31T01:23:03Z</time><src>Hikingbook</src><extensions><gpxhb:speed>0.000000</gpxhb:speed><gpxhb:course>177.425733</gpxhb:course></extensions></trkpt><trkpt lat="24.53277115084552" lon="121.86203874468892"><ele>296.5754148716884</ele><time>2025-05-31T01:23:19Z</time><src>Hikingbook</src><extensions><gpxhb:speed>0.590410</gpxhb:speed><gpxhb:course>116.762662</gpxhb:course></extensions></trkpt><trkpt lat="24.532677563347097" lon="121.86191403008664"><ele>282.8088735853798</ele><time>2025-05-31T01:24:25Z</time><src>Hikingbook</src><extensions><gpxhb:speed>0.079469</gpxhb:speed><gpxhb:course>341.206907</gpxhb:course></extensions></trkpt><trkpt lat="24.532742295923157" lon="121.8620676449577"><ele>284.12082526324735</ele><time>2025-05-31T01:24:50Z</time><src>Hikingbook</src><extensions><gpxhb:speed>1.538427</gpxhb:speed><gpxhb:course>85.090198</gpxhb:course></extensions></trkpt><trkpt lat="24.532597675977406" lon="121.86192269394704"><ele>289.164368672938</ele><time>2025-05-31T01:26:17Z</time><src>Hikingbook</src><extensions><gpxhb:speed>0.135439</gpxhb:speed><gpxhb:course>77.703217</gpxhb:course></extensions></trkpt><trkpt lat="24.53266964454452" lon="121.86200061809892"><ele>288.45508808390673</ele><time>2025-05-31T01:26:45Z</time><src>Hikingbook</src><extensions><gpxhb:speed>0.052225</gpxhb:speed><gpxhb:course>169.589382</gpxhb:course></extensions></trkpt><trkpt lat="24.53253351772377" lon="121.8619492254844"><ele>293.9547561756828</ele><time>2025-05-31T01:27:16Z</time><src>Hikingbook</src><extensions><gpxhb:speed>0.286624</gpxhb:speed><gpxhb:course>133.252435</gpxhb:course></extensions></trkpt><trkpt lat="24.53254536743216" lon="121.86198880323902"><ele>291.12506624656345</ele><time>2025-05-31T01:27:35Z</time><src>Hikingbook</src><extensions><gpxhb:speed>1.677212</gpxhb:speed><gpxhb:course>68.166592</gpxhb:course></extensions></trkpt><trkpt lat="24.53249931172986" lon="121.86183330606583"><ele>291.38893919189616</ele><time>2025-05-31T01:27:50Z</time><src>Hikingbook</src><extensions><gpxhb:speed>0.373153</gpxhb:speed><gpxhb:course>74.146217</gpxhb:course></extensions></trkpt><trkpt lat="24.532413685313227" lon="121.86187648338597"><ele>289.7270699902346</ele><time>2025-05-31T01:28:22Z</time><src>Hikingbook</src><extensions><gpxhb:speed>1.042584</gpxhb:speed><gpxhb:course>113.095407</gpxhb:course></extensions></trkpt><trkpt lat="24.53242494613331" lon="121.8617544320098"><ele>289.55126183781306</ele><time>2025-05-31T01:28:45Z</time><src>Hikingbook</src><extensions><gpxhb:speed>0.000000</gpxhb:speed><gpxhb:course>94.590577</gpxhb:course></extensions></trkpt><trkpt lat="24.532340677922605" lon="121.86174504442162"><ele>285.3390863015166</ele><time>2025-05-31T01:29:35Z</time><src>Hikingbook</src><extensions><gpxhb:speed>0.293346</gpxhb:speed><gpxhb:course>111.702131</gpxhb:course></extensions></trkpt><trkpt lat="24.532325038561606" lon="121.86189425098526"><ele>284.9350065227064</ele><time>2025-05-31T01:29:52Z</time><src>Hikingbook</src><extensions><gpxhb:speed>1.810259</gpxhb:speed><gpxhb:course>109.990609</gpxhb:course></extensions></trkpt><trkpt lat="24.532179284208418" lon="121.86179365538527"><ele>286.61569675953257</ele><time>2025-05-31T01:30:26Z</time><src>Hikingbook</src><extensions><gpxhb:speed>0.254284</gpxhb:speed><gpxhb:course>183.164007</gpxhb:course></extensions></trkpt><trkpt lat="24.532173709994563" lon="121.86179808267988"><ele>283.6046758118698</ele><time>2025-05-31T01:30:36Z</time><src>Hikingbook</src><extensions><gpxhb:speed>0.190593</gpxhb:speed><gpxhb:course>183.552881</gpxhb:course></extensions></trkpt><trkpt lat="24.53223333377073" lon="121.86181376678341"><ele>282.2696738842644</ele><time>2025-05-31T01:30:54Z</time><src>Hikingbook</src><extensions><gpxhb:speed>0.120463</gpxhb:speed><gpxhb:course>174.509624</gpxhb:course></extensions></trkpt><trkpt lat="24.532119756751687" lon="121.86177072020841"><ele>280.5567131031987</ele><time>2025-05-31T01:31:12Z</time><src>Hikingbook</src><extensions><gpxhb:speed>0.781012</gpxhb:speed><gpxhb:course>173.776699</gpxhb:course></extensions></trkpt><trkpt lat="24.532157301637657" lon="121.86181148454781"><ele>269.78908392705915</ele><time>2025-05-31T01:31:32Z</time><src>Hikingbook</src><extensions><gpxhb:speed>0.519535</gpxhb:speed><gpxhb:course>126.258620</gpxhb:course></extensions></trkpt><trkpt lat="24.53203423181048" lon="121.86182345026783"><ele>269.07544378529997</ele><time>2025-05-31T01:32:22Z</time><src>Hikingbook</src><extensions><gpxhb:speed>1.235378</gpxhb:speed><gpxhb:course>123.595050</gpxhb:course></extensions></trkpt><trkpt lat="24.531979247215205" lon="121.86174516436239"><ele>265.5375523649844</ele><time>2025-05-31T01:33:10Z</time><src>Hikingbook</src><extensions><gpxhb:speed>0.000000</gpxhb:speed><gpxhb:course>178.608939</gpxhb:course></extensions></trkpt><trkpt lat="24.53181592417237" lon="121.86186000122339"><ele>256.94233349370546</ele><time>2025-05-31T01:34:12Z</time><src>Hikingbook</src><extensions><gpxhb:speed>0.298436</gpxhb:speed><gpxhb:course>85.701254</gpxhb:course></extensions></trkpt><trkpt lat="24.531556598029255" lon="121.86183748555992"><ele>253.55809683006248</ele><time>2025-05-31T01:35:59Z</time><src>Hikingbook</src><extensions><gpxhb:speed>0.921983</gpxhb:speed><gpxhb:course>194.040101</gpxhb:course></extensions></trkpt><trkpt lat="24.531248648020064" lon="121.8619241725173"><ele>235.3102064057025</ele><time>2025-05-31T01:39:49Z</time><src>Hikingbook</src><extensions><gpxhb:speed>0.364430</gpxhb:speed><gpxhb:course>80.421719</gpxhb:course></extensions></trkpt><trkpt lat="24.531223540186343" lon="121.86191721654775"><ele>236.44079226698958</ele><time>2025-05-31T01:39:53Z</time><src>Hikingbook</src><extensions><gpxhb:speed>0.836890</gpxhb:speed><gpxhb:course>104.227032</gpxhb:course></extensions></trkpt><trkpt lat="24.530947988306064" lon="121.8619096673226"><ele>226.49544144351873</ele><time>2025-05-31T01:41:29Z</time><src>Hikingbook</src><extensions><gpxhb:speed>0.037263</gpxhb:speed><gpxhb:course>139.008758</gpxhb:course></extensions></trkpt><trkpt lat="24.53096732486995" lon="121.86195191271433"><ele>226.95322709859568</ele><time>2025-05-31T01:41:50Z</time><src>Hikingbook</src><extensions><gpxhb:speed>0.369784</gpxhb:speed><gpxhb:course>130.513194</gpxhb:course></extensions></trkpt><trkpt lat="24.530835396545164" lon="121.86188784640342"><ele>216.03022085668005</ele><time>2025-05-31T01:43:01Z</time><src>Hikingbook</src><extensions><gpxhb:speed>0.170884</gpxhb:speed><gpxhb:course>169.100028</gpxhb:course></extensions></trkpt><trkpt lat="24.53080994259666" lon="121.86194526992672"><ele>210.6611311243727</ele><time>2025-05-31T01:43:19Z</time><src>Hikingbook</src><extensions><gpxhb:speed>0.609798</gpxhb:speed><gpxhb:course>114.775865</gpxhb:course></extensions></trkpt><trkpt lat="24.5306371114049" lon="121.86193953438872"><ele>200.31322348750555</ele><time>2025-05-31T01:45:34Z</time><src>Hikingbook</src><extensions><gpxhb:speed>0.000000</gpxhb:speed><gpxhb:course>-1.000000</gpxhb:course></extensions></trkpt><trkpt lat="24.530698607858223" lon="121.8619174662754"><ele>205.78612176100566</ele><time>2025-05-31T01:45:52Z</time><src>Hikingbook</src><extensions><gpxhb:speed>0.852063</gpxhb:speed><gpxhb:course>260.195447</gpxhb:course></extensions></trkpt><trkpt lat="24.5306239201522" lon="121.86177443548891"><ele>189.2851366503205</ele><time>2025-05-31T01:47:34Z</time><src>Hikingbook</src><extensions><gpxhb:speed>0.071468</gpxhb:speed><gpxhb:course>-1.000000</gpxhb:course></extensions></trkpt></trkseg><trkseg><trkpt lat="24.530549114002035" lon="121.86176992615258"><ele>181.9353892050793</ele><time>2025-05-31T02:34:56Z</time><src>Hikingbook</src><extensions><gpxhb:speed>1.314694</gpxhb:speed><gpxhb:course>289.687098</gpxhb:course></extensions></trkpt><trkpt lat="24.530257307171876" lon="121.86183296454475"><ele>198.97237092430728</ele><time>2025-05-31T02:35:23Z</time><src>Hikingbook</src><extensions><gpxhb:speed>1.965648</gpxhb:speed><gpxhb:course>169.908049</gpxhb:course></extensions></trkpt><trkpt lat="24.530222051128256" lon="121.86160568986247"><ele>194.27896971878795</ele><time>2025-05-31T02:35:54Z</time><src>Hikingbook</src><extensions><gpxhb:speed>2.172931</gpxhb:speed><gpxhb:course>246.750156</gpxhb:course></extensions></trkpt><trkpt lat="24.53027879524148" lon="121.86162253444886"><ele>187.14129802414237</ele><time>2025-05-31T02:36:09Z</time><src>Hikingbook</src><extensions><gpxhb:speed>1.083005</gpxhb:speed><gpxhb:course>258.847151</gpxhb:course></extensions></trkpt><trkpt lat="24.53024285994991" lon="121.86179540639166"><ele>180.98995230017795</ele><time>2025-05-31T02:36:25Z</time><src>Hikingbook</src><extensions><gpxhb:speed>1.300770</gpxhb:speed><gpxhb:course>-1.000000</gpxhb:course></extensions></trkpt><trkpt lat="24.53035380340385" lon="121.86178617559351"><ele>168.1850563279067</ele><time>2025-05-31T02:36:40Z</time><src>Hikingbook</src><extensions><gpxhb:speed>0.800113</gpxhb:speed><gpxhb:course>15.116548</gpxhb:course></extensions></trkpt><trkpt lat="24.53009807211996" lon="121.86176659188774"><ele>173.0278314178968</ele><time>2025-05-31T02:37:45Z</time><src>Hikingbook</src><extensions><gpxhb:speed>0.483290</gpxhb:speed><gpxhb:course>-1.000000</gpxhb:course></extensions></trkpt><trkpt lat="24.530217720638348" lon="121.86188936649985"><ele>156.5490286222087</ele><time>2025-05-31T02:38:53Z</time><src>Hikingbook</src><extensions><gpxhb:speed>1.845722</gpxhb:speed><gpxhb:course>55.081887</gpxhb:course></extensions></trkpt><trkpt lat="24.530075506999925" lon="121.86170944757521"><ele>161.88983095312648</ele><time>2025-05-31T02:39:15Z</time><src>Hikingbook</src><extensions><gpxhb:speed>1.102107</gpxhb:speed><gpxhb:course>253.985448</gpxhb:course></extensions></trkpt><trkpt lat="24.529998172407424" lon="121.8618591110973"><ele>169.05844811452104</ele><time>2025-05-31T02:39:31Z</time><src>Hikingbook</src><extensions><gpxhb:speed>1.517896</gpxhb:speed><gpxhb:course>-1.000000</gpxhb:course></extensions></trkpt><trkpt lat="24.52983576335043" lon="121.86183483305028"><ele>167.63750528123816</ele><time>2025-05-31T02:39:49Z</time><src>Hikingbook</src><extensions><gpxhb:speed>0.124139</gpxhb:speed><gpxhb:course>203.961873</gpxhb:course></extensions></trkpt><trkpt lat="24.529862252863815" lon="121.86193059479396"><ele>165.51198323214905</ele><time>2025-05-31T02:40:08Z</time><src>Hikingbook</src><extensions><gpxhb:speed>1.290412</gpxhb:speed><gpxhb:course>63.954890</gpxhb:course></extensions></trkpt><trkpt lat="24.5298931421283" lon="121.86186758840658"><ele>159.898474646368</ele><time>2025-05-31T02:40:24Z</time><src>Hikingbook</src><extensions><gpxhb:speed>0.135979</gpxhb:speed><gpxhb:course>1.150164</gpxhb:course></extensions></trkpt><trkpt lat="24.529692802879747" lon="121.86194847118395"><ele>160.93842548983153</ele><time>2025-05-31T02:40:48Z</time><src>Hikingbook</src><extensions><gpxhb:speed>1.803004</gpxhb:speed><gpxhb:course>181.412951</gpxhb:course></extensions></trkpt><trkpt lat="24.529707604760105" lon="121.86201603344699"><ele>164.98711199994386</ele><time>2025-05-31T02:41:04Z</time><src>Hikingbook</src><extensions><gpxhb:speed>0.961114</gpxhb:speed><gpxhb:course>82.577346</gpxhb:course></extensions></trkpt><trkpt lat="24.529705724646057" lon="121.86192679884697"><ele>169.55142524698095</ele><time>2025-05-31T02:41:20Z</time><src>Hikingbook</src><extensions><gpxhb:speed>0.047875</gpxhb:speed><gpxhb:course>182.647072</gpxhb:course></extensions></trkpt><trkpt lat="24.529613355711973" lon="121.8619484776898"><ele>167.85193941914773</ele><time>2025-05-31T02:41:36Z</time><src>Hikingbook</src><extensions><gpxhb:speed>0.111335</gpxhb:speed><gpxhb:course>200.152824</gpxhb:course></extensions></trkpt><trkpt lat="24.529761488768937" lon="121.86191693163039"><ele>165.72103873174132</ele><time>2025-05-31T02:41:52Z</time><src>Hikingbook</src><extensions><gpxhb:speed>0.060384</gpxhb:speed><gpxhb:course>53.703523</gpxhb:course></extensions></trkpt><trkpt lat="24.529699733517003" lon="121.86184825110524"><ele>161.21551509089508</ele><time>2025-05-31T02:42:08Z</time><src>Hikingbook</src><extensions><gpxhb:speed>0.057332</gpxhb:speed><gpxhb:course>150.732510</gpxhb:course></extensions></trkpt><trkpt lat="24.529737335414" lon="121.86194440552977"><ele>156.67509536249952</ele><time>2025-05-31T02:42:27Z</time><src>Hikingbook</src><extensions><gpxhb:speed>1.096901</gpxhb:speed><gpxhb:course>64.298352</gpxhb:course></extensions></trkpt></trkseg><trkseg><trkpt lat="24.529737335414" lon="121.86194440552977"><ele>156.67509536249952</ele><time>2025-05-31T03:20:57Z</time><src>Hikingbook</src><extensions><gpxhb:speed>1.096901</gpxhb:speed><gpxhb:course>64.298352</gpxhb:course></extensions></trkpt><trkpt lat="24.529594557484554" lon="121.86168516779765"><ele>168.1872143743646</ele><time>2025-05-31T03:20:59Z</time><src>Hikingbook</src><extensions><gpxhb:speed>0.000000</gpxhb:speed><gpxhb:course>50.976562</gpxhb:course></extensions></trkpt><trkpt lat="24.52965226001789" lon="121.86168578261882"><ele>149.28749765921722</ele><time>2025-05-31T03:21:15Z</time><src>Hikingbook</src><extensions><gpxhb:speed>0.200000</gpxhb:speed><gpxhb:course>-1.000000</gpxhb:course></extensions></trkpt></trkseg><trkseg><trkpt lat="24.529524717644417" lon="121.86178360833819"><ele>139.06581575538672</ele><time>2025-05-31T03:49:01Z</time><src>Hikingbook</src><extensions><gpxhb:speed>0.000000</gpxhb:speed><gpxhb:course>-1.000000</gpxhb:course></extensions></trkpt><trkpt lat="24.529492843648317" lon="121.86177444775105"><ele>137.26500067844168</ele><time>2025-05-31T03:50:27Z</time><src>Hikingbook</src><extensions><gpxhb:speed>0.035267</gpxhb:speed><gpxhb:course>-1.000000</gpxhb:course></extensions></trkpt></trkseg><trkseg><trkpt lat="24.529492843648317" lon="121.86177444775105"><ele>137.26500067844168</ele><time>2025-05-31T03:52:04Z</time><src>Hikingbook</src><extensions><gpxhb:speed>0.035267</gpxhb:speed><gpxhb:course>-1.000000</gpxhb:course></extensions></trkpt><trkpt lat="24.529454962712474" lon="121.86183694933402"><ele>141.5071994770075</ele><time>2025-05-31T03:52:06Z</time><src>Hikingbook</src><extensions><gpxhb:speed>0.000000</gpxhb:speed><gpxhb:course>-1.000000</gpxhb:course></extensions></trkpt><trkpt lat="24.52941210881678" lon="121.8617538619676"><ele>126.20608282847533</ele><time>2025-05-31T03:52:50Z</time><src>Hikingbook</src><extensions><gpxhb:speed>0.337998</gpxhb:speed><gpxhb:course>-1.000000</gpxhb:course></extensions></trkpt></trkseg><trkseg><trkpt lat="24.52941210881678" lon="121.8617538619676"><ele>126.20608282847533</ele><time>2025-05-31T04:19:05Z</time><src>Hikingbook</src><extensions><gpxhb:speed>0.337998</gpxhb:speed><gpxhb:course>-1.000000</gpxhb:course></extensions></trkpt><trkpt lat="24.529372679124165" lon="121.8620852423717"><ele>127.05860194263846</ele><time>2025-05-31T04:19:09Z</time><src>Hikingbook</src><extensions><gpxhb:speed>0.630000</gpxhb:speed><gpxhb:course>307.968750</gpxhb:course></extensions></trkpt><trkpt lat="24.529204546692608" lon="121.86180732951037"><ele>120.37806288658857</ele><time>2025-05-31T04:19:28Z</time><src>Hikingbook</src><extensions><gpxhb:speed>0.230000</gpxhb:speed><gpxhb:course>-1.000000</gpxhb:course></extensions></trkpt><trkpt lat="24.52908447351449" lon="121.86175759439455"><ele>111.1451398427728</ele><time>2025-05-31T04:22:18Z</time><src>Hikingbook</src><extensions><gpxhb:speed>0.000000</gpxhb:speed><gpxhb:course>144.994015</gpxhb:course></extensions></trkpt></trkseg><trkseg><trkpt lat="24.52908447351449" lon="121.86175759439455"><ele>111.1451398427728</ele><time>2025-05-31T04:32:22Z</time><src>Hikingbook</src><extensions><gpxhb:speed>0.000000</gpxhb:speed><gpxhb:course>144.994015</gpxhb:course></extensions></trkpt><trkpt lat="24.529227791127504" lon="121.86158465592358"><ele>133.9844479178228</ele><time>2025-05-31T04:32:24Z</time><src>Hikingbook</src><extensions><gpxhb:speed>0.780000</gpxhb:speed><gpxhb:course>106.171875</gpxhb:course></extensions></trkpt><trkpt lat="24.529028279112644" lon="121.8616927855115"><ele>94.70310517166399</ele><time>2025-05-31T04:33:06Z</time><src>Hikingbook</src><extensions><gpxhb:speed>0.028436</gpxhb:speed><gpxhb:course>-1.000000</gpxhb:course></extensions></trkpt></trkseg><trkseg><trkpt lat="24.529028279112644" lon="121.8616927855115"><ele>94.70310517166399</ele><time>2025-05-31T04:46:26Z</time><src>Hikingbook</src><extensions><gpxhb:speed>0.028436</gpxhb:speed><gpxhb:course>-1.000000</gpxhb:course></extensions></trkpt><trkpt lat="24.528894469957812" lon="121.86178767899833"><ele>83.73401588016127</ele><time>2025-05-31T04:48:33Z</time><src>Hikingbook</src><extensions><gpxhb:speed>0.000000</gpxhb:speed><gpxhb:course>-1.000000</gpxhb:course></extensions></trkpt><trkpt lat="24.528794425862674" lon="121.86172185923297"><ele>81.59273651107472</ele><time>2025-05-31T04:50:13Z</time><src>Hikingbook</src><extensions><gpxhb:speed>1.377554</gpxhb:speed><gpxhb:course>197.069150</gpxhb:course></extensions></trkpt><trkpt lat="24.52890803250665" lon="121.8617598522429"><ele>61.74393181216506</ele><time>2025-05-31T04:50:47Z</time><src>Hikingbook</src><extensions><gpxhb:speed>1.403717</gpxhb:speed><gpxhb:course>29.411848</gpxhb:course></extensions></trkpt><trkpt lat="24.528868253995633" lon="121.86173393831703"><ele>73.25265442748695</ele><time>2025-05-31T04:51:07Z</time><src>Hikingbook</src><extensions><gpxhb:speed>0.074393</gpxhb:speed><gpxhb:course>242.563602</gpxhb:course></extensions></trkpt></trkseg><trkseg><trkpt lat="24.528856175786338" lon="121.8618183141465"><ele>72.00780598955336</ele><time>2025-05-31T05:46:49Z</time><src>Hikingbook</src><extensions><gpxhb:speed>0.000000</gpxhb:speed><gpxhb:course>-1.000000</gpxhb:course></extensions></trkpt><trkpt lat="24.528381501337286" lon="121.86188863706789"><ele>30.65465097177742</ele><time>2025-05-31T05:53:50Z</time><src>Hikingbook</src><extensions><gpxhb:speed>0.000000</gpxhb:speed><gpxhb:course>151.232876</gpxhb:course></extensions></trkpt></trkseg><trkseg><trkpt lat="24.528381501337286" lon="121.86188863706789"><ele>30.65465097177742</ele><time>2025-05-31T06:00:13Z</time><src>Hikingbook</src><extensions><gpxhb:speed>0.000000</gpxhb:speed><gpxhb:course>151.232876</gpxhb:course></extensions></trkpt><trkpt lat="24.528118918840573" lon="121.86191251580637"><ele>5.045722796175364</ele><time>2025-05-31T06:01:20Z</time><src>Hikingbook</src><extensions><gpxhb:speed>0.312082</gpxhb:speed><gpxhb:course>-1.000000</gpxhb:course></extensions></trkpt></trkseg></trk></gpx>