<?xml version="1.0" encoding="UTF-8"?>
<gpx version="1.1" creator="Hikingbook" xmlns:xsi="http://www.w3.org/2001/XMLSchema-instance" xmlns="http://www.topografix.com/GPX/1/1" xsi:schemaLocation="http://www.topografix.com/GPX/1/1 https://www.topografix.com/GPX/1/1/gpx.xsd https://hikingbook.net/xmlschemas/1/5 https:/hikingbook.net/xmlschemas/1/5/gpxhb.xsd" xmlns:gpxhb="https://hikingbook.net/xmlschemas/1/5"><metadata><name>🪢💦野人谷(2024-06-23）-「溪降」［🇹🇼新北-平溪］</name><desc>-共裝-&#xA;1.)繩子：&#xA;Cousin 9mm-100米&#xA;浮水垂降繩-30米&#xA;C4-60米&#xA;C4-30米&#xA;&#xA;2.)扁帶5米*3&#xA;&#xA;3.）滑輪*4&#xA;&#xA;</desc><author><name>Hikingbook</name><link href="https://hikingbook.net"><text>Hikingbook</text></link></author><link href="https://hikingbook.net/hikes/%E9%87%8E%E4%BA%BA%E8%B0%B7-2024-06-23-%E6%BA%AA%E9%99%8D-43b5ae12"><text>Hikingbook</text></link><time>2026-07-12T21:05:40.223815823+08:00</time><keywords>Hikingbook,EzLife,Jimce,野人谷,溪降,台灣,Taiwan,新北,瑞芳</keywords><extensions><gpxhb:loadweight>11.0</gpxhb:loadweight><gpxhb:fitnesslevel>1</gpxhb:fitnesslevel><gpxhb:routeinformation>土地公廟由於溪降人士的不友善，與在地的阿嬤起衝突，因此目前已不給過。</gpxhb:routeinformation><gpxhb:activitytype>others</gpxhb:activitytype><gpxhb:trailid>ebedd8eb-92e2-4dcc-ab8b-cdf104c3b385</gpxhb:trailid><gpxhb:trackimageurl>https://assets.hikingbook.net/users/99ytm4dreskyn3pcmjp2zwg/qi7yfn7vr90utq5bmx5nr4w/68ba74dd-49e7-4a76-a11d-6ae05a55888f.jpg</gpxhb:trackimageurl><gpxhb:source>Hikingbook</gpxhb:source></extensions></metadata><wpt lat="25.058863749621846" lon="121.79205900901296"><ele>233</ele><time>2024-06-23T01:20:00Z</time><name>00 停車點(A點）</name><cmt>2024-06-23T09:20:00+08:00</cmt><desc>00 停車點(A點）</desc><src>Hikingbook</src><link href="https://hikingbook.net/hikes/90rjmYlK2QwSXwn8L654AXg"><text>Hikingbook</text></link><extensions><gpxhb:weather>Clear</gpxhb:weather><gpxhb:speed>-1.000000</gpxhb:speed><gpxhb:course>-1.000000</gpxhb:course></extensions></wpt><wpt lat="25.059048149550566" lon="121.79291180999867"><ele>233</ele><time>2024-06-23T01:52:11Z</time><name>01 涼亭(A點）-開始</name><cmt>2024-06-23T09:52:11+08:00</cmt><desc>01 涼亭(A點）-開始</desc><src>Hikingbook</src><link href="https://hikingbook.net/hikes/90rjmYlK2QwSXwn8L654AXg"><text>Hikingbook</text></link><extensions><gpxhb:weather>Clear</gpxhb:weather><gpxhb:speed>1.580000</gpxhb:speed><gpxhb:course>253.100000</gpxhb:course></extensions></wpt><wpt lat="25.058625859548123" lon="121.79404902465386"><ele>233</ele><time>2024-06-23T01:55:13Z</time><name>02 左邊菜園</name><cmt>2024-06-23T09:55:13+08:00</cmt><desc>02 左邊菜園</desc><src>Hikingbook</src><link href="https://hikingbook.net/hikes/90rjmYlK2QwSXwn8L654AXg"><text>Hikingbook</text></link><extensions><gpxhb:weather>Clear</gpxhb:weather><gpxhb:speed>0.000000</gpxhb:speed><gpxhb:course>168.980000</gpxhb:course></extensions></wpt><wpt lat="25.058509671943806" lon="121.79508883540502"><ele>263</ele><time>2024-06-23T01:59:10Z</time><name>03 右轉竹子林</name><cmt>2024-06-23T09:59:10+08:00</cmt><desc>03 右轉竹子林</desc><src>Hikingbook</src><link href="https://hikingbook.net/hikes/90rjmYlK2QwSXwn8L654AXg"><text>Hikingbook</text></link><extensions><gpxhb:weather>Clear</gpxhb:weather><gpxhb:speed>0.650000</gpxhb:speed><gpxhb:course>37.550000</gpxhb:course></extensions></wpt><wpt lat="25.058347242907676" lon="121.79639034915883"><ele>254</ele><time>2024-06-23T02:13:57Z</time><name>04 第一瀑「茵夢湖瀑布」-瀑頂(5m)</name><cmt>2024-06-23T10:13:57+08:00</cmt><desc>04 第一瀑「茵夢湖瀑布」-瀑頂(5m)</desc><src>Hikingbook</src><link href="https://hikingbook.net/hikes/90rjmYlK2QwSXwn8L654AXg"><text>Hikingbook</text></link><extensions><gpxhb:weather>Clear</gpxhb:weather><gpxhb:speed>0.000000</gpxhb:speed><gpxhb:course>113.200000</gpxhb:course></extensions></wpt><wpt lat="25.05831878634641" lon="121.79632773634214"><ele>250</ele><time>2024-06-23T02:34:43Z</time><name>05 第一瀑「茵夢湖瀑布」-瀑底(5m)</name><cmt>2024-06-23T10:34:43+08:00</cmt><desc>05 第一瀑「茵夢湖瀑布」-瀑底(5m)</desc><src>Hikingbook</src><link href="https://hikingbook.net/hikes/90rjmYlK2QwSXwn8L654AXg"><text>Hikingbook</text></link><extensions><gpxhb:weather>Clear</gpxhb:weather><gpxhb:speed>0.000000</gpxhb:speed><gpxhb:course>280.200000</gpxhb:course></extensions></wpt><wpt lat="25.057437325519132" lon="121.79680232571107"><ele>238</ele><time>2024-06-23T03:28:12Z</time><name>06 第二瀑「天雲瀑布」-瀑頂（30m)</name><cmt>2024-06-23T11:28:12+08:00</cmt><desc>06 第二瀑「天雲瀑布」-瀑頂（30m)</desc><src>Hikingbook</src><link href="https://hikingbook.net/hikes/90rjmYlK2QwSXwn8L654AXg"><text>Hikingbook</text></link><extensions><gpxhb:weather>Clear</gpxhb:weather><gpxhb:speed>0.000000</gpxhb:speed><gpxhb:course>153.990000</gpxhb:course></extensions></wpt><wpt lat="25.057293484481647" lon="121.79682489870427"><ele>227</ele><time>2024-06-23T03:34:19Z</time><name>07 第二瀑「天雲瀑布」-瀑底（30m)</name><cmt>2024-06-23T11:34:19+08:00</cmt><desc>07 第二瀑「天雲瀑布」-瀑底（30m)</desc><src>Hikingbook</src><link href="https://hikingbook.net/hikes/90rjmYlK2QwSXwn8L654AXg"><text>Hikingbook</text></link><extensions><gpxhb:weather>Clear</gpxhb:weather><gpxhb:speed>0.000000</gpxhb:speed><gpxhb:course>244.860000</gpxhb:course></extensions></wpt><wpt lat="25.05708253646301" lon="121.79750364804532"><ele>208</ele><time>2024-06-23T05:03:19Z</time><name>08 第三瀑「子母雙瀑布」-瀑頂（40m)</name><cmt>2024-06-23T13:03:19+08:00</cmt><desc>08 第三瀑「子母雙瀑布」-瀑頂（40m)</desc><src>Hikingbook</src><link href="https://hikingbook.net/hikes/90rjmYlK2QwSXwn8L654AXg"><text>Hikingbook</text></link><extensions><gpxhb:weather>Clear</gpxhb:weather><gpxhb:speed>0.000000</gpxhb:speed><gpxhb:course>61.920000</gpxhb:course></extensions></wpt><wpt lat="25.056806847898116" lon="121.79757144758229"><ele>172</ele><time>2024-06-23T05:54:30Z</time><name>09 第三瀑「子母雙瀑布」-瀑底（40m)</name><cmt>2024-06-23T13:54:30+08:00</cmt><desc>09 第三瀑「子母雙瀑布」-瀑底（40m)</desc><src>Hikingbook</src><link href="https://hikingbook.net/hikes/90rjmYlK2QwSXwn8L654AXg"><text>Hikingbook</text></link><extensions><gpxhb:weather>Clear</gpxhb:weather><gpxhb:speed>0.000000</gpxhb:speed><gpxhb:course>-1.000000</gpxhb:course></extensions></wpt><wpt lat="25.05669257275031" lon="121.79717473043742"><ele>191</ele><time>2024-06-23T06:50:10Z</time><name>10 步道高繞小路</name><cmt>2024-06-23T14:50:10+08:00</cmt><desc>10 步道高繞小路</desc><src>Hikingbook</src><link href="https://hikingbook.net/hikes/90rjmYlK2QwSXwn8L654AXg"><text>Hikingbook</text></link><extensions><gpxhb:weather>Clear</gpxhb:weather><gpxhb:speed>0.000000</gpxhb:speed><gpxhb:course>292.290000</gpxhb:course></extensions></wpt><wpt lat="25.056394941487348" lon="121.79656554256636"><ele>209</ele><time>2024-06-23T07:19:25Z</time><name>11 第四瀑「翠谷瀑布」-瀑頂（28m)</name><cmt>2024-06-23T15:19:25+08:00</cmt><desc>11 第四瀑「翠谷瀑布」-瀑頂（28m)</desc><src>Hikingbook</src><link href="https://hikingbook.net/hikes/90rjmYlK2QwSXwn8L654AXg"><text>Hikingbook</text></link><extensions><gpxhb:weather>Clear</gpxhb:weather><gpxhb:speed>0.000000</gpxhb:speed><gpxhb:course>39.630000</gpxhb:course></extensions></wpt><wpt lat="25.056277037255807" lon="121.79612606385359"><ele>221</ele><time>2024-06-23T09:12:20Z</time><name>12 竹林小路右轉</name><cmt>2024-06-23T17:12:20+08:00</cmt><desc>12 竹林小路右轉</desc><src>Hikingbook</src><link href="https://hikingbook.net/hikes/90rjmYlK2QwSXwn8L654AXg"><text>Hikingbook</text></link><extensions><gpxhb:weather>Clear</gpxhb:weather><gpxhb:speed>0.000000</gpxhb:speed><gpxhb:course>148.200000</gpxhb:course></extensions></wpt><wpt lat="25.05653108395474" lon="121.79483454985237"><ele>216</ele><time>2024-06-23T09:18:31Z</time><name>13 小路</name><cmt>2024-06-23T17:18:31+08:00</cmt><desc>13 小路</desc><src>Hikingbook</src><link href="https://hikingbook.net/hikes/90rjmYlK2QwSXwn8L654AXg"><text>Hikingbook</text></link><extensions><gpxhb:weather>Clear</gpxhb:weather><gpxhb:speed>0.000000</gpxhb:speed><gpxhb:course>7.670000</gpxhb:course></extensions></wpt><wpt lat="25.056485891260824" lon="121.79439804717367"><ele>230</ele><time>2024-06-23T09:24:06Z</time><name>14 停車點（B點）-結束</name><cmt>2024-06-23T17:24:06+08:00</cmt><desc>14 停車點（B點）-結束</desc><src>Hikingbook</src><link href="https://hikingbook.net/hikes/90rjmYlK2QwSXwn8L654AXg"><text>Hikingbook</text></link><extensions><gpxhb:weather>Clear</gpxhb:weather><gpxhb:speed>0.510000</gpxhb:speed><gpxhb:course>319.410000</gpxhb:course></extensions></wpt><wpt lat="25.056361170648717" lon="121.79653550792847"><ele>172</ele><time>2024-06-23T10:44:00Z</time><name>15 第四瀑「翠谷瀑布」-瀑底（28m) </name><cmt>2024-06-23T18:44:00+08:00</cmt><desc>15 第四瀑「翠谷瀑布」-瀑底（28m) </desc><src>Hikingbook</src><link href="https://hikingbook.net/hikes/90rjmYlK2QwSXwn8L654AXg"><text>Hikingbook</text></link><extensions><gpxhb:weather>Clear</gpxhb:weather><gpxhb:speed>-1.000000</gpxhb:speed><gpxhb:course>-1.000000</gpxhb:course></extensions></wpt><trk><name>🪢💦野人谷(2024-06-23）-「溪降」［🇹🇼新北-平溪］</name><cmt>-共裝-&#xA;1.)繩子：&#xA;Cousin 9mm-100米&#xA;浮水垂降繩-30米&#xA;C4-60米&#xA;C4-30米&#xA;&#xA;2.)扁帶5米*3&#xA;&#xA;3.）滑輪*4&#xA;&#xA;</cmt><desc>-共裝-&#xA;1.)繩子：&#xA;Cousin 9mm-100米&#xA;浮水垂降繩-30米&#xA;C4-60米&#xA;C4-30米&#xA;&#xA;2.)扁帶5米*3&#xA;&#xA;3.）滑輪*4&#xA;&#xA;</desc><src>Hikingbook</src><link href="https://hikingbook.net/hikes/%E9%87%8E%E4%BA%BA%E8%B0%B7-2024-06-23-%E6%BA%AA%E9%99%8D-43b5ae12"><text>Hikingbook</text></link><trkseg><trkpt lat="25.05904985463083" lon="121.79292292064007"><ele>233.27834322873173</ele><time>2024-06-23T01:52:11Z</time><src>Hikingbook</src><extensions><gpxhb:speed>1.580000</gpxhb:speed><gpxhb:course>253.100000</gpxhb:course></extensions></trkpt><trkpt lat="25.05900742812884" lon="121.79280543815221"><ele>233.0055219170408</ele><time>2024-06-23T01:52:23Z</time><src>Hikingbook</src><extensions><gpxhb:speed>0.560000</gpxhb:speed><gpxhb:course>225.550000</gpxhb:course></extensions></trkpt><trkpt lat="25.059105915349942" lon="121.79324054314603"><ele>233.05900030802087</ele><time>2024-06-23T01:53:14Z</time><src>Hikingbook</src><extensions><gpxhb:speed>1.200000</gpxhb:speed><gpxhb:course>64.330000</gpxhb:course></extensions></trkpt><trkpt lat="25.058955863329725" lon="121.79338110499364"><ele>233.66327888391567</ele><time>2024-06-23T01:53:36Z</time><src>Hikingbook</src><extensions><gpxhb:speed>1.410000</gpxhb:speed><gpxhb:course>143.390000</gpxhb:course></extensions></trkpt><trkpt lat="25.05867596604805" lon="121.79384739105069"><ele>235.18864717901423</ele><time>2024-06-23T01:54:22Z</time><src>Hikingbook</src><extensions><gpxhb:speed>1.230000</gpxhb:speed><gpxhb:course>127.420000</gpxhb:course></extensions></trkpt></trkseg><trkseg><trkpt lat="25.058625659216023" lon="121.79404791699686"><ele>233.464843036204</ele><time>2024-06-23T01:55:13Z</time><src>Hikingbook</src><extensions><gpxhb:speed>0.000000</gpxhb:speed><gpxhb:course>168.980000</gpxhb:course></extensions></trkpt><trkpt lat="25.058604253906715" lon="121.79424327720726"><ele>233.66945785601567</ele><time>2024-06-23T01:55:37Z</time><src>Hikingbook</src><extensions><gpxhb:speed>1.330000</gpxhb:speed><gpxhb:course>104.750000</gpxhb:course></extensions></trkpt><trkpt lat="25.058818115578987" lon="121.79453631292374"><ele>242.09628868253432</ele><time>2024-06-23T01:56:12Z</time><src>Hikingbook</src><extensions><gpxhb:speed>0.800000</gpxhb:speed><gpxhb:course>86.810000</gpxhb:course></extensions></trkpt><trkpt lat="25.058657024033433" lon="121.79461882887611"><ele>255.21947618303156</ele><time>2024-06-23T01:56:50Z</time><src>Hikingbook</src><extensions><gpxhb:speed>1.150000</gpxhb:speed><gpxhb:course>197.040000</gpxhb:course></extensions></trkpt><trkpt lat="25.058535496661403" lon="121.79494334846943"><ele>257.0290711563768</ele><time>2024-06-23T01:58:05Z</time><src>Hikingbook</src><extensions><gpxhb:speed>0.870000</gpxhb:speed><gpxhb:course>45.940000</gpxhb:course></extensions></trkpt><trkpt lat="25.058397055742155" lon="121.79504911878774"><ele>262.3381999560601</ele><time>2024-06-23T01:58:37Z</time><src>Hikingbook</src><extensions><gpxhb:speed>0.600000</gpxhb:speed><gpxhb:course>107.210000</gpxhb:course></extensions></trkpt><trkpt lat="25.05839095152624" lon="121.79510496578986"><ele>263.140159284381</ele><time>2024-06-23T01:58:52Z</time><src>Hikingbook</src><extensions><gpxhb:speed>0.000000</gpxhb:speed><gpxhb:course>-1.000000</gpxhb:course></extensions></trkpt><trkpt lat="25.05854872082954" lon="121.79513891911414"><ele>262.82054528385737</ele><time>2024-06-23T01:59:25Z</time><src>Hikingbook</src><extensions><gpxhb:speed>0.650000</gpxhb:speed><gpxhb:course>133.480000</gpxhb:course></extensions></trkpt><trkpt lat="25.058443664013062" lon="121.79550656139745"><ele>259.8534922031826</ele><time>2024-06-23T02:00:36Z</time><src>Hikingbook</src><extensions><gpxhb:speed>0.450000</gpxhb:speed><gpxhb:course>79.290000</gpxhb:course></extensions></trkpt><trkpt lat="25.05829120194918" lon="121.79570830214173"><ele>259.68047320553285</ele><time>2024-06-23T02:01:43Z</time><src>Hikingbook</src><extensions><gpxhb:speed>0.830000</gpxhb:speed><gpxhb:course>113.410000</gpxhb:course></extensions></trkpt><trkpt lat="25.058390218180048" lon="121.79605353282733"><ele>261.5367690643735</ele><time>2024-06-23T02:02:31Z</time><src>Hikingbook</src><extensions><gpxhb:speed>0.880000</gpxhb:speed><gpxhb:course>46.620000</gpxhb:course></extensions></trkpt><trkpt lat="25.058617727681284" lon="121.79624954037718"><ele>256.53859507296465</ele><time>2024-06-23T02:03:17Z</time><src>Hikingbook</src><extensions><gpxhb:speed>0.740000</gpxhb:speed><gpxhb:course>16.840000</gpxhb:course></extensions></trkpt><trkpt lat="25.058710082374045" lon="121.7962073118013"><ele>256.99245891087287</ele><time>2024-06-23T02:03:32Z</time><src>Hikingbook</src><extensions><gpxhb:speed>0.000000</gpxhb:speed><gpxhb:course>253.970000</gpxhb:course></extensions></trkpt><trkpt lat="25.058596633361354" lon="121.79640695760983"><ele>256.75723700068204</ele><time>2024-06-23T02:04:36Z</time><src>Hikingbook</src><extensions><gpxhb:speed>0.500000</gpxhb:speed><gpxhb:course>89.870000</gpxhb:course></extensions></trkpt><trkpt lat="25.058607548066913" lon="121.79635830945115"><ele>261.4179211453174</ele><time>2024-06-23T02:06:37Z</time><src>Hikingbook</src><extensions><gpxhb:speed>0.000000</gpxhb:speed><gpxhb:course>347.200000</gpxhb:course></extensions></trkpt></trkseg><trkseg><trkpt lat="25.058607548066913" lon="121.79635830945115"><ele>261.4179211453174</ele><time>2024-06-23T02:13:50Z</time><src>Hikingbook</src><extensions><gpxhb:speed>0.000000</gpxhb:speed><gpxhb:course>347.200000</gpxhb:course></extensions></trkpt><trkpt lat="25.058352239975722" lon="121.79640634667572"><ele>255.58575410756595</ele><time>2024-06-23T02:13:52Z</time><src>Hikingbook</src><extensions><gpxhb:speed>0.000000</gpxhb:speed><gpxhb:course>113.200000</gpxhb:course></extensions></trkpt><trkpt lat="25.058336724373603" lon="121.79631958883577"><ele>256.97175736866575</ele><time>2024-06-23T02:14:53Z</time><src>Hikingbook</src><extensions><gpxhb:speed>0.030000</gpxhb:speed><gpxhb:course>-1.000000</gpxhb:course></extensions></trkpt></trkseg><trkseg><trkpt lat="25.058336724373603" lon="121.79631958883577"><ele>256.97175736866575</ele><time>2024-06-23T02:34:41Z</time><src>Hikingbook</src><extensions><gpxhb:speed>0.030000</gpxhb:speed><gpxhb:course>-1.000000</gpxhb:course></extensions></trkpt><trkpt lat="25.05830239389203" lon="121.79635309086046"><ele>245.7565310111777</ele><time>2024-06-23T02:34:59Z</time><src>Hikingbook</src><extensions><gpxhb:speed>0.000000</gpxhb:speed><gpxhb:course>-1.000000</gpxhb:course></extensions></trkpt><trkpt lat="25.058287230730077" lon="121.79637643466668"><ele>254.0731593948334</ele><time>2024-06-23T02:44:17Z</time><src>Hikingbook</src><extensions><gpxhb:speed>0.000000</gpxhb:speed><gpxhb:course>244.690000</gpxhb:course></extensions></trkpt><trkpt lat="25.058272730276524" lon="121.79631324056648"><ele>254.58389120307933</ele><time>2024-06-23T02:53:37Z</time><src>Hikingbook</src><extensions><gpxhb:speed>0.000000</gpxhb:speed><gpxhb:course>354.040000</gpxhb:course></extensions></trkpt><trkpt lat="25.058281066720753" lon="121.79636381873839"><ele>248.94766946565662</ele><time>2024-06-23T02:55:27Z</time><src>Hikingbook</src><extensions><gpxhb:speed>0.000000</gpxhb:speed><gpxhb:course>173.740000</gpxhb:course></extensions></trkpt><trkpt lat="25.058241960954835" lon="121.79637487788789"><ele>248.7050377179516</ele><time>2024-06-23T03:05:05Z</time><src>Hikingbook</src><extensions><gpxhb:speed>0.000000</gpxhb:speed><gpxhb:course>333.720000</gpxhb:course></extensions></trkpt><trkpt lat="25.05794487748999" lon="121.79637107631864"><ele>246.73360782935998</ele><time>2024-06-23T03:12:23Z</time><src>Hikingbook</src><extensions><gpxhb:speed>1.010000</gpxhb:speed><gpxhb:course>167.450000</gpxhb:course></extensions></trkpt><trkpt lat="25.057541313285643" lon="121.79666951161417"><ele>244.79948580263417</ele><time>2024-06-23T03:13:44Z</time><src>Hikingbook</src><extensions><gpxhb:speed>0.770000</gpxhb:speed><gpxhb:course>106.050000</gpxhb:course></extensions></trkpt><trkpt lat="25.057554139524925" lon="121.79669511773609"><ele>244.0133867917285</ele><time>2024-06-23T03:17:07Z</time><src>Hikingbook</src><extensions><gpxhb:speed>0.430000</gpxhb:speed><gpxhb:course>252.230000</gpxhb:course></extensions></trkpt><trkpt lat="25.057501581295934" lon="121.79667085448546"><ele>243.1216150537127</ele><time>2024-06-23T03:18:01Z</time><src>Hikingbook</src><extensions><gpxhb:speed>0.000000</gpxhb:speed><gpxhb:course>142.260000</gpxhb:course></extensions></trkpt><trkpt lat="25.05749355034459" lon="121.79675788250564"><ele>239.01418936896883</ele><time>2024-06-23T03:20:55Z</time><src>Hikingbook</src><extensions><gpxhb:speed>0.000000</gpxhb:speed><gpxhb:course>281.300000</gpxhb:course></extensions></trkpt><trkpt lat="25.057439528499987" lon="121.79667787043361"><ele>241.31706045053687</ele><time>2024-06-23T03:26:42Z</time><src>Hikingbook</src><extensions><gpxhb:speed>0.000000</gpxhb:speed><gpxhb:course>184.420000</gpxhb:course></extensions></trkpt><trkpt lat="25.05745255629775" lon="121.79680852118076"><ele>236.93238205865435</ele><time>2024-06-23T03:28:04Z</time><src>Hikingbook</src><extensions><gpxhb:speed>0.000000</gpxhb:speed><gpxhb:course>124.380000</gpxhb:course></extensions></trkpt><trkpt lat="25.057407867162823" lon="121.79674490958918"><ele>235.43457966163172</ele><time>2024-06-23T03:29:04Z</time><src>Hikingbook</src><extensions><gpxhb:speed>0.630000</gpxhb:speed><gpxhb:course>-1.000000</gpxhb:course></extensions></trkpt><trkpt lat="25.05726198521325" lon="121.79690223461046"><ele>226.815255570136</ele><time>2024-06-23T03:32:57Z</time><src>Hikingbook</src><extensions><gpxhb:speed>0.000000</gpxhb:speed><gpxhb:course>-1.000000</gpxhb:course></extensions></trkpt><trkpt lat="25.057299281461027" lon="121.79683777304271"><ele>223.2250173025396</ele><time>2024-06-23T03:33:44Z</time><src>Hikingbook</src><extensions><gpxhb:speed>0.000000</gpxhb:speed><gpxhb:course>-1.000000</gpxhb:course></extensions></trkpt><trkpt lat="25.05728917727875" lon="121.79688177884157"><ele>226.97589166982445</ele><time>2024-06-23T03:35:25Z</time><src>Hikingbook</src><extensions><gpxhb:speed>0.000000</gpxhb:speed><gpxhb:course>147.130000</gpxhb:course></extensions></trkpt><trkpt lat="25.057349969843603" lon="121.79690558768776"><ele>236.73002461567182</ele><time>2024-06-23T03:37:51Z</time><src>Hikingbook</src><extensions><gpxhb:speed>0.000000</gpxhb:speed><gpxhb:course>220.250000</gpxhb:course></extensions></trkpt><trkpt lat="25.057371825270184" lon="121.79688403802444"><ele>232.7290940146099</ele><time>2024-06-23T03:59:05Z</time><src>Hikingbook</src><extensions><gpxhb:speed>0.000000</gpxhb:speed><gpxhb:course>240.050000</gpxhb:course></extensions></trkpt><trkpt lat="25.05737816271579" lon="121.79687209897536"><ele>217.68577577491774</ele><time>2024-06-23T04:32:14Z</time><src>Hikingbook</src><extensions><gpxhb:speed>0.000000</gpxhb:speed><gpxhb:course>108.330000</gpxhb:course></extensions></trkpt><trkpt lat="25.05724600031057" lon="121.79686424533386"><ele>222.44179361488418</ele><time>2024-06-23T04:42:50Z</time><src>Hikingbook</src><extensions><gpxhb:speed>0.000000</gpxhb:speed><gpxhb:course>269.400000</gpxhb:course></extensions></trkpt><trkpt lat="25.057336553614036" lon="121.79686238452408"><ele>221.238149499237</ele><time>2024-06-23T04:52:26Z</time><src>Hikingbook</src><extensions><gpxhb:speed>0.000000</gpxhb:speed><gpxhb:course>294.940000</gpxhb:course></extensions></trkpt><trkpt lat="25.05732820925072" lon="121.79691204992902"><ele>222.2064885150078</ele><time>2024-06-23T04:55:53Z</time><src>Hikingbook</src><extensions><gpxhb:speed>0.000000</gpxhb:speed><gpxhb:course>152.690000</gpxhb:course></extensions></trkpt><trkpt lat="25.057286970403972" lon="121.79687874039058"><ele>220.4067627580135</ele><time>2024-06-23T04:56:09Z</time><src>Hikingbook</src><extensions><gpxhb:speed>0.000000</gpxhb:speed><gpxhb:course>200.650000</gpxhb:course></extensions></trkpt><trkpt lat="25.05736070899775" lon="121.79691750513108"><ele>222.39383669013685</ele><time>2024-06-23T04:56:52Z</time><src>Hikingbook</src><extensions><gpxhb:speed>0.000000</gpxhb:speed><gpxhb:course>128.020000</gpxhb:course></extensions></trkpt><trkpt lat="25.057145227482515" lon="121.79722407383717"><ele>219.45025875150625</ele><time>2024-06-23T04:58:54Z</time><src>Hikingbook</src><extensions><gpxhb:speed>0.770000</gpxhb:speed><gpxhb:course>111.150000</gpxhb:course></extensions></trkpt><trkpt lat="25.057281907093273" lon="121.79739048999573"><ele>220.7159958428846</ele><time>2024-06-23T04:59:26Z</time><src>Hikingbook</src><extensions><gpxhb:speed>0.440000</gpxhb:speed><gpxhb:course>40.730000</gpxhb:course></extensions></trkpt><trkpt lat="25.057199988498613" lon="121.79752990125907"><ele>220.8401629252923</ele><time>2024-06-23T05:00:06Z</time><src>Hikingbook</src><extensions><gpxhb:speed>0.680000</gpxhb:speed><gpxhb:course>152.520000</gpxhb:course></extensions></trkpt><trkpt lat="25.057196404990883" lon="121.79744116335485"><ele>217.62210114142238</ele><time>2024-06-23T05:01:48Z</time><src>Hikingbook</src><extensions><gpxhb:speed>0.000000</gpxhb:speed><gpxhb:course>61.300000</gpxhb:course></extensions></trkpt><trkpt lat="25.057082441958496" lon="121.79749709723333"><ele>207.77555006713902</ele><time>2024-06-23T05:03:17Z</time><src>Hikingbook</src><extensions><gpxhb:speed>0.000000</gpxhb:speed><gpxhb:course>61.920000</gpxhb:course></extensions></trkpt><trkpt lat="25.057092759982027" lon="121.79741213393618"><ele>211.29769820712653</ele><time>2024-06-23T05:10:28Z</time><src>Hikingbook</src><extensions><gpxhb:speed>0.000000</gpxhb:speed><gpxhb:course>66.380000</gpxhb:course></extensions></trkpt><trkpt lat="25.057065386934067" lon="121.79746750236536"><ele>212.01378701624847</ele><time>2024-06-23T05:19:35Z</time><src>Hikingbook</src><extensions><gpxhb:speed>0.000000</gpxhb:speed><gpxhb:course>-1.000000</gpxhb:course></extensions></trkpt><trkpt lat="25.05702547511637" lon="121.79749094448674"><ele>212.24651857657094</ele><time>2024-06-23T05:21:39Z</time><src>Hikingbook</src><extensions><gpxhb:speed>0.000000</gpxhb:speed><gpxhb:course>133.430000</gpxhb:course></extensions></trkpt><trkpt lat="25.057083273106116" lon="121.79744670765695"><ele>210.23731272834655</ele><time>2024-06-23T05:21:55Z</time><src>Hikingbook</src><extensions><gpxhb:speed>0.000000</gpxhb:speed><gpxhb:course>133.430000</gpxhb:course></extensions></trkpt><trkpt lat="25.057077201329424" lon="121.79742622784043"><ele>213.48972302054378</ele><time>2024-06-23T05:32:52Z</time><src>Hikingbook</src><extensions><gpxhb:speed>0.000000</gpxhb:speed><gpxhb:course>63.270000</gpxhb:course></extensions></trkpt><trkpt lat="25.057032565492598" lon="121.79749430269122"><ele>211.9515463562489</ele><time>2024-06-23T05:34:00Z</time><src>Hikingbook</src><extensions><gpxhb:speed>0.000000</gpxhb:speed><gpxhb:course>-1.000000</gpxhb:course></extensions></trkpt><trkpt lat="25.05699112380585" lon="121.79746927720592"><ele>216.55226971771077</ele><time>2024-06-23T05:34:26Z</time><src>Hikingbook</src><extensions><gpxhb:speed>0.000000</gpxhb:speed><gpxhb:course>-1.000000</gpxhb:course></extensions></trkpt><trkpt lat="25.057057180246726" lon="121.79741096929537"><ele>210.63972372131255</ele><time>2024-06-23T05:36:21Z</time><src>Hikingbook</src><extensions><gpxhb:speed>0.000000</gpxhb:speed><gpxhb:course>-1.000000</gpxhb:course></extensions></trkpt><trkpt lat="25.0570135592597" lon="121.79751967404911"><ele>210.3343700863599</ele><time>2024-06-23T05:38:03Z</time><src>Hikingbook</src><extensions><gpxhb:speed>0.000000</gpxhb:speed><gpxhb:course>286.000000</gpxhb:course></extensions></trkpt><trkpt lat="25.056786209050564" lon="121.797522945496"><ele>195.23584486914524</ele><time>2024-06-23T05:42:02Z</time><src>Hikingbook</src><extensions><gpxhb:speed>0.000000</gpxhb:speed><gpxhb:course>242.300000</gpxhb:course></extensions></trkpt><trkpt lat="25.056833088064813" lon="121.79757875715593"><ele>197.18540121336534</ele><time>2024-06-23T05:54:59Z</time><src>Hikingbook</src><extensions><gpxhb:speed>0.000000</gpxhb:speed><gpxhb:course>-1.000000</gpxhb:course></extensions></trkpt></trkseg><trkseg><trkpt lat="25.056462632759633" lon="121.79741490800728"><ele>182.73134795199817</ele><time>2024-06-23T06:49:11Z</time><src>Hikingbook</src><extensions><gpxhb:speed>0.000000</gpxhb:speed><gpxhb:course>-1.000000</gpxhb:course></extensions></trkpt><trkpt lat="25.05645466927405" lon="121.79731177288922"><ele>186.06025291501248</ele><time>2024-06-23T06:49:27Z</time><src>Hikingbook</src><extensions><gpxhb:speed>0.120000</gpxhb:speed><gpxhb:course>-1.000000</gpxhb:course></extensions></trkpt><trkpt lat="25.056655404185584" lon="121.79710943759996"><ele>186.60624148650504</ele><time>2024-06-23T06:49:43Z</time><src>Hikingbook</src><extensions><gpxhb:speed>0.130000</gpxhb:speed><gpxhb:course>-1.000000</gpxhb:course></extensions></trkpt><trkpt lat="25.056650974835705" lon="121.79722805647496"><ele>189.12577177017218</ele><time>2024-06-23T06:49:59Z</time><src>Hikingbook</src><extensions><gpxhb:speed>0.540000</gpxhb:speed><gpxhb:course>34.620000</gpxhb:course></extensions></trkpt><trkpt lat="25.056691542269043" lon="121.7971514967353"><ele>192.42756576049254</ele><time>2024-06-23T06:50:15Z</time><src>Hikingbook</src><extensions><gpxhb:speed>0.410000</gpxhb:speed><gpxhb:course>247.200000</gpxhb:course></extensions></trkpt><trkpt lat="25.056545121265174" lon="121.79697304983154"><ele>191.7212898266303</ele><time>2024-06-23T06:51:05Z</time><src>Hikingbook</src><extensions><gpxhb:speed>0.740000</gpxhb:speed><gpxhb:course>239.430000</gpxhb:course></extensions></trkpt><trkpt lat="25.05654292486435" lon="121.79674188590707"><ele>206.76014310872512</ele><time>2024-06-23T06:52:20Z</time><src>Hikingbook</src><extensions><gpxhb:speed>0.470000</gpxhb:speed><gpxhb:course>338.340000</gpxhb:course></extensions></trkpt><trkpt lat="25.05661398916801" lon="121.79683470277266"><ele>207.8100336246393</ele><time>2024-06-23T06:52:39Z</time><src>Hikingbook</src><extensions><gpxhb:speed>0.690000</gpxhb:speed><gpxhb:course>11.880000</gpxhb:course></extensions></trkpt><trkpt lat="25.056567849159755" lon="121.79685857984353"><ele>201.4811894618038</ele><time>2024-06-23T06:55:23Z</time><src>Hikingbook</src><extensions><gpxhb:speed>0.000000</gpxhb:speed><gpxhb:course>310.470000</gpxhb:course></extensions></trkpt><trkpt lat="25.056681930250548" lon="121.79689556811506"><ele>199.95367547073383</ele><time>2024-06-23T06:57:16Z</time><src>Hikingbook</src><extensions><gpxhb:speed>0.980000</gpxhb:speed><gpxhb:course>2.350000</gpxhb:course></extensions></trkpt><trkpt lat="25.056624724014405" lon="121.79684689601338"><ele>197.14409753185018</ele><time>2024-06-23T06:58:31Z</time><src>Hikingbook</src><extensions><gpxhb:speed>0.000000</gpxhb:speed><gpxhb:course>1.090000</gpxhb:course></extensions></trkpt><trkpt lat="25.056685880788546" lon="121.79690306532524"><ele>198.24530346344022</ele><time>2024-06-23T07:02:45Z</time><src>Hikingbook</src><extensions><gpxhb:speed>0.000000</gpxhb:speed><gpxhb:course>52.580000</gpxhb:course></extensions></trkpt><trkpt lat="25.056613658624833" lon="121.7969432246746"><ele>199.42155341895867</ele><time>2024-06-23T07:04:17Z</time><src>Hikingbook</src><extensions><gpxhb:speed>0.000000</gpxhb:speed><gpxhb:course>93.210000</gpxhb:course></extensions></trkpt><trkpt lat="25.056800541936585" lon="121.79690082024234"><ele>212.09938056383038</ele><time>2024-06-23T07:07:44Z</time><src>Hikingbook</src><extensions><gpxhb:speed>0.000000</gpxhb:speed><gpxhb:course>219.860000</gpxhb:course></extensions></trkpt><trkpt lat="25.056884266906135" lon="121.79707051546374"><ele>216.2594731877173</ele><time>2024-06-23T07:09:08Z</time><src>Hikingbook</src><extensions><gpxhb:speed>0.000000</gpxhb:speed><gpxhb:course>148.890000</gpxhb:course></extensions></trkpt><trkpt lat="25.056757556453995" lon="121.79668043533974"><ele>218.72895207878025</ele><time>2024-06-23T07:10:32Z</time><src>Hikingbook</src><extensions><gpxhb:speed>0.870000</gpxhb:speed><gpxhb:course>281.870000</gpxhb:course></extensions></trkpt><trkpt lat="25.056651607784964" lon="121.79659393111035"><ele>222.67885737260565</ele><time>2024-06-23T07:10:48Z</time><src>Hikingbook</src><extensions><gpxhb:speed>0.980000</gpxhb:speed><gpxhb:course>212.460000</gpxhb:course></extensions></trkpt><trkpt lat="25.0565401814538" lon="121.79660616377795"><ele>216.05280823591258</ele><time>2024-06-23T07:11:12Z</time><src>Hikingbook</src><extensions><gpxhb:speed>1.280000</gpxhb:speed><gpxhb:course>157.280000</gpxhb:course></extensions></trkpt><trkpt lat="25.056479760415534" lon="121.79649565593628"><ele>212.79666464044897</ele><time>2024-06-23T07:11:44Z</time><src>Hikingbook</src><extensions><gpxhb:speed>0.000000</gpxhb:speed><gpxhb:course>234.850000</gpxhb:course></extensions></trkpt><trkpt lat="25.05649579373107" lon="121.79657872301682"><ele>212.85856517534768</ele><time>2024-06-23T07:12:58Z</time><src>Hikingbook</src><extensions><gpxhb:speed>0.000000</gpxhb:speed><gpxhb:course>123.870000</gpxhb:course></extensions></trkpt><trkpt lat="25.05636851567436" lon="121.79654519834968"><ele>206.38788330443387</ele><time>2024-06-23T07:14:22Z</time><src>Hikingbook</src><extensions><gpxhb:speed>0.940000</gpxhb:speed><gpxhb:course>206.260000</gpxhb:course></extensions></trkpt><trkpt lat="25.05639618447497" lon="121.79650887150758"><ele>205.43395006654075</ele><time>2024-06-23T07:14:38Z</time><src>Hikingbook</src><extensions><gpxhb:speed>0.470000</gpxhb:speed><gpxhb:course>196.380000</gpxhb:course></extensions></trkpt><trkpt lat="25.056410935028126" lon="121.79656467681339"><ele>212.3704244049327</ele><time>2024-06-23T07:19:53Z</time><src>Hikingbook</src><extensions><gpxhb:speed>0.000000</gpxhb:speed><gpxhb:course>39.630000</gpxhb:course></extensions></trkpt></trkseg><trkseg><trkpt lat="25.056410935028126" lon="121.79656467681339"><ele>212.3704244049327</ele><time>2024-06-23T09:11:45Z</time><src>Hikingbook</src><extensions><gpxhb:speed>0.000000</gpxhb:speed><gpxhb:course>39.630000</gpxhb:course></extensions></trkpt><trkpt lat="25.056378467795707" lon="121.79621083912863"><ele>222.0125170056557</ele><time>2024-06-23T09:11:58Z</time><src>Hikingbook</src><extensions><gpxhb:speed>0.390000</gpxhb:speed><gpxhb:course>260.040000</gpxhb:course></extensions></trkpt><trkpt lat="25.056141093916946" lon="121.79575401362426"><ele>217.7050685681649</ele><time>2024-06-23T09:13:49Z</time><src>Hikingbook</src><extensions><gpxhb:speed>1.720000</gpxhb:speed><gpxhb:course>241.730000</gpxhb:course></extensions></trkpt><trkpt lat="25.056187841457163" lon="121.79555605488744"><ele>210.2488953968049</ele><time>2024-06-23T09:14:11Z</time><src>Hikingbook</src><extensions><gpxhb:speed>0.000000</gpxhb:speed><gpxhb:course>207.580000</gpxhb:course></extensions></trkpt><trkpt lat="25.0561536902851" lon="121.7953397606885"><ele>205.50602413897323</ele><time>2024-06-23T09:15:12Z</time><src>Hikingbook</src><extensions><gpxhb:speed>0.570000</gpxhb:speed><gpxhb:course>291.060000</gpxhb:course></extensions></trkpt><trkpt lat="25.05649379125511" lon="121.79513455197426"><ele>215.51089629958116</ele><time>2024-06-23T09:16:35Z</time><src>Hikingbook</src><extensions><gpxhb:speed>0.770000</gpxhb:speed><gpxhb:course>301.700000</gpxhb:course></extensions></trkpt><trkpt lat="25.056560041055867" lon="121.79485548058422"><ele>215.19055112699306</ele><time>2024-06-23T09:18:06Z</time><src>Hikingbook</src><extensions><gpxhb:speed>0.000000</gpxhb:speed><gpxhb:course>269.750000</gpxhb:course></extensions></trkpt><trkpt lat="25.05644743521473" lon="121.79473229762591"><ele>220.39850080225972</ele><time>2024-06-23T09:20:36Z</time><src>Hikingbook</src><extensions><gpxhb:speed>0.000000</gpxhb:speed><gpxhb:course>-1.000000</gpxhb:course></extensions></trkpt><trkpt lat="25.056186143539033" lon="121.79479707493189"><ele>231.04064383880055</ele><time>2024-06-23T09:22:34Z</time><src>Hikingbook</src><extensions><gpxhb:speed>0.550000</gpxhb:speed><gpxhb:course>133.280000</gpxhb:course></extensions></trkpt><trkpt lat="25.056274938162012" lon="121.79453939762675"><ele>232.93417248288821</ele><time>2024-06-23T09:23:32Z</time><src>Hikingbook</src><extensions><gpxhb:speed>0.550000</gpxhb:speed><gpxhb:course>304.880000</gpxhb:course></extensions></trkpt><trkpt lat="25.056464983808343" lon="121.79442890696215"><ele>229.7281552303434</ele><time>2024-06-23T09:24:02Z</time><src>Hikingbook</src><extensions><gpxhb:speed>0.500000</gpxhb:speed><gpxhb:course>322.580000</gpxhb:course></extensions></trkpt><trkpt lat="25.056607720129424" lon="121.79423522867489"><ele>234.5502919891881</ele><time>2024-06-23T09:25:19Z</time><src>Hikingbook</src><extensions><gpxhb:speed>0.610000</gpxhb:speed><gpxhb:course>314.880000</gpxhb:course></extensions></trkpt></trkseg></trk></gpx>