<?xml version="1.0" encoding="UTF-8"?>
<gpx version="1.1" creator="Hikingbook" xmlns:xsi="http://www.w3.org/2001/XMLSchema-instance" xmlns="http://www.topografix.com/GPX/1/1" xsi:schemaLocation="http://www.topografix.com/GPX/1/1 https://www.topografix.com/GPX/1/1/gpx.xsd https://hikingbook.net/xmlschemas/1/5 https:/hikingbook.net/xmlschemas/1/5/gpxhb.xsd" xmlns:gpxhb="https://hikingbook.net/xmlschemas/1/5"><metadata><name>🪢馬里光-中段(2024-12-28）-「溪降」［🇹🇼新竹-尖石］</name><desc>個人裝備：&#xA;個人技術裝備、頭盔、溯溪鞋&#xA;無線電(主頻144.000，副頻442.2600)&#xA;拋棄扁帶3-5米(有就帶)&#xA;Oring、梅隆各1(有就帶)&#xA;空繩袋、活動板手(有就帶)&#xA;救生衣、防寒衣&#xA;雨衣、頭燈(每次出隊必帶，無論是否過夜。)&#xA;背包除個人裝備，餘下空間至少要可容納60米繩子。&#xA;自備飲食。&#xA;——————————————&#xA;工裝&#xA;1組：&#xA;Jimce、小吳&#xA;Jimce 100米 9mm&#xA;&#xA;鬼仔 65米 8.5mm+ 50米 7.5mm&#xA;小吳電鑽+5金&#xA;對講機 1組&#xA;&#xA;2組&#xA;鬼仔、朱朱、家航&#xA;鬼仔 65米 8.5mm+ 50米 7.5mm&#xA;朱 30米  拍照+幫背輕之類的&#xA;家航120米 9mm&#xA;對講機 1組&#xA;&#xA;——————————————&#xA;早上6:30集合點&#xA;https://maps.app.goo.gl/MxiJfyrH6m2xtp8UA?g_st=com.google.maps.preview.copy&#xA;&#xA;早上6: 45 B車停車處&#xA;https://maps.app.goo.gl/xWYzLH9roXEPkwHv9?g_st=com.google.maps.preview.copy&#xA;&#xA;早上07:10 A車停車處&#xA;https://maps.app.goo.gl/NxgqXjNPFBSs7r7h6?g_st=com.google.maps.preview.copy&#xA;&#xA;&#xA;</desc><author><name>Hikingbook</name><link href="https://hikingbook.net"><text>Hikingbook</text></link></author><link href="https://hikingbook.net/hikes/2024-12-28-%E6%99%A8%E9%96%93%E9%87%8D%E8%A3%9D%E7%99%BB%E5%B1%B1-%E9%A6%AC%E9%87%8C%E5%85%89%E7%80%91%E5%B8%83%E6%AD%A5%E9%81%93-309a543b"><text>Hikingbook</text></link><time>2026-07-12T21:48:57.069210389+08:00</time><keywords>Hikingbook,EzLife,台灣,Taiwan ,馬里光,新竹,尖石,Caonnying ,溪降</keywords><extensions><gpxhb:postscript>溫度：7度
寒流來臨 ，一群瘋子垂降，5mm濕式防寒衣還是擋不住，每個人都在一直抖。

晚上去野彥家煮飯烤肉聊天💬，一天最幸福的時光😹</gpxhb:postscript><gpxhb:loadweight>5.0</gpxhb:loadweight><gpxhb:fitnesslevel>1</gpxhb:fitnesslevel><gpxhb:activitytype>others</gpxhb:activitytype><gpxhb:trailid>854b80cb-8516-41c3-92b2-71b3d5e51b0c</gpxhb:trailid><gpxhb:trackimageurl>https://assets.hikingbook.net/users/60w3wu1it91y2jmwdxciziq/qliy0wqnrgguqznd2jloqq/6446fba1-7f0e-43e5-81b2-99a8b871f641.jpg</gpxhb:trackimageurl><gpxhb:device>Apple iPhone 13 Pro</gpxhb:device><gpxhb:source>Hikingbook</gpxhb:source></extensions></metadata><wpt lat="24.644854883686307" lon="121.34390344854569"><ele>1423</ele><time>2024-12-28T00:03:05Z</time><name>00 停車點A「開始」 </name><cmt>2024-12-28T08:03:05+08:00</cmt><desc>00 停車點A「開始」 </desc><src>Hikingbook</src><link href="https://hikingbook.net/hikes/qLIY0WqnRGGUqznd2JloQQ"><text>Hikingbook</text></link><extensions><gpxhb:weather>Clear</gpxhb:weather><gpxhb:speed>0.000000</gpxhb:speed><gpxhb:course>-1.000000</gpxhb:course></extensions></wpt><wpt lat="24.63392764303825" lon="121.34072967045041"><ele>1421</ele><time>2024-12-28T00:40:06Z</time><name>01 W1(L+R)*1 -10m</name><cmt>2024-12-28T08:40:06+08:00</cmt><desc>01 W1(L+R)*1 -10m</desc><src>Hikingbook</src><link href="https://hikingbook.net/hikes/qLIY0WqnRGGUqznd2JloQQ"><text>Hikingbook</text></link><extensions><gpxhb:weather>Clear</gpxhb:weather><gpxhb:speed>0.000000</gpxhb:speed><gpxhb:course>173.251854</gpxhb:course></extensions></wpt><wpt lat="24.63392341017004" lon="121.34068376441675"><ele>1415</ele><time>2024-12-28T01:10:00Z</time><name>02 W1(M)*2-50m</name><cmt>2024-12-28T09:10:00+08:00</cmt><desc>02 W1(M)*2-50m</desc><src>Hikingbook</src><link href="https://hikingbook.net/hikes/qLIY0WqnRGGUqznd2JloQQ"><text>Hikingbook</text></link><extensions><gpxhb:weather>Clear</gpxhb:weather><gpxhb:speed>-1.000000</gpxhb:speed><gpxhb:course>-1.000000</gpxhb:course></extensions></wpt><wpt lat="24.633964402624063" lon="121.34012647915756"><ele>1354</ele><time>2024-12-28T01:33:05Z</time><name>03 W2(M)*1-6m</name><cmt>2024-12-28T09:33:05+08:00</cmt><desc>03 W2(M)*1-6m</desc><src>Hikingbook</src><link href="https://hikingbook.net/hikes/qLIY0WqnRGGUqznd2JloQQ"><text>Hikingbook</text></link><extensions><gpxhb:weather>Clear</gpxhb:weather><gpxhb:speed>0.000000</gpxhb:speed><gpxhb:course>-1.000000</gpxhb:course></extensions></wpt><wpt lat="24.634197293803684" lon="121.33981282834088"><ele>1339</ele><time>2024-12-28T02:12:37Z</time><name>04 W3(R)*1-5m</name><cmt>2024-12-28T10:12:37+08:00</cmt><desc>04 W3(R)*1-5m</desc><src>Hikingbook</src><link href="https://hikingbook.net/hikes/qLIY0WqnRGGUqznd2JloQQ"><text>Hikingbook</text></link><extensions><gpxhb:weather>Clear</gpxhb:weather><gpxhb:speed>0.000000</gpxhb:speed><gpxhb:course>90.000000</gpxhb:course></extensions></wpt><wpt lat="24.63531984559019" lon="121.33864208664484"><ele>1253</ele><time>2024-12-28T02:36:49Z</time><name>05 W4(R)*1-2m</name><cmt>2024-12-28T10:36:49+08:00</cmt><desc>05 W4(R)*1-2m</desc><src>Hikingbook</src><link href="https://hikingbook.net/hikes/qLIY0WqnRGGUqznd2JloQQ"><text>Hikingbook</text></link><extensions><gpxhb:weather>Clear</gpxhb:weather><gpxhb:speed>0.000000</gpxhb:speed><gpxhb:course>54.565612</gpxhb:course></extensions></wpt><wpt lat="24.637558663053365" lon="121.33697007065001"><ele>1175</ele><time>2024-12-28T03:01:16Z</time><name>06 死掉山羌，高繞出口點</name><cmt>2024-12-28T11:01:16+08:00</cmt><desc>06 死掉山羌，高繞出口點</desc><src>Hikingbook</src><link href="https://hikingbook.net/hikes/qLIY0WqnRGGUqznd2JloQQ"><text>Hikingbook</text></link><extensions><gpxhb:weather>Clear</gpxhb:weather><gpxhb:speed>0.000000</gpxhb:speed><gpxhb:course>350.562332</gpxhb:course></extensions></wpt><wpt lat="24.639954469532654" lon="121.33441520032875"><ele>1164</ele><time>2024-12-28T03:44:15Z</time><name>07 W5(L)*1-10m</name><cmt>2024-12-28T11:44:15+08:00</cmt><desc>07 W5(L)*1-10m</desc><src>Hikingbook</src><link href="https://hikingbook.net/hikes/qLIY0WqnRGGUqznd2JloQQ"><text>Hikingbook</text></link><extensions><gpxhb:weather>Clear</gpxhb:weather><gpxhb:speed>0.000000</gpxhb:speed><gpxhb:course>20.600046</gpxhb:course></extensions></wpt><wpt lat="24.64034788233795" lon="121.33439886061014"><ele>1105</ele><time>2024-12-28T03:58:55Z</time><name>08 W6(R)*1-8m-D7m</name><cmt>2024-12-28T11:58:55+08:00</cmt><desc>08 W6(R)*1-8m-D7m</desc><src>Hikingbook</src><link href="https://hikingbook.net/hikes/qLIY0WqnRGGUqznd2JloQQ"><text>Hikingbook</text></link><extensions><gpxhb:weather>Clear</gpxhb:weather><gpxhb:speed>0.000000</gpxhb:speed><gpxhb:course>32.912337</gpxhb:course></extensions></wpt><wpt lat="24.64029213097621" lon="121.33439949614352"><ele>1100</ele><time>2024-12-28T05:29:07Z</time><name>09 吃飯完畢續行</name><cmt>2024-12-28T13:29:07+08:00</cmt><desc>09 吃飯完畢續行</desc><src>Hikingbook</src><link href="https://hikingbook.net/hikes/qLIY0WqnRGGUqznd2JloQQ"><text>Hikingbook</text></link><extensions><gpxhb:weather>Clear</gpxhb:weather><gpxhb:speed>0.197356</gpxhb:speed><gpxhb:course>-1.000000</gpxhb:course></extensions></wpt><wpt lat="24.64074616945842" lon="121.33466151742499"><ele>1162</ele><time>2024-12-28T05:30:10Z</time><name>10 W7(L)*2-6m</name><cmt>2024-12-28T13:30:10+08:00</cmt><desc>10 W7(L)*2-6m</desc><src>Hikingbook</src><link href="https://hikingbook.net/hikes/qLIY0WqnRGGUqznd2JloQQ"><text>Hikingbook</text></link><extensions><gpxhb:weather>Clear</gpxhb:weather><gpxhb:speed>0.244936</gpxhb:speed><gpxhb:course>-1.000000</gpxhb:course></extensions></wpt><wpt lat="24.6409" lon="121.33458"><ele>1160</ele><time>2024-12-28T06:10:00Z</time><name>11 W7(L)T1*1-50m</name><cmt>2024-12-28T14:10:00+08:00</cmt><desc>11 W7(L)T1*1-50m</desc><src>Hikingbook</src><link href="https://hikingbook.net/hikes/qLIY0WqnRGGUqznd2JloQQ"><text>Hikingbook</text></link><extensions><gpxhb:weather>Clear</gpxhb:weather><gpxhb:speed>-1.000000</gpxhb:speed><gpxhb:course>-1.000000</gpxhb:course></extensions></wpt><wpt lat="24.641050568632068" lon="121.33441553514018"><ele>1162</ele><time>2024-12-28T06:43:00Z</time><name>12 W7(L)T2*2-25m-Dm</name><cmt>2024-12-28T14:43:00+08:00</cmt><desc>12 W7(L)T2*2-25m-Dm</desc><src>Hikingbook</src><link href="https://hikingbook.net/hikes/qLIY0WqnRGGUqznd2JloQQ"><text>Hikingbook</text></link><extensions><gpxhb:weather>Clear</gpxhb:weather><gpxhb:speed>-1.000000</gpxhb:speed><gpxhb:course>-1.000000</gpxhb:course></extensions></wpt><wpt lat="24.641152962939813" lon="121.33419827620833"><ele>1140</ele><time>2024-12-28T07:52:00Z</time><name>13 上切步道入口</name><cmt>2024-12-28T15:52:00+08:00</cmt><desc>13 上切步道入口</desc><src>Hikingbook</src><link href="https://hikingbook.net/hikes/qLIY0WqnRGGUqznd2JloQQ"><text>Hikingbook</text></link><extensions><gpxhb:weather>Clear</gpxhb:weather><gpxhb:speed>-1.000000</gpxhb:speed><gpxhb:course>-1.000000</gpxhb:course></extensions></wpt><wpt lat="24.645889300000007" lon="121.338564"><ele>1083</ele><time>2024-12-28T08:11:00Z</time><name>14 停車點B「結束」 </name><cmt>2024-12-28T16:11:00+08:00</cmt><desc>14 停車點B「結束」 </desc><src>Hikingbook</src><link href="https://hikingbook.net/hikes/qLIY0WqnRGGUqznd2JloQQ"><text>Hikingbook</text></link><extensions><gpxhb:weather>Clear</gpxhb:weather><gpxhb:speed>-1.000000</gpxhb:speed><gpxhb:course>-1.000000</gpxhb:course></extensions></wpt><trk><name>🪢馬里光-中段(2024-12-28）-「溪降」［🇹🇼新竹-尖石］</name><cmt>個人裝備：&#xA;個人技術裝備、頭盔、溯溪鞋&#xA;無線電(主頻144.000，副頻442.2600)&#xA;拋棄扁帶3-5米(有就帶)&#xA;Oring、梅隆各1(有就帶)&#xA;空繩袋、活動板手(有就帶)&#xA;救生衣、防寒衣&#xA;雨衣、頭燈(每次出隊必帶，無論是否過夜。)&#xA;背包除個人裝備，餘下空間至少要可容納60米繩子。&#xA;自備飲食。&#xA;——————————————&#xA;工裝&#xA;1組：&#xA;Jimce、小吳&#xA;Jimce 100米 9mm&#xA;&#xA;鬼仔 65米 8.5mm+ 50米 7.5mm&#xA;小吳電鑽+5金&#xA;對講機 1組&#xA;&#xA;2組&#xA;鬼仔、朱朱、家航&#xA;鬼仔 65米 8.5mm+ 50米 7.5mm&#xA;朱 30米  拍照+幫背輕之類的&#xA;家航120米 9mm&#xA;對講機 1組&#xA;&#xA;——————————————&#xA;早上6:30集合點&#xA;https://maps.app.goo.gl/MxiJfyrH6m2xtp8UA?g_st=com.google.maps.preview.copy&#xA;&#xA;早上6: 45 B車停車處&#xA;https://maps.app.goo.gl/xWYzLH9roXEPkwHv9?g_st=com.google.maps.preview.copy&#xA;&#xA;早上07:10 A車停車處&#xA;https://maps.app.goo.gl/NxgqXjNPFBSs7r7h6?g_st=com.google.maps.preview.copy&#xA;&#xA;&#xA;</cmt><desc>個人裝備：&#xA;個人技術裝備、頭盔、溯溪鞋&#xA;無線電(主頻144.000，副頻442.2600)&#xA;拋棄扁帶3-5米(有就帶)&#xA;Oring、梅隆各1(有就帶)&#xA;空繩袋、活動板手(有就帶)&#xA;救生衣、防寒衣&#xA;雨衣、頭燈(每次出隊必帶，無論是否過夜。)&#xA;背包除個人裝備，餘下空間至少要可容納60米繩子。&#xA;自備飲食。&#xA;——————————————&#xA;工裝&#xA;1組：&#xA;Jimce、小吳&#xA;Jimce 100米 9mm&#xA;&#xA;鬼仔 65米 8.5mm+ 50米 7.5mm&#xA;小吳電鑽+5金&#xA;對講機 1組&#xA;&#xA;2組&#xA;鬼仔、朱朱、家航&#xA;鬼仔 65米 8.5mm+ 50米 7.5mm&#xA;朱 30米  拍照+幫背輕之類的&#xA;家航120米 9mm&#xA;對講機 1組&#xA;&#xA;——————————————&#xA;早上6:30集合點&#xA;https://maps.app.goo.gl/MxiJfyrH6m2xtp8UA?g_st=com.google.maps.preview.copy&#xA;&#xA;早上6: 45 B車停車處&#xA;https://maps.app.goo.gl/xWYzLH9roXEPkwHv9?g_st=com.google.maps.preview.copy&#xA;&#xA;早上07:10 A車停車處&#xA;https://maps.app.goo.gl/NxgqXjNPFBSs7r7h6?g_st=com.google.maps.preview.copy&#xA;&#xA;&#xA;</desc><src>Hikingbook</src><link href="https://hikingbook.net/hikes/2024-12-28-%E6%99%A8%E9%96%93%E9%87%8D%E8%A3%9D%E7%99%BB%E5%B1%B1-%E9%A6%AC%E9%87%8C%E5%85%89%E7%80%91%E5%B8%83%E6%AD%A5%E9%81%93-309a543b"><text>Hikingbook</text></link><trkseg><trkpt lat="24.64482561886238" lon="121.34371945064845"><ele>1423.1722214337406</ele><time>2024-12-28T00:03:07Z</time><src>Hikingbook</src><extensions><gpxhb:speed>0.000000</gpxhb:speed><gpxhb:course>-1.000000</gpxhb:course></extensions></trkpt><trkpt lat="24.644868022296116" lon="121.343922689119"><ele>1378.1077903215257</ele><time>2024-12-28T00:03:15Z</time><src>Hikingbook</src><extensions><gpxhb:speed>0.000000</gpxhb:speed><gpxhb:course>234.843750</gpxhb:course></extensions></trkpt><trkpt lat="24.644520082564664" lon="121.3437236403913"><ele>1395.4974535102765</ele><time>2024-12-28T00:04:56Z</time><src>Hikingbook</src><extensions><gpxhb:speed>0.779139</gpxhb:speed><gpxhb:course>231.991450</gpxhb:course></extensions></trkpt><trkpt lat="24.6444427655589" lon="121.34358338754012"><ele>1395.2636318080374</ele><time>2024-12-28T00:05:28Z</time><src>Hikingbook</src><extensions><gpxhb:speed>0.783118</gpxhb:speed><gpxhb:course>234.442924</gpxhb:course></extensions></trkpt><trkpt lat="24.644242973281386" lon="121.34343253286822"><ele>1394.8777342645485</ele><time>2024-12-28T00:06:00Z</time><src>Hikingbook</src><extensions><gpxhb:speed>0.743668</gpxhb:speed><gpxhb:course>214.884812</gpxhb:course></extensions></trkpt><trkpt lat="24.644071507234933" lon="121.34339857969104"><ele>1395.1257568194326</ele><time>2024-12-28T00:06:22Z</time><src>Hikingbook</src><extensions><gpxhb:speed>0.978556</gpxhb:speed><gpxhb:course>182.863619</gpxhb:course></extensions></trkpt><trkpt lat="24.64398824939092" lon="121.3433192074338"><ele>1399.283076383498</ele><time>2024-12-28T00:06:40Z</time><src>Hikingbook</src><extensions><gpxhb:speed>1.127963</gpxhb:speed><gpxhb:course>196.522386</gpxhb:course></extensions></trkpt><trkpt lat="24.643980180632905" lon="121.34330264706746"><ele>1399.8802323934333</ele><time>2024-12-28T00:06:41Z</time><src>Hikingbook</src><extensions><gpxhb:speed>1.435303</gpxhb:speed><gpxhb:course>219.565282</gpxhb:course></extensions></trkpt><trkpt lat="24.64386610646956" lon="121.34315726158492"><ele>1401.107746569198</ele><time>2024-12-28T00:07:04Z</time><src>Hikingbook</src><extensions><gpxhb:speed>0.730128</gpxhb:speed><gpxhb:course>227.277720</gpxhb:course></extensions></trkpt><trkpt lat="24.64384227793958" lon="121.34299832772211"><ele>1398.4678495437283</ele><time>2024-12-28T00:07:24Z</time><src>Hikingbook</src><extensions><gpxhb:speed>1.041347</gpxhb:speed><gpxhb:course>303.364635</gpxhb:course></extensions></trkpt><trkpt lat="24.643534361584106" lon="121.34290859985224"><ele>1400.5465580116738</ele><time>2024-12-28T00:07:58Z</time><src>Hikingbook</src><extensions><gpxhb:speed>0.771348</gpxhb:speed><gpxhb:course>188.824050</gpxhb:course></extensions></trkpt><trkpt lat="24.64347867285173" lon="121.34248023217397"><ele>1404.5441958357567</ele><time>2024-12-28T00:08:52Z</time><src>Hikingbook</src><extensions><gpxhb:speed>0.146532</gpxhb:speed><gpxhb:course>247.980442</gpxhb:course></extensions></trkpt><trkpt lat="24.64347710795977" lon="121.34247338836275"><ele>1404.4381146236944</ele><time>2024-12-28T00:08:53Z</time><src>Hikingbook</src><extensions><gpxhb:speed>0.219738</gpxhb:speed><gpxhb:course>247.980442</gpxhb:course></extensions></trkpt><trkpt lat="24.64349231980363" lon="121.34240038983913"><ele>1401.7491938662774</ele><time>2024-12-28T00:09:00Z</time><src>Hikingbook</src><extensions><gpxhb:speed>1.032281</gpxhb:speed><gpxhb:course>274.506062</gpxhb:course></extensions></trkpt><trkpt lat="24.643306078277444" lon="121.34223170641576"><ele>1397.8689010900462</ele><time>2024-12-28T00:09:27Z</time><src>Hikingbook</src><extensions><gpxhb:speed>1.616703</gpxhb:speed><gpxhb:course>195.210311</gpxhb:course></extensions></trkpt><trkpt lat="24.643225914326617" lon="121.34202699670637"><ele>1398.625499746373</ele><time>2024-12-28T00:09:42Z</time><src>Hikingbook</src><extensions><gpxhb:speed>1.415295</gpxhb:speed><gpxhb:course>224.249392</gpxhb:course></extensions></trkpt><trkpt lat="24.64302652841338" lon="121.34189123195097"><ele>1399.322939589726</ele><time>2024-12-28T00:10:04Z</time><src>Hikingbook</src><extensions><gpxhb:speed>1.085801</gpxhb:speed><gpxhb:course>214.883142</gpxhb:course></extensions></trkpt><trkpt lat="24.642915293534493" lon="121.34216817369922"><ele>1397.6894923261623</ele><time>2024-12-28T00:10:23Z</time><src>Hikingbook</src><extensions><gpxhb:speed>1.124103</gpxhb:speed><gpxhb:course>114.015308</gpxhb:course></extensions></trkpt><trkpt lat="24.64271017124361" lon="121.34211614042266"><ele>1404.9281708769086</ele><time>2024-12-28T00:10:41Z</time><src>Hikingbook</src><extensions><gpxhb:speed>0.709642</gpxhb:speed><gpxhb:course>180.098017</gpxhb:course></extensions></trkpt><trkpt lat="24.64257321784579" lon="121.34226282919592"><ele>1405.1497674213576</ele><time>2024-12-28T00:10:59Z</time><src>Hikingbook</src><extensions><gpxhb:speed>0.883296</gpxhb:speed><gpxhb:course>96.658768</gpxhb:course></extensions></trkpt><trkpt lat="24.64239606375733" lon="121.34220988804555"><ele>1405.088590852735</ele><time>2024-12-28T00:11:14Z</time><src>Hikingbook</src><extensions><gpxhb:speed>1.026376</gpxhb:speed><gpxhb:course>183.903189</gpxhb:course></extensions></trkpt><trkpt lat="24.642314837755684" lon="121.34218587772762"><ele>1404.1971152363817</ele><time>2024-12-28T00:11:19Z</time><src>Hikingbook</src><extensions><gpxhb:speed>1.810577</gpxhb:speed><gpxhb:course>181.746731</gpxhb:course></extensions></trkpt><trkpt lat="24.64216952123095" lon="121.34233243619444"><ele>1404.157269454278</ele><time>2024-12-28T00:11:40Z</time><src>Hikingbook</src><extensions><gpxhb:speed>0.629002</gpxhb:speed><gpxhb:course>129.017138</gpxhb:course></extensions></trkpt><trkpt lat="24.64216289235739" lon="121.34220397930422"><ele>1399.1967806164896</ele><time>2024-12-28T00:12:16Z</time><src>Hikingbook</src><extensions><gpxhb:speed>0.136412</gpxhb:speed><gpxhb:course>117.133136</gpxhb:course></extensions></trkpt><trkpt lat="24.64195176070894" lon="121.34215379992582"><ele>1401.1416419755208</ele><time>2024-12-28T00:12:37Z</time><src>Hikingbook</src><extensions><gpxhb:speed>0.784056</gpxhb:speed><gpxhb:course>204.494863</gpxhb:course></extensions></trkpt><trkpt lat="24.64185900305906" lon="121.34201993868122"><ele>1404.2557324638108</ele><time>2024-12-28T00:13:10Z</time><src>Hikingbook</src><extensions><gpxhb:speed>0.683718</gpxhb:speed><gpxhb:course>247.984724</gpxhb:course></extensions></trkpt><trkpt lat="24.641920660257433" lon="121.3419090266297"><ele>1402.7733386859124</ele><time>2024-12-28T00:13:28Z</time><src>Hikingbook</src><extensions><gpxhb:speed>0.036514</gpxhb:speed><gpxhb:course>258.221085</gpxhb:course></extensions></trkpt><trkpt lat="24.641788774331637" lon="121.34165382196882"><ele>1400.9420333393864</ele><time>2024-12-28T00:13:59Z</time><src>Hikingbook</src><extensions><gpxhb:speed>1.644693</gpxhb:speed><gpxhb:course>249.330015</gpxhb:course></extensions></trkpt><trkpt lat="24.64162746655943" lon="121.34157178662333"><ele>1400.8875170550518</ele><time>2024-12-28T00:14:17Z</time><src>Hikingbook</src><extensions><gpxhb:speed>0.908324</gpxhb:speed><gpxhb:course>231.734686</gpxhb:course></extensions></trkpt><trkpt lat="24.641617194871408" lon="121.34157361347685"><ele>1401.2259218204306</ele><time>2024-12-28T00:14:18Z</time><src>Hikingbook</src><extensions><gpxhb:speed>0.869050</gpxhb:speed><gpxhb:course>224.456306</gpxhb:course></extensions></trkpt><trkpt lat="24.641649118438046" lon="121.34134059396686"><ele>1405.338691930858</ele><time>2024-12-28T00:14:34Z</time><src>Hikingbook</src><extensions><gpxhb:speed>0.869866</gpxhb:speed><gpxhb:course>258.834066</gpxhb:course></extensions></trkpt><trkpt lat="24.641541379340257" lon="121.34124245291372"><ele>1399.4229529153918</ele><time>2024-12-28T00:14:58Z</time><src>Hikingbook</src><extensions><gpxhb:speed>1.459145</gpxhb:speed><gpxhb:course>235.007720</gpxhb:course></extensions></trkpt><trkpt lat="24.641634073665806" lon="121.34091420797354"><ele>1411.663600646587</ele><time>2024-12-28T00:15:30Z</time><src>Hikingbook</src><extensions><gpxhb:speed>0.683903</gpxhb:speed><gpxhb:course>309.276370</gpxhb:course></extensions></trkpt><trkpt lat="24.64178594926163" lon="121.34082910489546"><ele>1412.1047747251594</ele><time>2024-12-28T00:15:46Z</time><src>Hikingbook</src><extensions><gpxhb:speed>1.578823</gpxhb:speed><gpxhb:course>323.583932</gpxhb:course></extensions></trkpt><trkpt lat="24.641728538853506" lon="121.34062441336442"><ele>1410.8525598813405</ele><time>2024-12-28T00:16:04Z</time><src>Hikingbook</src><extensions><gpxhb:speed>1.111639</gpxhb:speed><gpxhb:course>277.576804</gpxhb:course></extensions></trkpt><trkpt lat="24.64177935828791" lon="121.34050943530302"><ele>1407.154848233539</ele><time>2024-12-28T00:16:22Z</time><src>Hikingbook</src><extensions><gpxhb:speed>0.201141</gpxhb:speed><gpxhb:course>270.123035</gpxhb:course></extensions></trkpt><trkpt lat="24.64179058091775" lon="121.34050659952293"><ele>1407.636239446836</ele><time>2024-12-28T00:16:24Z</time><src>Hikingbook</src><extensions><gpxhb:speed>0.490974</gpxhb:speed><gpxhb:course>270.123033</gpxhb:course></extensions></trkpt><trkpt lat="24.641856296826845" lon="121.34044044470726"><ele>1403.9503873555498</ele><time>2024-12-28T00:16:32Z</time><src>Hikingbook</src><extensions><gpxhb:speed>1.145144</gpxhb:speed><gpxhb:course>318.667448</gpxhb:course></extensions></trkpt><trkpt lat="24.641830208062263" lon="121.33997257045837"><ele>1404.6295044874198</ele><time>2024-12-28T00:17:11Z</time><src>Hikingbook</src><extensions><gpxhb:speed>0.974292</gpxhb:speed><gpxhb:course>260.300645</gpxhb:course></extensions></trkpt><trkpt lat="24.641706354458538" lon="121.33970149696344"><ele>1404.941220068564</ele><time>2024-12-28T00:17:32Z</time><src>Hikingbook</src><extensions><gpxhb:speed>1.046499</gpxhb:speed><gpxhb:course>240.187638</gpxhb:course></extensions></trkpt><trkpt lat="24.641530631930816" lon="121.33954544886561"><ele>1408.0368317319087</ele><time>2024-12-28T00:17:51Z</time><src>Hikingbook</src><extensions><gpxhb:speed>1.653466</gpxhb:speed><gpxhb:course>208.873262</gpxhb:course></extensions></trkpt><trkpt lat="24.641514272448756" lon="121.3395294565457"><ele>1408.4672085671946</ele><time>2024-12-28T00:17:52Z</time><src>Hikingbook</src><extensions><gpxhb:speed>1.873308</gpxhb:speed><gpxhb:course>220.704732</gpxhb:course></extensions></trkpt><trkpt lat="24.641558310446438" lon="121.33927786135408"><ele>1411.8260168593263</ele><time>2024-12-28T00:18:16Z</time><src>Hikingbook</src><extensions><gpxhb:speed>1.131320</gpxhb:speed><gpxhb:course>328.498852</gpxhb:course></extensions></trkpt><trkpt lat="24.64139099972217" lon="121.33904563064006"><ele>1407.314363715317</ele><time>2024-12-28T00:18:37Z</time><src>Hikingbook</src><extensions><gpxhb:speed>0.252686</gpxhb:speed><gpxhb:course>280.523753</gpxhb:course></extensions></trkpt><trkpt lat="24.641370939288716" lon="121.33886805452727"><ele>1405.1022973678353</ele><time>2024-12-28T00:18:56Z</time><src>Hikingbook</src><extensions><gpxhb:speed>1.135840</gpxhb:speed><gpxhb:course>281.085515</gpxhb:course></extensions></trkpt><trkpt lat="24.64120998804048" lon="121.33878194288327"><ele>1402.617128284188</ele><time>2024-12-28T00:19:20Z</time><src>Hikingbook</src><extensions><gpxhb:speed>1.523644</gpxhb:speed><gpxhb:course>237.672167</gpxhb:course></extensions></trkpt><trkpt lat="24.64122338936575" lon="121.33847489302529"><ele>1410.5840781173138</ele><time>2024-12-28T00:19:35Z</time><src>Hikingbook</src><extensions><gpxhb:speed>2.072817</gpxhb:speed><gpxhb:course>275.490844</gpxhb:course></extensions></trkpt><trkpt lat="24.641231068145817" lon="121.33844580936581"><ele>1412.0911640180918</ele><time>2024-12-28T00:19:40Z</time><src>Hikingbook</src><extensions><gpxhb:speed>0.667486</gpxhb:speed><gpxhb:course>275.770345</gpxhb:course></extensions></trkpt><trkpt lat="24.641276064532452" lon="121.3383714782947"><ele>1407.9227400760142</ele><time>2024-12-28T00:19:57Z</time><src>Hikingbook</src><extensions><gpxhb:speed>0.775684</gpxhb:speed><gpxhb:course>272.978866</gpxhb:course></extensions></trkpt><trkpt lat="24.641212889725672" lon="121.33791729347493"><ele>1405.7518346913525</ele><time>2024-12-28T00:20:30Z</time><src>Hikingbook</src><extensions><gpxhb:speed>1.092042</gpxhb:speed><gpxhb:course>252.852872</gpxhb:course></extensions></trkpt><trkpt lat="24.640945582792988" lon="121.33793222068854"><ele>1410.1263778732416</ele><time>2024-12-28T00:20:55Z</time><src>Hikingbook</src><extensions><gpxhb:speed>1.063413</gpxhb:speed><gpxhb:course>172.030688</gpxhb:course></extensions></trkpt><trkpt lat="24.64089752935032" lon="121.33781653641938"><ele>1414.8315922796985</ele><time>2024-12-28T00:21:18Z</time><src>Hikingbook</src><extensions><gpxhb:speed>0.000000</gpxhb:speed><gpxhb:course>259.653130</gpxhb:course></extensions></trkpt><trkpt lat="24.640612282975162" lon="121.3379323901779"><ele>1420.161840505302</ele><time>2024-12-28T00:21:56Z</time><src>Hikingbook</src><extensions><gpxhb:speed>0.465491</gpxhb:speed><gpxhb:course>168.111222</gpxhb:course></extensions></trkpt><trkpt lat="24.640463010435127" lon="121.33782154305756"><ele>1419.5018604711674</ele><time>2024-12-28T00:22:12Z</time><src>Hikingbook</src><extensions><gpxhb:speed>0.739905</gpxhb:speed><gpxhb:course>176.437473</gpxhb:course></extensions></trkpt><trkpt lat="24.6404365060812" lon="121.33779850808222"><ele>1419.0714750967497</ele><time>2024-12-28T00:22:14Z</time><src>Hikingbook</src><extensions><gpxhb:speed>0.946522</gpxhb:speed><gpxhb:course>203.457203</gpxhb:course></extensions></trkpt><trkpt lat="24.640358139136175" lon="121.33768241334147"><ele>1417.8594562349497</ele><time>2024-12-28T00:22:27Z</time><src>Hikingbook</src><extensions><gpxhb:speed>1.192761</gpxhb:speed><gpxhb:course>244.340884</gpxhb:course></extensions></trkpt><trkpt lat="24.640229129578767" lon="121.33772338174634"><ele>1416.1277359618339</ele><time>2024-12-28T00:22:43Z</time><src>Hikingbook</src><extensions><gpxhb:speed>0.373564</gpxhb:speed><gpxhb:course>233.389142</gpxhb:course></extensions></trkpt><trkpt lat="24.63994113300714" lon="121.33750109796256"><ele>1406.056597595494</ele><time>2024-12-28T00:23:20Z</time><src>Hikingbook</src><extensions><gpxhb:speed>0.759589</gpxhb:speed><gpxhb:course>214.229795</gpxhb:course></extensions></trkpt><trkpt lat="24.639791165554787" lon="121.33778288139055"><ele>1402.780721387714</ele><time>2024-12-28T00:23:44Z</time><src>Hikingbook</src><extensions><gpxhb:speed>1.609198</gpxhb:speed><gpxhb:course>101.815718</gpxhb:course></extensions></trkpt><trkpt lat="24.639641024695628" lon="121.33778902055202"><ele>1404.987153991817</ele><time>2024-12-28T00:24:00Z</time><src>Hikingbook</src><extensions><gpxhb:speed>1.254947</gpxhb:speed><gpxhb:course>186.607752</gpxhb:course></extensions></trkpt><trkpt lat="24.63963484725689" lon="121.33801569282969"><ele>1405.9524161988322</ele><time>2024-12-28T00:24:23Z</time><src>Hikingbook</src><extensions><gpxhb:speed>1.073418</gpxhb:speed><gpxhb:course>106.630516</gpxhb:course></extensions></trkpt><trkpt lat="24.6394853283608" lon="121.33817493204235"><ele>1409.8620154769778</ele><time>2024-12-28T00:24:39Z</time><src>Hikingbook</src><extensions><gpxhb:speed>1.323893</gpxhb:speed><gpxhb:course>117.389941</gpxhb:course></extensions></trkpt><trkpt lat="24.63953579951579" lon="121.33836173269367"><ele>1412.153405592487</ele><time>2024-12-28T00:24:55Z</time><src>Hikingbook</src><extensions><gpxhb:speed>0.863570</gpxhb:speed><gpxhb:course>91.639747</gpxhb:course></extensions></trkpt><trkpt lat="24.639402949356015" lon="121.33854012457758"><ele>1418.9630431751143</ele><time>2024-12-28T00:25:13Z</time><src>Hikingbook</src><extensions><gpxhb:speed>1.227338</gpxhb:speed><gpxhb:course>130.208094</gpxhb:course></extensions></trkpt><trkpt lat="24.63909178028529" lon="121.33863664843979"><ele>1418.218579976886</ele><time>2024-12-28T00:25:39Z</time><src>Hikingbook</src><extensions><gpxhb:speed>1.151300</gpxhb:speed><gpxhb:course>190.698766</gpxhb:course></extensions></trkpt><trkpt lat="24.63899906753946" lon="121.33880506013918"><ele>1417.8327052633483</ele><time>2024-12-28T00:25:53Z</time><src>Hikingbook</src><extensions><gpxhb:speed>0.966314</gpxhb:speed><gpxhb:course>133.731631</gpxhb:course></extensions></trkpt><trkpt lat="24.63879536708786" lon="121.33893113856989"><ele>1415.8915326598521</ele><time>2024-12-28T00:26:29Z</time><src>Hikingbook</src><extensions><gpxhb:speed>0.000000</gpxhb:speed><gpxhb:course>141.379267</gpxhb:course></extensions></trkpt><trkpt lat="24.638790609898244" lon="121.33894565031035"><ele>1415.9893127195662</ele><time>2024-12-28T00:26:44Z</time><src>Hikingbook</src><extensions><gpxhb:speed>0.490036</gpxhb:speed><gpxhb:course>146.580658</gpxhb:course></extensions></trkpt><trkpt lat="24.638748508263987" lon="121.33902509707815"><ele>1418.6114189557086</ele><time>2024-12-28T00:26:57Z</time><src>Hikingbook</src><extensions><gpxhb:speed>0.801901</gpxhb:speed><gpxhb:course>121.327007</gpxhb:course></extensions></trkpt><trkpt lat="24.638617345096847" lon="121.3389534704382"><ele>1417.2091941036465</ele><time>2024-12-28T00:27:13Z</time><src>Hikingbook</src><extensions><gpxhb:speed>0.869765</gpxhb:speed><gpxhb:course>134.909213</gpxhb:course></extensions></trkpt><trkpt lat="24.63863867229461" lon="121.33914156432584"><ele>1414.9162047027999</ele><time>2024-12-28T00:27:29Z</time><src>Hikingbook</src><extensions><gpxhb:speed>0.183342</gpxhb:speed><gpxhb:course>52.938375</gpxhb:course></extensions></trkpt><trkpt lat="24.63845169032409" lon="121.33915031823452"><ele>1413.0060848332723</ele><time>2024-12-28T00:27:44Z</time><src>Hikingbook</src><extensions><gpxhb:speed>0.800432</gpxhb:speed><gpxhb:course>111.879180</gpxhb:course></extensions></trkpt><trkpt lat="24.638145971504084" lon="121.33941179078873"><ele>1420.4709186505786</ele><time>2024-12-28T00:28:43Z</time><src>Hikingbook</src><extensions><gpxhb:speed>1.546175</gpxhb:speed><gpxhb:course>140.692065</gpxhb:course></extensions></trkpt><trkpt lat="24.637937005902845" lon="121.33948476036788"><ele>1417.7463861916115</ele><time>2024-12-28T00:29:05Z</time><src>Hikingbook</src><extensions><gpxhb:speed>2.053515</gpxhb:speed><gpxhb:course>159.661471</gpxhb:course></extensions></trkpt><trkpt lat="24.637913003581588" lon="121.33949386584548"><ele>1417.383546676247</ele><time>2024-12-28T00:29:08Z</time><src>Hikingbook</src><extensions><gpxhb:speed>1.336946</gpxhb:speed><gpxhb:course>149.018259</gpxhb:course></extensions></trkpt><trkpt lat="24.63785912495853" lon="121.33954635484567"><ele>1418.3099827073772</ele><time>2024-12-28T00:29:15Z</time><src>Hikingbook</src><extensions><gpxhb:speed>1.110099</gpxhb:speed><gpxhb:course>155.199684</gpxhb:course></extensions></trkpt><trkpt lat="24.637573060015757" lon="121.33943216040032"><ele>1414.856427981415</ele><time>2024-12-28T00:29:43Z</time><src>Hikingbook</src><extensions><gpxhb:speed>1.404931</gpxhb:speed><gpxhb:course>210.181438</gpxhb:course></extensions></trkpt><trkpt lat="24.637449135654474" lon="121.3392653655456"><ele>1415.9808251434315</ele><time>2024-12-28T00:29:59Z</time><src>Hikingbook</src><extensions><gpxhb:speed>1.407536</gpxhb:speed><gpxhb:course>216.173525</gpxhb:course></extensions></trkpt><trkpt lat="24.637320490860564" lon="121.33927036925581"><ele>1415.8886650637253</ele><time>2024-12-28T00:30:15Z</time><src>Hikingbook</src><extensions><gpxhb:speed>1.424062</gpxhb:speed><gpxhb:course>154.668121</gpxhb:course></extensions></trkpt><trkpt lat="24.637135010308917" lon="121.3390770717014"><ele>1412.3454610650283</ele><time>2024-12-28T00:30:39Z</time><src>Hikingbook</src><extensions><gpxhb:speed>1.212862</gpxhb:speed><gpxhb:course>239.740265</gpxhb:course></extensions></trkpt><trkpt lat="24.63698969794669" lon="121.33923097246007"><ele>1409.0436610705126</ele><time>2024-12-28T00:30:56Z</time><src>Hikingbook</src><extensions><gpxhb:speed>1.246912</gpxhb:speed><gpxhb:course>156.870948</gpxhb:course></extensions></trkpt><trkpt lat="24.636841045792067" lon="121.33926825405253"><ele>1413.1736921153895</ele><time>2024-12-28T00:31:12Z</time><src>Hikingbook</src><extensions><gpxhb:speed>0.330702</gpxhb:speed><gpxhb:course>166.471764</gpxhb:course></extensions></trkpt><trkpt lat="24.636662145464182" lon="121.33923423289811"><ele>1415.5861622233151</ele><time>2024-12-28T00:31:42Z</time><src>Hikingbook</src><extensions><gpxhb:speed>0.813265</gpxhb:speed><gpxhb:course>186.331551</gpxhb:course></extensions></trkpt><trkpt lat="24.63638645026391" lon="121.33929860847375"><ele>1414.6117326803374</ele><time>2024-12-28T00:32:07Z</time><src>Hikingbook</src><extensions><gpxhb:speed>1.219182</gpxhb:speed><gpxhb:course>170.747236</gpxhb:course></extensions></trkpt><trkpt lat="24.63615680450084" lon="121.339446278794"><ele>1412.1966639834884</ele><time>2024-12-28T00:32:30Z</time><src>Hikingbook</src><extensions><gpxhb:speed>0.992179</gpxhb:speed><gpxhb:course>141.950226</gpxhb:course></extensions></trkpt><trkpt lat="24.63597645638634" lon="121.33929543179202"><ele>1409.2146573600016</ele><time>2024-12-28T00:32:46Z</time><src>Hikingbook</src><extensions><gpxhb:speed>1.191572</gpxhb:speed><gpxhb:course>196.572733</gpxhb:course></extensions></trkpt><trkpt lat="24.636073677256075" lon="121.33955731492888"><ele>1404.5313656414899</ele><time>2024-12-28T00:33:04Z</time><src>Hikingbook</src><extensions><gpxhb:speed>1.356179</gpxhb:speed><gpxhb:course>69.301888</gpxhb:course></extensions></trkpt><trkpt lat="24.636037571527584" lon="121.33976257154016"><ele>1413.010415547995</ele><time>2024-12-28T00:33:20Z</time><src>Hikingbook</src><extensions><gpxhb:speed>0.909040</gpxhb:speed><gpxhb:course>89.202008</gpxhb:course></extensions></trkpt><trkpt lat="24.636028852346467" lon="121.33977363106125"><ele>1414.5846281938639</ele><time>2024-12-28T00:33:22Z</time><src>Hikingbook</src><extensions><gpxhb:speed>0.861138</gpxhb:speed><gpxhb:course>85.583191</gpxhb:course></extensions></trkpt><trkpt lat="24.6358467216759" lon="121.34030982219147"><ele>1419.364416071884</ele><time>2024-12-28T00:34:21Z</time><src>Hikingbook</src><extensions><gpxhb:speed>2.408711</gpxhb:speed><gpxhb:course>90.183294</gpxhb:course></extensions></trkpt><trkpt lat="24.635511361481573" lon="121.34027835816278"><ele>1420.812815276389</ele><time>2024-12-28T00:34:52Z</time><src>Hikingbook</src><extensions><gpxhb:speed>0.917996</gpxhb:speed><gpxhb:course>159.519016</gpxhb:course></extensions></trkpt><trkpt lat="24.63550237790255" lon="121.34033682606396"><ele>1417.0872686347054</ele><time>2024-12-28T00:35:08Z</time><src>Hikingbook</src><extensions><gpxhb:speed>0.196129</gpxhb:speed><gpxhb:course>88.461377</gpxhb:course></extensions></trkpt><trkpt lat="24.635297116302443" lon="121.34044401709482"><ele>1421.1829620697758</ele><time>2024-12-28T00:35:30Z</time><src>Hikingbook</src><extensions><gpxhb:speed>0.376482</gpxhb:speed><gpxhb:course>138.498785</gpxhb:course></extensions></trkpt><trkpt lat="24.635263913676926" lon="121.34047698726081"><ele>1422.6835633414873</ele><time>2024-12-28T00:35:33Z</time><src>Hikingbook</src><extensions><gpxhb:speed>0.978115</gpxhb:speed><gpxhb:course>134.488030</gpxhb:course></extensions></trkpt><trkpt lat="24.635144069481864" lon="121.34064287788439"><ele>1430.9256375369573</ele><time>2024-12-28T00:35:58Z</time><src>Hikingbook</src><extensions><gpxhb:speed>0.998787</gpxhb:speed><gpxhb:course>115.125838</gpxhb:course></extensions></trkpt><trkpt lat="24.635064621675134" lon="121.34063625375468"><ele>1431.80990855791</ele><time>2024-12-28T00:36:13Z</time><src>Hikingbook</src><extensions><gpxhb:speed>1.403766</gpxhb:speed><gpxhb:course>120.812462</gpxhb:course></extensions></trkpt><trkpt lat="24.635033222572122" lon="121.3405177906256"><ele>1429.9694803266475</ele><time>2024-12-28T00:36:34Z</time><src>Hikingbook</src><extensions><gpxhb:speed>0.202350</gpxhb:speed><gpxhb:course>113.456314</gpxhb:course></extensions></trkpt><trkpt lat="24.63477360696268" lon="121.34049308070765"><ele>1417.282839647747</ele><time>2024-12-28T00:37:04Z</time><src>Hikingbook</src><extensions><gpxhb:speed>1.512020</gpxhb:speed><gpxhb:course>161.554569</gpxhb:course></extensions></trkpt><trkpt lat="24.634740535021216" lon="121.34056434892513"><ele>1411.6786199933329</ele><time>2024-12-28T00:37:20Z</time><src>Hikingbook</src><extensions><gpxhb:speed>0.012247</gpxhb:speed><gpxhb:course>119.880271</gpxhb:course></extensions></trkpt><trkpt lat="24.6345949306852" lon="121.34058549232124"><ele>1407.4950822774836</ele><time>2024-12-28T00:37:56Z</time><src>Hikingbook</src><extensions><gpxhb:speed>0.656313</gpxhb:speed><gpxhb:course>115.890611</gpxhb:course></extensions></trkpt><trkpt lat="24.63445850292568" lon="121.34076572247795"><ele>1405.5403207028405</ele><time>2024-12-28T00:38:12Z</time><src>Hikingbook</src><extensions><gpxhb:speed>0.561627</gpxhb:speed><gpxhb:course>77.687084</gpxhb:course></extensions></trkpt><trkpt lat="24.634358763768144" lon="121.34055335054936"><ele>1402.993125137501</ele><time>2024-12-28T00:38:52Z</time><src>Hikingbook</src><extensions><gpxhb:speed>0.038437</gpxhb:speed><gpxhb:course>74.922880</gpxhb:course></extensions></trkpt><trkpt lat="24.634346472255608" lon="121.34055228861364"><ele>1402.850390684976</ele><time>2024-12-28T00:38:53Z</time><src>Hikingbook</src><extensions><gpxhb:speed>0.192213</gpxhb:speed><gpxhb:course>74.922880</gpxhb:course></extensions></trkpt><trkpt lat="24.634242274707294" lon="121.34047525746831"><ele>1401.5693970663262</ele><time>2024-12-28T00:39:09Z</time><src>Hikingbook</src><extensions><gpxhb:speed>0.099957</gpxhb:speed><gpxhb:course>74.922840</gpxhb:course></extensions></trkpt><trkpt lat="24.63399053300857" lon="121.34080061331281"><ele>1399.5644792212468</ele><time>2024-12-28T00:39:46Z</time><src>Hikingbook</src><extensions><gpxhb:speed>2.135686</gpxhb:speed><gpxhb:course>152.087574</gpxhb:course></extensions></trkpt></trkseg><trkseg><trkpt lat="24.63399053300857" lon="121.34080061331281"><ele>1399.5644792212468</ele><time>2024-12-28T01:10:38Z</time><src>Hikingbook</src><extensions><gpxhb:speed>2.135686</gpxhb:speed><gpxhb:course>152.087574</gpxhb:course></extensions></trkpt></trkseg><trkseg><trkpt lat="24.63399053300857" lon="121.34080061331281"><ele>1399.5644792212468</ele><time>2024-12-28T01:18:51Z</time><src>Hikingbook</src><extensions><gpxhb:speed>2.135686</gpxhb:speed><gpxhb:course>152.087574</gpxhb:course></extensions></trkpt><trkpt lat="24.633747663444645" lon="121.34030168945945"><ele>1366.5494846371198</ele><time>2024-12-28T01:18:53Z</time><src>Hikingbook</src><extensions><gpxhb:speed>0.000000</gpxhb:speed><gpxhb:course>-1.000000</gpxhb:course></extensions></trkpt><trkpt lat="24.633813679929755" lon="121.34031164647723"><ele>1353.7241358346266</ele><time>2024-12-28T01:19:09Z</time><src>Hikingbook</src><extensions><gpxhb:speed>0.000000</gpxhb:speed><gpxhb:course>-1.000000</gpxhb:course></extensions></trkpt><trkpt lat="24.633892818240913" lon="121.34014893130345"><ele>1348.3271996709282</ele><time>2024-12-28T01:19:25Z</time><src>Hikingbook</src><extensions><gpxhb:speed>0.472108</gpxhb:speed><gpxhb:course>295.556929</gpxhb:course></extensions></trkpt><trkpt lat="24.63394462751422" lon="121.3401751602056"><ele>1340.6341777924467</ele><time>2024-12-28T01:19:41Z</time><src>Hikingbook</src><extensions><gpxhb:speed>0.352911</gpxhb:speed><gpxhb:course>-1.000000</gpxhb:course></extensions></trkpt><trkpt lat="24.63382778273377" lon="121.34014106346142"><ele>1332.9216623662558</ele><time>2024-12-28T01:20:21Z</time><src>Hikingbook</src><extensions><gpxhb:speed>0.286346</gpxhb:speed><gpxhb:course>332.812405</gpxhb:course></extensions></trkpt><trkpt lat="24.633840223201197" lon="121.3401725154481"><ele>1331.621632184148</ele><time>2024-12-28T01:20:56Z</time><src>Hikingbook</src><extensions><gpxhb:speed>0.016649</gpxhb:speed><gpxhb:course>332.812440</gpxhb:course></extensions></trkpt><trkpt lat="24.633928156032525" lon="121.34015199552559"><ele>1326.743846009243</ele><time>2024-12-28T01:22:13Z</time><src>Hikingbook</src><extensions><gpxhb:speed>0.161183</gpxhb:speed><gpxhb:course>220.465429</gpxhb:course></extensions></trkpt></trkseg><trkseg><trkpt lat="24.633928156032525" lon="121.34015199552559"><ele>1326.743846009243</ele><time>2024-12-28T01:33:05Z</time><src>Hikingbook</src><extensions><gpxhb:speed>0.161183</gpxhb:speed><gpxhb:course>220.465429</gpxhb:course></extensions></trkpt><trkpt lat="24.63396264384514" lon="121.34012247644485"><ele>1353.7962416451153</ele><time>2024-12-28T01:33:07Z</time><src>Hikingbook</src><extensions><gpxhb:speed>0.000000</gpxhb:speed><gpxhb:course>254.179688</gpxhb:course></extensions></trkpt></trkseg><trkseg><trkpt lat="24.63396264384514" lon="121.34012247644485"><ele>1353.7962416451153</ele><time>2024-12-28T02:11:14Z</time><src>Hikingbook</src><extensions><gpxhb:speed>0.000000</gpxhb:speed><gpxhb:course>254.179688</gpxhb:course></extensions></trkpt><trkpt lat="24.634117030532124" lon="121.33991979349248"><ele>1302.667818579618</ele><time>2024-12-28T02:12:30Z</time><src>Hikingbook</src><extensions><gpxhb:speed>0.000000</gpxhb:speed><gpxhb:course>-1.000000</gpxhb:course></extensions></trkpt><trkpt lat="24.63420668657969" lon="121.3398136669816"><ele>1338.8610289920703</ele><time>2024-12-28T02:12:38Z</time><src>Hikingbook</src><extensions><gpxhb:speed>0.000000</gpxhb:speed><gpxhb:course>90.000000</gpxhb:course></extensions></trkpt><trkpt lat="24.63424628185575" lon="121.3396790752862"><ele>1342.4563929894998</ele><time>2024-12-28T02:12:58Z</time><src>Hikingbook</src><extensions><gpxhb:speed>0.180000</gpxhb:speed><gpxhb:course>-1.000000</gpxhb:course></extensions></trkpt></trkseg><trkseg><trkpt lat="24.63424628185575" lon="121.3396790752862"><ele>1342.4563929894998</ele><time>2024-12-28T02:22:40Z</time><src>Hikingbook</src><extensions><gpxhb:speed>0.180000</gpxhb:speed><gpxhb:course>-1.000000</gpxhb:course></extensions></trkpt><trkpt lat="24.634355526396085" lon="121.3393524215264"><ele>1328.9375749417684</ele><time>2024-12-28T02:23:55Z</time><src>Hikingbook</src><extensions><gpxhb:speed>1.719152</gpxhb:speed><gpxhb:course>272.439700</gpxhb:course></extensions></trkpt><trkpt lat="24.63431183115908" lon="121.33957705713149"><ele>1328.8579216272103</ele><time>2024-12-28T02:24:11Z</time><src>Hikingbook</src><extensions><gpxhb:speed>1.977426</gpxhb:speed><gpxhb:course>122.450461</gpxhb:course></extensions></trkpt><trkpt lat="24.634446712142378" lon="121.33941259050883"><ele>1324.2081890972495</ele><time>2024-12-28T02:24:47Z</time><src>Hikingbook</src><extensions><gpxhb:speed>0.210267</gpxhb:speed><gpxhb:course>95.704898</gpxhb:course></extensions></trkpt><trkpt lat="24.634381802658954" lon="121.33946012480268"><ele>1321.3646631742715</ele><time>2024-12-28T02:25:03Z</time><src>Hikingbook</src><extensions><gpxhb:speed>1.012025</gpxhb:speed><gpxhb:course>170.068365</gpxhb:course></extensions></trkpt><trkpt lat="24.634397768786403" lon="121.339241033703"><ele>1320.6472080088258</ele><time>2024-12-28T02:25:24Z</time><src>Hikingbook</src><extensions><gpxhb:speed>1.367074</gpxhb:speed><gpxhb:course>258.602127</gpxhb:course></extensions></trkpt><trkpt lat="24.6344732766029" lon="121.33918935476933"><ele>1323.9277742358856</ele><time>2024-12-28T02:25:42Z</time><src>Hikingbook</src><extensions><gpxhb:speed>0.108738</gpxhb:speed><gpxhb:course>309.751132</gpxhb:course></extensions></trkpt><trkpt lat="24.63447476552112" lon="121.33931441118"><ele>1316.8881123724752</ele><time>2024-12-28T02:25:58Z</time><src>Hikingbook</src><extensions><gpxhb:speed>0.000000</gpxhb:speed><gpxhb:course>282.700481</gpxhb:course></extensions></trkpt><trkpt lat="24.634546728627573" lon="121.33939268489233"><ele>1308.4187189499673</ele><time>2024-12-28T02:26:16Z</time><src>Hikingbook</src><extensions><gpxhb:speed>0.469664</gpxhb:speed><gpxhb:course>282.700503</gpxhb:course></extensions></trkpt><trkpt lat="24.6346050300722" lon="121.3393125809475"><ele>1311.2199810101479</ele><time>2024-12-28T02:26:31Z</time><src>Hikingbook</src><extensions><gpxhb:speed>0.000000</gpxhb:speed><gpxhb:course>35.655289</gpxhb:course></extensions></trkpt><trkpt lat="24.634566454530688" lon="121.33939719779045"><ele>1308.1996121079494</ele><time>2024-12-28T02:26:47Z</time><src>Hikingbook</src><extensions><gpxhb:speed>0.803278</gpxhb:speed><gpxhb:course>100.181490</gpxhb:course></extensions></trkpt><trkpt lat="24.63463827820405" lon="121.33950894584798"><ele>1299.4572775338997</ele><time>2024-12-28T02:27:03Z</time><src>Hikingbook</src><extensions><gpxhb:speed>0.599968</gpxhb:speed><gpxhb:course>62.733666</gpxhb:course></extensions></trkpt><trkpt lat="24.63468220781453" lon="121.33936284546017"><ele>1303.3492845141175</ele><time>2024-12-28T02:27:30Z</time><src>Hikingbook</src><extensions><gpxhb:speed>0.309929</gpxhb:speed><gpxhb:course>358.554301</gpxhb:course></extensions></trkpt><trkpt lat="24.634836762515956" lon="121.33944719104484"><ele>1295.9669998627292</ele><time>2024-12-28T02:28:15Z</time><src>Hikingbook</src><extensions><gpxhb:speed>0.058837</gpxhb:speed><gpxhb:course>321.230092</gpxhb:course></extensions></trkpt><trkpt lat="24.634945335468334" lon="121.33908686519025"><ele>1286.1942955977001</ele><time>2024-12-28T02:29:35Z</time><src>Hikingbook</src><extensions><gpxhb:speed>2.332628</gpxhb:speed><gpxhb:course>312.122440</gpxhb:course></extensions></trkpt><trkpt lat="24.63497110720061" lon="121.33923878277079"><ele>1286.109107131014</ele><time>2024-12-28T02:29:51Z</time><src>Hikingbook</src><extensions><gpxhb:speed>0.000000</gpxhb:speed><gpxhb:course>73.872858</gpxhb:course></extensions></trkpt><trkpt lat="24.63513291664366" lon="121.3392980267033"><ele>1279.060841149155</ele><time>2024-12-28T02:31:02Z</time><src>Hikingbook</src><extensions><gpxhb:speed>0.929297</gpxhb:speed><gpxhb:course>29.582811</gpxhb:course></extensions></trkpt><trkpt lat="24.63516111547183" lon="121.33923221170163"><ele>1280.5920650286726</ele><time>2024-12-28T02:31:18Z</time><src>Hikingbook</src><extensions><gpxhb:speed>0.732186</gpxhb:speed><gpxhb:course>311.983428</gpxhb:course></extensions></trkpt><trkpt lat="24.63501106218431" lon="121.33923175725563"><ele>1291.041001231262</ele><time>2024-12-28T02:31:41Z</time><src>Hikingbook</src><extensions><gpxhb:speed>0.732096</gpxhb:speed><gpxhb:course>-1.000000</gpxhb:course></extensions></trkpt><trkpt lat="24.635196431618574" lon="121.33913190380278"><ele>1290.2325297761581</ele><time>2024-12-28T02:31:59Z</time><src>Hikingbook</src><extensions><gpxhb:speed>0.142504</gpxhb:speed><gpxhb:course>339.218662</gpxhb:course></extensions></trkpt><trkpt lat="24.63515528913356" lon="121.33905486440565"><ele>1293.5234796894822</ele><time>2024-12-28T02:32:15Z</time><src>Hikingbook</src><extensions><gpxhb:speed>0.000000</gpxhb:speed><gpxhb:course>303.472217</gpxhb:course></extensions></trkpt><trkpt lat="24.635273977872455" lon="121.33899553997071"><ele>1291.2324133863103</ele><time>2024-12-28T02:32:31Z</time><src>Hikingbook</src><extensions><gpxhb:speed>2.250134</gpxhb:speed><gpxhb:course>338.924065</gpxhb:course></extensions></trkpt><trkpt lat="24.63504988506109" lon="121.33896117197553"><ele>1269.2879721647798</ele><time>2024-12-28T02:33:36Z</time><src>Hikingbook</src><extensions><gpxhb:speed>0.031750</gpxhb:speed><gpxhb:course>189.988610</gpxhb:course></extensions></trkpt><trkpt lat="24.635191745304493" lon="121.33897509541742"><ele>1274.1564888499556</ele><time>2024-12-28T02:34:24Z</time><src>Hikingbook</src><extensions><gpxhb:speed>0.005577</gpxhb:speed><gpxhb:course>190.436896</gpxhb:course></extensions></trkpt><trkpt lat="24.635119094661853" lon="121.33892098893249"><ele>1272.9693212063924</ele><time>2024-12-28T02:34:50Z</time><src>Hikingbook</src><extensions><gpxhb:speed>0.734365</gpxhb:speed><gpxhb:course>197.580789</gpxhb:course></extensions></trkpt><trkpt lat="24.63530083487923" lon="121.33885242164892"><ele>1262.8282701541177</ele><time>2024-12-28T02:35:25Z</time><src>Hikingbook</src><extensions><gpxhb:speed>0.620580</gpxhb:speed><gpxhb:course>321.791130</gpxhb:course></extensions></trkpt><trkpt lat="24.63524437740096" lon="121.33874108418871"><ele>1265.389117534704</ele><time>2024-12-28T02:35:41Z</time><src>Hikingbook</src><extensions><gpxhb:speed>0.048591</gpxhb:speed><gpxhb:course>334.301976</gpxhb:course></extensions></trkpt><trkpt lat="24.635297687829265" lon="121.33863388171547"><ele>1263.4399712413044</ele><time>2024-12-28T02:36:01Z</time><src>Hikingbook</src><extensions><gpxhb:speed>0.794290</gpxhb:speed><gpxhb:course>297.674144</gpxhb:course></extensions></trkpt><trkpt lat="24.635367803326588" lon="121.33868166862986"><ele>1256.4330002784623</ele><time>2024-12-28T02:36:23Z</time><src>Hikingbook</src><extensions><gpxhb:speed>0.852040</gpxhb:speed><gpxhb:course>4.561230</gpxhb:course></extensions></trkpt></trkseg><trkseg><trkpt lat="24.635367803326588" lon="121.33868166862986"><ele>1256.4330002784623</ele><time>2024-12-28T02:39:22Z</time><src>Hikingbook</src><extensions><gpxhb:speed>0.852040</gpxhb:speed><gpxhb:course>4.561230</gpxhb:course></extensions></trkpt><trkpt lat="24.635255938690033" lon="121.33851938503301"><ele>1246.6572058468953</ele><time>2024-12-28T02:39:44Z</time><src>Hikingbook</src><extensions><gpxhb:speed>0.648258</gpxhb:speed><gpxhb:course>-1.000000</gpxhb:course></extensions></trkpt><trkpt lat="24.63533002626496" lon="121.338448973966"><ele>1241.3376434162417</ele><time>2024-12-28T02:40:18Z</time><src>Hikingbook</src><extensions><gpxhb:speed>0.153114</gpxhb:speed><gpxhb:course>280.118689</gpxhb:course></extensions></trkpt><trkpt lat="24.63524018705612" lon="121.33833719079942"><ele>1230.8558770036914</ele><time>2024-12-28T02:40:49Z</time><src>Hikingbook</src><extensions><gpxhb:speed>0.284012</gpxhb:speed><gpxhb:course>171.454765</gpxhb:course></extensions></trkpt><trkpt lat="24.635367759746934" lon="121.33832305574111"><ele>1233.7506104409706</ele><time>2024-12-28T02:41:05Z</time><src>Hikingbook</src><extensions><gpxhb:speed>0.062425</gpxhb:speed><gpxhb:course>166.039200</gpxhb:course></extensions></trkpt><trkpt lat="24.635568181854783" lon="121.3381749311301"><ele>1243.3009665619572</ele><time>2024-12-28T02:41:36Z</time><src>Hikingbook</src><extensions><gpxhb:speed>0.033753</gpxhb:speed><gpxhb:course>7.483063</gpxhb:course></extensions></trkpt><trkpt lat="24.635498797839567" lon="121.3380694211754"><ele>1239.8951230153932</ele><time>2024-12-28T02:41:59Z</time><src>Hikingbook</src><extensions><gpxhb:speed>1.381045</gpxhb:speed><gpxhb:course>257.575872</gpxhb:course></extensions></trkpt><trkpt lat="24.635662641404103" lon="121.33795061430853"><ele>1238.1601780256685</ele><time>2024-12-28T02:42:59Z</time><src>Hikingbook</src><extensions><gpxhb:speed>0.147356</gpxhb:speed><gpxhb:course>198.435042</gpxhb:course></extensions></trkpt><trkpt lat="24.635723608042248" lon="121.337941397707"><ele>1239.8258128223313</ele><time>2024-12-28T02:43:12Z</time><src>Hikingbook</src><extensions><gpxhb:speed>0.519055</gpxhb:speed><gpxhb:course>198.435043</gpxhb:course></extensions></trkpt><trkpt lat="24.635722262394054" lon="121.33811639950933"><ele>1242.94732267204</ele><time>2024-12-28T02:43:46Z</time><src>Hikingbook</src><extensions><gpxhb:speed>0.680144</gpxhb:speed><gpxhb:course>70.580369</gpxhb:course></extensions></trkpt><trkpt lat="24.63581229483836" lon="121.33799155372068"><ele>1234.9123602167108</ele><time>2024-12-28T02:44:18Z</time><src>Hikingbook</src><extensions><gpxhb:speed>0.163417</gpxhb:speed><gpxhb:course>328.126019</gpxhb:course></extensions></trkpt><trkpt lat="24.635918313415335" lon="121.33798601056961"><ele>1231.6514909641608</ele><time>2024-12-28T02:44:41Z</time><src>Hikingbook</src><extensions><gpxhb:speed>0.576565</gpxhb:speed><gpxhb:course>326.588140</gpxhb:course></extensions></trkpt><trkpt lat="24.635937015488178" lon="121.33789463013723"><ele>1224.430360687259</ele><time>2024-12-28T02:45:05Z</time><src>Hikingbook</src><extensions><gpxhb:speed>0.099355</gpxhb:speed><gpxhb:course>283.209536</gpxhb:course></extensions></trkpt><trkpt lat="24.635943963165744" lon="121.33788118368976"><ele>1224.9672125734749</ele><time>2024-12-28T02:45:06Z</time><src>Hikingbook</src><extensions><gpxhb:speed>0.653604</gpxhb:speed><gpxhb:course>315.147838</gpxhb:course></extensions></trkpt><trkpt lat="24.63606299975413" lon="121.33797196065268"><ele>1225.6482104839226</ele><time>2024-12-28T02:45:29Z</time><src>Hikingbook</src><extensions><gpxhb:speed>0.627272</gpxhb:speed><gpxhb:course>26.799363</gpxhb:course></extensions></trkpt><trkpt lat="24.63613573802291" lon="121.33789525649286"><ele>1226.141702128092</ele><time>2024-12-28T02:45:56Z</time><src>Hikingbook</src><extensions><gpxhb:speed>1.272860</gpxhb:speed><gpxhb:course>326.041342</gpxhb:course></extensions></trkpt><trkpt lat="24.636133066710393" lon="121.33774318933644"><ele>1228.6427496020306</ele><time>2024-12-28T02:46:12Z</time><src>Hikingbook</src><extensions><gpxhb:speed>0.684682</gpxhb:speed><gpxhb:course>337.600851</gpxhb:course></extensions></trkpt><trkpt lat="24.636185801671836" lon="121.33781322148849"><ele>1228.8933733147064</ele><time>2024-12-28T02:46:28Z</time><src>Hikingbook</src><extensions><gpxhb:speed>0.198718</gpxhb:speed><gpxhb:course>337.600892</gpxhb:course></extensions></trkpt><trkpt lat="24.63604592376169" lon="121.33770463580747"><ele>1224.9258512867973</ele><time>2024-12-28T02:46:45Z</time><src>Hikingbook</src><extensions><gpxhb:speed>0.590370</gpxhb:speed><gpxhb:course>217.401439</gpxhb:course></extensions></trkpt><trkpt lat="24.635941377555664" lon="121.33750326772834"><ele>1219.8196957309503</ele><time>2024-12-28T02:46:58Z</time><src>Hikingbook</src><extensions><gpxhb:speed>2.894415</gpxhb:speed><gpxhb:course>219.600362</gpxhb:course></extensions></trkpt><trkpt lat="24.636183910185657" lon="121.3375987849676"><ele>1215.3636957552603</ele><time>2024-12-28T02:47:32Z</time><src>Hikingbook</src><extensions><gpxhb:speed>1.592566</gpxhb:speed><gpxhb:course>353.617936</gpxhb:course></extensions></trkpt><trkpt lat="24.6361204846244" lon="121.33741314420351"><ele>1217.1363117814187</ele><time>2024-12-28T02:47:57Z</time><src>Hikingbook</src><extensions><gpxhb:speed>0.941122</gpxhb:speed><gpxhb:course>240.031450</gpxhb:course></extensions></trkpt><trkpt lat="24.636234182109728" lon="121.33745044269148"><ele>1218.3901353415065</ele><time>2024-12-28T02:48:15Z</time><src>Hikingbook</src><extensions><gpxhb:speed>0.481566</gpxhb:speed><gpxhb:course>6.559792</gpxhb:course></extensions></trkpt><trkpt lat="24.63637657208415" lon="121.33736077022536"><ele>1218.7488267107012</ele><time>2024-12-28T02:48:51Z</time><src>Hikingbook</src><extensions><gpxhb:speed>0.049066</gpxhb:speed><gpxhb:course>298.740066</gpxhb:course></extensions></trkpt><trkpt lat="24.636314368649693" lon="121.33731034703149"><ele>1213.5200053930196</ele><time>2024-12-28T02:49:22Z</time><src>Hikingbook</src><extensions><gpxhb:speed>0.196897</gpxhb:speed><gpxhb:course>212.880539</gpxhb:course></extensions></trkpt><trkpt lat="24.636454135969544" lon="121.3371887909418"><ele>1211.1504841979433</ele><time>2024-12-28T02:50:50Z</time><src>Hikingbook</src><extensions><gpxhb:speed>0.988543</gpxhb:speed><gpxhb:course>226.001208</gpxhb:course></extensions></trkpt><trkpt lat="24.636326103087832" lon="121.33710995371702"><ele>1208.3984295499142</ele><time>2024-12-28T02:51:06Z</time><src>Hikingbook</src><extensions><gpxhb:speed>0.436437</gpxhb:speed><gpxhb:course>271.079616</gpxhb:course></extensions></trkpt><trkpt lat="24.636528162022334" lon="121.33697924889623"><ele>1203.8731753332654</ele><time>2024-12-28T02:51:21Z</time><src>Hikingbook</src><extensions><gpxhb:speed>0.427055</gpxhb:speed><gpxhb:course>343.933623</gpxhb:course></extensions></trkpt><trkpt lat="24.636544411025703" lon="121.33696909623691"><ele>1203.866138862072</ele><time>2024-12-28T02:51:22Z</time><src>Hikingbook</src><extensions><gpxhb:speed>0.181890</gpxhb:speed><gpxhb:course>329.572892</gpxhb:course></extensions></trkpt><trkpt lat="24.636592127063203" lon="121.33699070033093"><ele>1208.2074565145283</ele><time>2024-12-28T02:51:47Z</time><src>Hikingbook</src><extensions><gpxhb:speed>0.049637</gpxhb:speed><gpxhb:course>329.572883</gpxhb:course></extensions></trkpt><trkpt lat="24.636673186525854" lon="121.33692780701006"><ele>1203.651083877372</ele><time>2024-12-28T02:52:40Z</time><src>Hikingbook</src><extensions><gpxhb:speed>0.000000</gpxhb:speed><gpxhb:course>55.778525</gpxhb:course></extensions></trkpt><trkpt lat="24.636640213682316" lon="121.33686882024838"><ele>1199.2611171908331</ele><time>2024-12-28T02:52:56Z</time><src>Hikingbook</src><extensions><gpxhb:speed>0.000000</gpxhb:speed><gpxhb:course>49.641151</gpxhb:course></extensions></trkpt><trkpt lat="24.636695655352785" lon="121.33691046275173"><ele>1203.67144275045</ele><time>2024-12-28T02:53:13Z</time><src>Hikingbook</src><extensions><gpxhb:speed>0.456268</gpxhb:speed><gpxhb:course>49.641163</gpxhb:course></extensions></trkpt><trkpt lat="24.636761607898347" lon="121.33682176851725"><ele>1201.5771130181358</ele><time>2024-12-28T02:53:37Z</time><src>Hikingbook</src><extensions><gpxhb:speed>0.000000</gpxhb:speed><gpxhb:course>-1.000000</gpxhb:course></extensions></trkpt><trkpt lat="24.636846775822352" lon="121.33693524649063"><ele>1203.4145948483372</ele><time>2024-12-28T02:54:02Z</time><src>Hikingbook</src><extensions><gpxhb:speed>0.136895</gpxhb:speed><gpxhb:course>-1.000000</gpxhb:course></extensions></trkpt><trkpt lat="24.637041374444415" lon="121.33679073592363"><ele>1200.0381361266245</ele><time>2024-12-28T02:55:16Z</time><src>Hikingbook</src><extensions><gpxhb:speed>0.453811</gpxhb:speed><gpxhb:course>329.533960</gpxhb:course></extensions></trkpt><trkpt lat="24.63700371541917" lon="121.33685701033423"><ele>1197.2030839542374</ele><time>2024-12-28T02:55:42Z</time><src>Hikingbook</src><extensions><gpxhb:speed>0.306172</gpxhb:speed><gpxhb:course>329.533987</gpxhb:course></extensions></trkpt><trkpt lat="24.63714624194738" lon="121.3368963825225"><ele>1193.740023647363</ele><time>2024-12-28T02:56:30Z</time><src>Hikingbook</src><extensions><gpxhb:speed>0.297631</gpxhb:speed><gpxhb:course>60.380154</gpxhb:course></extensions></trkpt><trkpt lat="24.637249554062116" lon="121.33701797270815"><ele>1187.0225409500397</ele><time>2024-12-28T02:57:42Z</time><src>Hikingbook</src><extensions><gpxhb:speed>0.125563</gpxhb:speed><gpxhb:course>177.089956</gpxhb:course></extensions></trkpt><trkpt lat="24.637294370852842" lon="121.33697695534822"><ele>1184.4074266068992</ele><time>2024-12-28T02:58:02Z</time><src>Hikingbook</src><extensions><gpxhb:speed>0.070501</gpxhb:speed><gpxhb:course>198.996336</gpxhb:course></extensions></trkpt><trkpt lat="24.637308290348273" lon="121.33706289330976"><ele>1182.9405425574757</ele><time>2024-12-28T02:58:18Z</time><src>Hikingbook</src><extensions><gpxhb:speed>0.265166</gpxhb:speed><gpxhb:course>198.996376</gpxhb:course></extensions></trkpt><trkpt lat="24.637458106135742" lon="121.33701175922106"><ele>1176.611421097897</ele><time>2024-12-28T03:00:10Z</time><src>Hikingbook</src><extensions><gpxhb:speed>0.187107</gpxhb:speed><gpxhb:course>254.807354</gpxhb:course></extensions></trkpt><trkpt lat="24.637461247136123" lon="121.33700184796868"><ele>1175.9556207975668</ele><time>2024-12-28T03:00:14Z</time><src>Hikingbook</src><extensions><gpxhb:speed>0.243716</gpxhb:speed><gpxhb:course>254.807350</gpxhb:course></extensions></trkpt><trkpt lat="24.637511217286818" lon="121.33693973229386"><ele>1175.342342477661</ele><time>2024-12-28T03:00:32Z</time><src>Hikingbook</src><extensions><gpxhb:speed>0.053609</gpxhb:speed><gpxhb:course>314.708134</gpxhb:course></extensions></trkpt><trkpt lat="24.637623078291295" lon="121.337013191394"><ele>1165.6321446129737</ele><time>2024-12-28T03:03:18Z</time><src>Hikingbook</src><extensions><gpxhb:speed>0.000000</gpxhb:speed><gpxhb:course>96.169410</gpxhb:course></extensions></trkpt></trkseg><trkseg><trkpt lat="24.637623078291295" lon="121.337013191394"><ele>1165.6321446129737</ele><time>2024-12-28T03:10:46Z</time><src>Hikingbook</src><extensions><gpxhb:speed>0.000000</gpxhb:speed><gpxhb:course>96.169410</gpxhb:course></extensions></trkpt><trkpt lat="24.63758192601111" lon="121.33695225648336"><ele>1175.441330759346</ele><time>2024-12-28T03:10:48Z</time><src>Hikingbook</src><extensions><gpxhb:speed>0.563877</gpxhb:speed><gpxhb:course>-1.000000</gpxhb:course></extensions></trkpt><trkpt lat="24.637806562991774" lon="121.33698013799392"><ele>1161.3568505309117</ele><time>2024-12-28T03:12:04Z</time><src>Hikingbook</src><extensions><gpxhb:speed>0.666244</gpxhb:speed><gpxhb:course>10.590961</gpxhb:course></extensions></trkpt><trkpt lat="24.637906445167" lon="121.33681751855038"><ele>1156.1816824785105</ele><time>2024-12-28T03:12:56Z</time><src>Hikingbook</src><extensions><gpxhb:speed>0.481891</gpxhb:speed><gpxhb:course>317.454539</gpxhb:course></extensions></trkpt><trkpt lat="24.638021020303132" lon="121.33677920820973"><ele>1155.1134176165842</ele><time>2024-12-28T03:13:19Z</time><src>Hikingbook</src><extensions><gpxhb:speed>0.521245</gpxhb:speed><gpxhb:course>345.786070</gpxhb:course></extensions></trkpt><trkpt lat="24.63802114761921" lon="121.33652421486103"><ele>1158.1926247062647</ele><time>2024-12-28T03:14:09Z</time><src>Hikingbook</src><extensions><gpxhb:speed>0.955929</gpxhb:speed><gpxhb:course>277.888212</gpxhb:course></extensions></trkpt><trkpt lat="24.63813077611853" lon="121.33653202153576"><ele>1154.4320171797294</ele><time>2024-12-28T03:14:25Z</time><src>Hikingbook</src><extensions><gpxhb:speed>0.599768</gpxhb:speed><gpxhb:course>6.478984</gpxhb:course></extensions></trkpt><trkpt lat="24.6380100716619" lon="121.33641924256811"><ele>1161.6218441595781</ele><time>2024-12-28T03:14:57Z</time><src>Hikingbook</src><extensions><gpxhb:speed>0.074816</gpxhb:speed><gpxhb:course>225.007674</gpxhb:course></extensions></trkpt><trkpt lat="24.638159509531192" lon="121.33640792611638"><ele>1154.6780113420798</ele><time>2024-12-28T03:15:13Z</time><src>Hikingbook</src><extensions><gpxhb:speed>0.390938</gpxhb:speed><gpxhb:course>315.846427</gpxhb:course></extensions></trkpt><trkpt lat="24.63805071016295" lon="121.33635300644914"><ele>1146.302810077801</ele><time>2024-12-28T03:15:32Z</time><src>Hikingbook</src><extensions><gpxhb:speed>0.051489</gpxhb:speed><gpxhb:course>346.827181</gpxhb:course></extensions></trkpt><trkpt lat="24.63821391256515" lon="121.33622882294789"><ele>1149.6579047705163</ele><time>2024-12-28T03:16:39Z</time><src>Hikingbook</src><extensions><gpxhb:speed>0.477112</gpxhb:speed><gpxhb:course>327.819916</gpxhb:course></extensions></trkpt><trkpt lat="24.638143820861075" lon="121.3361776469442"><ele>1144.5978969717314</ele><time>2024-12-28T03:16:55Z</time><src>Hikingbook</src><extensions><gpxhb:speed>0.114832</gpxhb:speed><gpxhb:course>327.819909</gpxhb:course></extensions></trkpt><trkpt lat="24.63829351713519" lon="121.33575740707163"><ele>1134.2381024242602</ele><time>2024-12-28T03:18:55Z</time><src>Hikingbook</src><extensions><gpxhb:speed>0.122287</gpxhb:speed><gpxhb:course>226.477417</gpxhb:course></extensions></trkpt><trkpt lat="24.638436460944522" lon="121.33563278208932"><ele>1131.1862421579574</ele><time>2024-12-28T03:19:49Z</time><src>Hikingbook</src><extensions><gpxhb:speed>0.163782</gpxhb:speed><gpxhb:course>37.679872</gpxhb:course></extensions></trkpt><trkpt lat="24.638583762043417" lon="121.33567448362636"><ele>1130.8318685911606</ele><time>2024-12-28T03:20:05Z</time><src>Hikingbook</src><extensions><gpxhb:speed>1.023098</gpxhb:speed><gpxhb:course>4.766389</gpxhb:course></extensions></trkpt><trkpt lat="24.63837737528135" lon="121.33542816012074"><ele>1134.9152774259553</ele><time>2024-12-28T03:20:40Z</time><src>Hikingbook</src><extensions><gpxhb:speed>0.000000</gpxhb:speed><gpxhb:course>231.244927</gpxhb:course></extensions></trkpt><trkpt lat="24.638489511684384" lon="121.33554450172586"><ele>1133.3920883764636</ele><time>2024-12-28T03:20:56Z</time><src>Hikingbook</src><extensions><gpxhb:speed>0.141248</gpxhb:speed><gpxhb:course>231.244975</gpxhb:course></extensions></trkpt><trkpt lat="24.638427174247077" lon="121.33549263413863"><ele>1134.8589579275408</ele><time>2024-12-28T03:21:16Z</time><src>Hikingbook</src><extensions><gpxhb:speed>2.338125</gpxhb:speed><gpxhb:course>212.507007</gpxhb:course></extensions></trkpt><trkpt lat="24.638564649079203" lon="121.33545951626196"><ele>1135.5825833981671</ele><time>2024-12-28T03:21:32Z</time><src>Hikingbook</src><extensions><gpxhb:speed>0.867875</gpxhb:speed><gpxhb:course>307.707384</gpxhb:course></extensions></trkpt><trkpt lat="24.638459318308644" lon="121.3353204461188"><ele>1132.7124161043025</ele><time>2024-12-28T03:22:00Z</time><src>Hikingbook</src><extensions><gpxhb:speed>0.210929</gpxhb:speed><gpxhb:course>302.532778</gpxhb:course></extensions></trkpt><trkpt lat="24.63861647546401" lon="121.33532135326543"><ele>1122.1397451774387</ele><time>2024-12-28T03:22:41Z</time><src>Hikingbook</src><extensions><gpxhb:speed>0.736017</gpxhb:speed><gpxhb:course>327.008613</gpxhb:course></extensions></trkpt><trkpt lat="24.63853967410433" lon="121.33522327855744"><ele>1126.1630930596423</ele><time>2024-12-28T03:22:57Z</time><src>Hikingbook</src><extensions><gpxhb:speed>0.000000</gpxhb:speed><gpxhb:course>241.868545</gpxhb:course></extensions></trkpt><trkpt lat="24.63862639191375" lon="121.33530828746717"><ele>1132.3051141224826</ele><time>2024-12-28T03:23:28Z</time><src>Hikingbook</src><extensions><gpxhb:speed>0.000000</gpxhb:speed><gpxhb:course>241.868587</gpxhb:course></extensions></trkpt></trkseg><trkseg><trkpt lat="24.63862639191375" lon="121.33530828746717"><ele>1132.3051141224826</ele><time>2024-12-28T03:42:54Z</time><src>Hikingbook</src><extensions><gpxhb:speed>0.000000</gpxhb:speed><gpxhb:course>241.868587</gpxhb:course></extensions></trkpt><trkpt lat="24.639988664592508" lon="121.3344794543473"><ele>1178.4082223144421</ele><time>2024-12-28T03:43:07Z</time><src>Hikingbook</src><extensions><gpxhb:speed>0.460000</gpxhb:speed><gpxhb:course>35.859375</gpxhb:course></extensions></trkpt><trkpt lat="24.639835382984465" lon="121.33435501232577"><ele>1145.441842979311</ele><time>2024-12-28T03:43:22Z</time><src>Hikingbook</src><extensions><gpxhb:speed>0.810000</gpxhb:speed><gpxhb:course>356.132812</gpxhb:course></extensions></trkpt><trkpt lat="24.63995731467641" lon="121.33441758699684"><ele>1164.3320511811748</ele><time>2024-12-28T03:44:14Z</time><src>Hikingbook</src><extensions><gpxhb:speed>0.175388</gpxhb:speed><gpxhb:course>20.600046</gpxhb:course></extensions></trkpt></trkseg><trkseg><trkpt lat="24.63995731467641" lon="121.33441758699684"><ele>1164.3320511811748</ele><time>2024-12-28T03:57:09Z</time><src>Hikingbook</src><extensions><gpxhb:speed>0.175388</gpxhb:speed><gpxhb:course>20.600046</gpxhb:course></extensions></trkpt><trkpt lat="24.64013489123434" lon="121.33426756352092"><ele>1151.1281103828444</ele><time>2024-12-28T03:57:23Z</time><src>Hikingbook</src><extensions><gpxhb:speed>0.350000</gpxhb:speed><gpxhb:course>-1.000000</gpxhb:course></extensions></trkpt><trkpt lat="24.640158821299075" lon="121.33434093456802"><ele>1101.2309914925754</ele><time>2024-12-28T03:57:39Z</time><src>Hikingbook</src><extensions><gpxhb:speed>0.170000</gpxhb:speed><gpxhb:course>-1.000000</gpxhb:course></extensions></trkpt><trkpt lat="24.640192993854" lon="121.33428790957304"><ele>1097.3861349441659</ele><time>2024-12-28T03:57:55Z</time><src>Hikingbook</src><extensions><gpxhb:speed>0.232980</gpxhb:speed><gpxhb:course>-1.000000</gpxhb:course></extensions></trkpt><trkpt lat="24.64029213097621" lon="121.33439949614352"><ele>1100.106695628728</ele><time>2024-12-28T03:58:29Z</time><src>Hikingbook</src><extensions><gpxhb:speed>0.197356</gpxhb:speed><gpxhb:course>-1.000000</gpxhb:course></extensions></trkpt></trkseg><trkseg><trkpt lat="24.64029213097621" lon="121.33439949614352"><ele>1100.106695628728</ele><time>2024-12-28T05:29:07Z</time><src>Hikingbook</src><extensions><gpxhb:speed>0.197356</gpxhb:speed><gpxhb:course>-1.000000</gpxhb:course></extensions></trkpt><trkpt lat="24.640487284226545" lon="121.33479431778525"><ele>1170.3319332998544</ele><time>2024-12-28T05:29:10Z</time><src>Hikingbook</src><extensions><gpxhb:speed>0.000000</gpxhb:speed><gpxhb:course>72.421875</gpxhb:course></extensions></trkpt><trkpt lat="24.640623636048836" lon="121.33472987194774"><ele>1157.48888827475</ele><time>2024-12-28T05:29:28Z</time><src>Hikingbook</src><extensions><gpxhb:speed>0.000000</gpxhb:speed><gpxhb:course>-1.000000</gpxhb:course></extensions></trkpt><trkpt lat="24.640744261481423" lon="121.33467323665072"><ele>1162.406346578351</ele><time>2024-12-28T05:30:11Z</time><src>Hikingbook</src><extensions><gpxhb:speed>0.244936</gpxhb:speed><gpxhb:course>-1.000000</gpxhb:course></extensions></trkpt><trkpt lat="24.640753634605474" lon="121.33471497202744"><ele>1163.1313727365286</ele><time>2024-12-28T05:30:54Z</time><src>Hikingbook</src><extensions><gpxhb:speed>0.089817</gpxhb:speed><gpxhb:course>-1.000000</gpxhb:course></extensions></trkpt></trkseg><trkseg><trkpt lat="24.640753634605474" lon="121.33471497202744"><ele>1163.1313727365286</ele><time>2024-12-28T05:37:43Z</time><src>Hikingbook</src><extensions><gpxhb:speed>0.089817</gpxhb:speed><gpxhb:course>-1.000000</gpxhb:course></extensions></trkpt><trkpt lat="24.64087866056212" lon="121.33454019259614"><ele>1172.1149037396222</ele><time>2024-12-28T05:38:09Z</time><src>Hikingbook</src><extensions><gpxhb:speed>2.235995</gpxhb:speed><gpxhb:course>305.142079</gpxhb:course></extensions></trkpt><trkpt lat="24.640871343850375" lon="121.3345903285714"><ele>1172.4475626174374</ele><time>2024-12-28T05:38:27Z</time><src>Hikingbook</src><extensions><gpxhb:speed>0.378708</gpxhb:speed><gpxhb:course>-1.000000</gpxhb:course></extensions></trkpt></trkseg><trkseg><trkpt lat="24.640871343850375" lon="121.3345903285714"><ele>1172.4475626174374</ele><time>2024-12-28T06:41:15Z</time><src>Hikingbook</src><extensions><gpxhb:speed>0.378708</gpxhb:speed><gpxhb:course>-1.000000</gpxhb:course></extensions></trkpt></trkseg><trkseg><trkpt lat="24.64113064241895" lon="121.33445577328324"><ele>1152.833359487258</ele><time>2024-12-28T06:43:22Z</time><src>Hikingbook</src><extensions><gpxhb:speed>0.000000</gpxhb:speed><gpxhb:course>-1.000000</gpxhb:course></extensions></trkpt><trkpt lat="24.641120168582336" lon="121.33445839624775"><ele>1158.9348744061824</ele><time>2024-12-28T06:43:41Z</time><src>Hikingbook</src><extensions><gpxhb:speed>0.000000</gpxhb:speed><gpxhb:course>-1.000000</gpxhb:course></extensions></trkpt></trkseg><trkseg><trkpt lat="24.641120168582336" lon="121.33445839624775"><ele>1158.9348744061824</ele><time>2024-12-28T07:46:35Z</time><src>Hikingbook</src><extensions><gpxhb:speed>0.000000</gpxhb:speed><gpxhb:course>-1.000000</gpxhb:course></extensions></trkpt></trkseg><trkseg><trkpt lat="24.641250664427233" lon="121.33466969305022"><ele>1015.2166032034644</ele><time>2024-12-28T07:52:50Z</time><src>Hikingbook</src><extensions><gpxhb:speed>0.530000</gpxhb:speed><gpxhb:course>-1.000000</gpxhb:course></extensions></trkpt></trkseg></trk></gpx>