<?xml version="1.0" encoding="UTF-8"?>
<gpx version="1.1" creator="Hikingbook" xmlns:xsi="http://www.w3.org/2001/XMLSchema-instance" xmlns="http://www.topografix.com/GPX/1/1" xsi:schemaLocation="http://www.topografix.com/GPX/1/1 https://www.topografix.com/GPX/1/1/gpx.xsd https://hikingbook.net/xmlschemas/1/5 https:/hikingbook.net/xmlschemas/1/5/gpxhb.xsd" xmlns:gpxhb="https://hikingbook.net/xmlschemas/1/5"><metadata><name>💦🪢高義瀑布群（2023-10-07）-「溪降」［🇹🇼桃園-復興］</name><desc>此地形可以玩&#xA;1.滑瀑&#xA;2.垂降&#xA;3.滑降&#xA;&#xA;此處非常多垂直爬山高繞路線，&#xA;因此一開始不用穿太多，會熱爆&#xA;等到抵達到最高點開始下溯垂降&#xA;才穿上防寒衣&#xA;&#xA;另外…&#xA;由於很多垂直高繞～&#xA;因此需要一點臂力跟不怕高的心態&#xA;女生通常會需要幫忙上攀。</desc><author><name>Hikingbook</name><link href="https://hikingbook.net"><text>Hikingbook</text></link></author><link href="https://hikingbook.net/hikes/2023-10-7-%E6%99%A8%E9%96%93%E9%87%8D%E8%A3%9D%E7%99%BB%E5%B1%B1-871c4b46"><text>Hikingbook</text></link><time>2026-07-30T21:32:43.869900409+08:00</time><keywords>Hikingbook,EzLife,Jimce,高義,桃園,瀑布,高義瀑布</keywords><extensions><gpxhb:postscript>嘗試新鮮的
1.）滑降不用手繩，直接來個刺激的
2.）上向下放+自我釋放 到深潭</gpxhb:postscript><gpxhb:loadweight>3.0</gpxhb:loadweight><gpxhb:fitnesslevel>1</gpxhb:fitnesslevel><gpxhb:activitytype>others</gpxhb:activitytype><gpxhb:trackimageurl>https://assets.hikingbook.net/users/60w3wu1it91y2jmwdxciziq/y2aq7tqfrra6nd2btdm918g/f10a326d-432d-455b-b28a-74014d379edb.jpg</gpxhb:trackimageurl><gpxhb:device>Apple iPhone 13 Pro</gpxhb:device><gpxhb:source>Hikingbook</gpxhb:source></extensions></metadata><wpt lat="24.717535036639045" lon="121.34743918676054"><ele>526</ele><time>2023-10-07T00:38:24Z</time><name>00 停車點-開始</name><cmt>2023-10-07T08:38:24+08:00</cmt><desc>00 停車點-開始</desc><src>Hikingbook</src><link href="https://hikingbook.net/hikes/y2aQ7TqfRRa6nD2BtDm918g"><text>Hikingbook</text></link><extensions><gpxhb:weather>Clear</gpxhb:weather><gpxhb:speed>1.240000</gpxhb:speed><gpxhb:course>227.109375</gpxhb:course></extensions></wpt><wpt lat="24.716772559554727" lon="121.34629325744001"><ele>565</ele><time>2023-10-07T00:42:50Z</time><name>01 瀑布1-入口</name><cmt>2023-10-07T08:42:50+08:00</cmt><desc>01 瀑布1-入口</desc><src>Hikingbook</src><link href="https://hikingbook.net/hikes/y2aQ7TqfRRa6nD2BtDm918g"><text>Hikingbook</text></link><extensions><gpxhb:weather>Clear</gpxhb:weather><gpxhb:speed>0.000000</gpxhb:speed><gpxhb:course>203.323536</gpxhb:course></extensions></wpt><wpt lat="24.71668408412421" lon="121.34615754101014"><ele>571</ele><time>2023-10-07T00:50:17Z</time><name>02 攀繩點1</name><cmt>2023-10-07T08:50:17+08:00</cmt><desc>02 攀繩點1</desc><src>Hikingbook</src><link href="https://hikingbook.net/hikes/y2aQ7TqfRRa6nD2BtDm918g"><text>Hikingbook</text></link><extensions><gpxhb:weather>Clear</gpxhb:weather><gpxhb:speed>0.000000</gpxhb:speed><gpxhb:course>250.771887</gpxhb:course></extensions></wpt><wpt lat="24.716787870781875" lon="121.34483721691579"><ele>615</ele><time>2023-10-07T01:09:08Z</time><name>03 景點1</name><cmt>2023-10-07T09:09:08+08:00</cmt><desc>03 景點1</desc><src>Hikingbook</src><link href="https://hikingbook.net/hikes/y2aQ7TqfRRa6nD2BtDm918g"><text>Hikingbook</text></link><extensions><gpxhb:weather>Clear</gpxhb:weather><gpxhb:speed>0.000000</gpxhb:speed><gpxhb:course>21.315381</gpxhb:course></extensions></wpt><wpt lat="24.717101877408716" lon="121.34476086243598"><ele>618</ele><time>2023-10-07T01:12:03Z</time><name>04 滑瀑1</name><cmt>2023-10-07T09:12:03+08:00</cmt><desc>04 滑瀑1</desc><src>Hikingbook</src><link href="https://hikingbook.net/hikes/y2aQ7TqfRRa6nD2BtDm918g"><text>Hikingbook</text></link><extensions><gpxhb:weather>Clear</gpxhb:weather><gpxhb:speed>0.192281</gpxhb:speed><gpxhb:course>37.219227</gpxhb:course></extensions></wpt><wpt lat="24.717084509335827" lon="121.34485135797536"><ele>638</ele><time>2023-10-07T01:29:06Z</time><name>05 景點2</name><cmt>2023-10-07T09:29:06+08:00</cmt><desc>05 景點2</desc><src>Hikingbook</src><link href="https://hikingbook.net/hikes/y2aQ7TqfRRa6nD2BtDm918g"><text>Hikingbook</text></link><extensions><gpxhb:weather>Clear</gpxhb:weather><gpxhb:speed>0.320000</gpxhb:speed><gpxhb:course>-1.000000</gpxhb:course></extensions></wpt><wpt lat="24.717225224937234" lon="121.34438361667684"><ele>583</ele><time>2023-10-07T01:31:13Z</time><name>06 瀑布2</name><cmt>2023-10-07T09:31:13+08:00</cmt><desc>06 瀑布2</desc><src>Hikingbook</src><link href="https://hikingbook.net/hikes/y2aQ7TqfRRa6nD2BtDm918g"><text>Hikingbook</text></link><extensions><gpxhb:weather>Clear</gpxhb:weather><gpxhb:speed>0.000000</gpxhb:speed><gpxhb:course>339.995690</gpxhb:course></extensions></wpt><wpt lat="24.717022426989523" lon="121.34426855280057"><ele>599</ele><time>2023-10-07T01:37:00Z</time><name>07 攀繩點2</name><cmt>2023-10-07T09:37:00+08:00</cmt><desc>07 攀繩點2</desc><src>Hikingbook</src><link href="https://hikingbook.net/hikes/y2aQ7TqfRRa6nD2BtDm918g"><text>Hikingbook</text></link><extensions><gpxhb:weather>Clear</gpxhb:weather><gpxhb:speed>0.000000</gpxhb:speed><gpxhb:course>126.170872</gpxhb:course></extensions></wpt><wpt lat="24.717158562155383" lon="121.34416010545371"><ele>656</ele><time>2023-10-07T01:47:56Z</time><name>08 攀繩點3</name><cmt>2023-10-07T09:47:56+08:00</cmt><desc>08 攀繩點3</desc><src>Hikingbook</src><link href="https://hikingbook.net/hikes/y2aQ7TqfRRa6nD2BtDm918g"><text>Hikingbook</text></link><extensions><gpxhb:weather>Clear</gpxhb:weather><gpxhb:speed>0.000000</gpxhb:speed><gpxhb:course>206.832680</gpxhb:course></extensions></wpt><wpt lat="24.71734357913158" lon="121.34404265659886"><ele>695</ele><time>2023-10-07T01:54:27Z</time><name>09 攀繩點4</name><cmt>2023-10-07T09:54:27+08:00</cmt><desc>09 攀繩點4</desc><src>Hikingbook</src><link href="https://hikingbook.net/hikes/y2aQ7TqfRRa6nD2BtDm918g"><text>Hikingbook</text></link><extensions><gpxhb:weather>Clear</gpxhb:weather><gpxhb:speed>2.281832</gpxhb:speed><gpxhb:course>116.482074</gpxhb:course></extensions></wpt><wpt lat="24.716981510091003" lon="121.34387207694562"><ele>682</ele><time>2023-10-07T02:00:24Z</time><name>10 瀑布3</name><cmt>2023-10-07T10:00:24+08:00</cmt><desc>10 瀑布3</desc><src>Hikingbook</src><link href="https://hikingbook.net/hikes/y2aQ7TqfRRa6nD2BtDm918g"><text>Hikingbook</text></link><extensions><gpxhb:weather>Clear</gpxhb:weather><gpxhb:speed>1.421521</gpxhb:speed><gpxhb:course>213.776914</gpxhb:course></extensions></wpt><wpt lat="24.71729076357536" lon="121.34393905150871"><ele>624</ele><time>2023-10-07T02:09:28Z</time><name>11 攀繩點5</name><cmt>2023-10-07T10:09:28+08:00</cmt><desc>11 攀繩點5</desc><src>Hikingbook</src><link href="https://hikingbook.net/hikes/y2aQ7TqfRRa6nD2BtDm918g"><text>Hikingbook</text></link><extensions><gpxhb:weather>Clear</gpxhb:weather><gpxhb:speed>0.916017</gpxhb:speed><gpxhb:course>215.213294</gpxhb:course></extensions></wpt><wpt lat="24.71771222527612" lon="121.34330540526959"><ele>691</ele><time>2023-10-07T02:21:08Z</time><name>12 景點3</name><cmt>2023-10-07T10:21:08+08:00</cmt><desc>12 景點3</desc><src>Hikingbook</src><link href="https://hikingbook.net/hikes/y2aQ7TqfRRa6nD2BtDm918g"><text>Hikingbook</text></link><extensions><gpxhb:weather>Clear</gpxhb:weather><gpxhb:speed>0.000000</gpxhb:speed><gpxhb:course>254.988534</gpxhb:course></extensions></wpt><wpt lat="24.717891523286347" lon="121.3439419737696"><ele>686</ele><time>2023-10-07T02:23:55Z</time><name>13 瀑布4-滑降開始</name><cmt>2023-10-07T10:23:55+08:00</cmt><desc>13 瀑布4-滑降開始</desc><src>Hikingbook</src><link href="https://hikingbook.net/hikes/y2aQ7TqfRRa6nD2BtDm918g"><text>Hikingbook</text></link><extensions><gpxhb:weather>Clear</gpxhb:weather><gpxhb:speed>0.000000</gpxhb:speed><gpxhb:course>85.781917</gpxhb:course></extensions></wpt><wpt lat="24.717682264768253" lon="121.34419614460444"><ele>686</ele><time>2023-10-07T05:03:17Z</time><name>14 瀑布4-滑降結束</name><cmt>2023-10-07T13:03:17+08:00</cmt><desc>14 瀑布4-滑降結束</desc><src>Hikingbook</src><link href="https://hikingbook.net/hikes/y2aQ7TqfRRa6nD2BtDm918g"><text>Hikingbook</text></link><extensions><gpxhb:weather>Clear</gpxhb:weather><gpxhb:speed>0.260000</gpxhb:speed><gpxhb:course>248.554688</gpxhb:course></extensions></wpt><wpt lat="24.71742161266577" lon="121.34384010167267"><ele>685</ele><time>2023-10-07T05:07:28Z</time><name>15 瀑布3-垂降</name><cmt>2023-10-07T13:07:28+08:00</cmt><desc>15 瀑布3-垂降</desc><src>Hikingbook</src><link href="https://hikingbook.net/hikes/y2aQ7TqfRRa6nD2BtDm918g"><text>Hikingbook</text></link><extensions><gpxhb:weather>Clear</gpxhb:weather><gpxhb:speed>0.180516</gpxhb:speed><gpxhb:course>95.410022</gpxhb:course></extensions></wpt><wpt lat="24.717168462571518" lon="121.34437747122097"><ele>662</ele><time>2023-10-07T05:53:56Z</time><name>16 瀑布2-滑降手放繩（開始）</name><cmt>2023-10-07T13:53:56+08:00</cmt><desc>16 瀑布2-滑降手放繩（開始）</desc><src>Hikingbook</src><link href="https://hikingbook.net/hikes/y2aQ7TqfRRa6nD2BtDm918g"><text>Hikingbook</text></link><extensions><gpxhb:weather>Clear</gpxhb:weather><gpxhb:speed>0.235618</gpxhb:speed><gpxhb:course>88.279098</gpxhb:course></extensions></wpt><wpt lat="24.71683950631387" lon="121.34623629983639"><ele>574</ele><time>2023-10-07T08:00:49Z</time><name>17 瀑布2-滑降手放繩（結束）</name><cmt>2023-10-07T16:00:49+08:00</cmt><desc>17 瀑布2-滑降手放繩（結束）</desc><src>Hikingbook</src><link href="https://hikingbook.net/hikes/y2aQ7TqfRRa6nD2BtDm918g"><text>Hikingbook</text></link><extensions><gpxhb:weather>Clear</gpxhb:weather><gpxhb:speed>1.560000</gpxhb:speed><gpxhb:course>9.843750</gpxhb:course></extensions></wpt><wpt lat="24.71772136634655" lon="121.347517054641"><ele>555</ele><time>2023-10-07T08:25:26Z</time><name>18 停車點-結束</name><cmt>2023-10-07T16:25:26+08:00</cmt><desc>18 停車點-結束</desc><src>Hikingbook</src><link href="https://hikingbook.net/hikes/y2aQ7TqfRRa6nD2BtDm918g"><text>Hikingbook</text></link><extensions><gpxhb:weather>Clear</gpxhb:weather><gpxhb:speed>0.000000</gpxhb:speed><gpxhb:course>355.781250</gpxhb:course></extensions></wpt><trk><name>💦🪢高義瀑布群（2023-10-07）-「溪降」［🇹🇼桃園-復興］</name><cmt>此地形可以玩&#xA;1.滑瀑&#xA;2.垂降&#xA;3.滑降&#xA;&#xA;此處非常多垂直爬山高繞路線，&#xA;因此一開始不用穿太多，會熱爆&#xA;等到抵達到最高點開始下溯垂降&#xA;才穿上防寒衣&#xA;&#xA;另外…&#xA;由於很多垂直高繞～&#xA;因此需要一點臂力跟不怕高的心態&#xA;女生通常會需要幫忙上攀。</cmt><desc>此地形可以玩&#xA;1.滑瀑&#xA;2.垂降&#xA;3.滑降&#xA;&#xA;此處非常多垂直爬山高繞路線，&#xA;因此一開始不用穿太多，會熱爆&#xA;等到抵達到最高點開始下溯垂降&#xA;才穿上防寒衣&#xA;&#xA;另外…&#xA;由於很多垂直高繞～&#xA;因此需要一點臂力跟不怕高的心態&#xA;女生通常會需要幫忙上攀。</desc><src>Hikingbook</src><link href="https://hikingbook.net/hikes/2023-10-7-%E6%99%A8%E9%96%93%E9%87%8D%E8%A3%9D%E7%99%BB%E5%B1%B1-871c4b46"><text>Hikingbook</text></link><trkseg><trkpt lat="24.717535623372267" lon="121.34748126391446"><ele>526.4613609313965</ele><time>2023-10-07T00:38:24Z</time><src>Hikingbook</src><extensions><gpxhb:speed>0.930000</gpxhb:speed><gpxhb:course>254.882812</gpxhb:course></extensions></trkpt><trkpt lat="24.717570937284975" lon="121.34733017858981"><ele>528.84096095361</ele><time>2023-10-07T00:38:37Z</time><src>Hikingbook</src><extensions><gpxhb:speed>1.920000</gpxhb:speed><gpxhb:course>255.937492</gpxhb:course></extensions></trkpt><trkpt lat="24.717387744053706" lon="121.34688257940523"><ele>533.6186259207884</ele><time>2023-10-07T00:39:13Z</time><src>Hikingbook</src><extensions><gpxhb:speed>1.095903</gpxhb:speed><gpxhb:course>251.416762</gpxhb:course></extensions></trkpt><trkpt lat="24.717235724875664" lon="121.34672845269236"><ele>531.3168451621418</ele><time>2023-10-07T00:39:35Z</time><src>Hikingbook</src><extensions><gpxhb:speed>0.245028</gpxhb:speed><gpxhb:course>245.329613</gpxhb:course></extensions></trkpt><trkpt lat="24.717039806455755" lon="121.34683555311115"><ele>527.6381425568266</ele><time>2023-10-07T00:40:11Z</time><src>Hikingbook</src><extensions><gpxhb:speed>1.813611</gpxhb:speed><gpxhb:course>142.681756</gpxhb:course></extensions></trkpt><trkpt lat="24.716894090787164" lon="121.34674893476657"><ele>525.3206016121898</ele><time>2023-10-07T00:40:19Z</time><src>Hikingbook</src><extensions><gpxhb:speed>1.442303</gpxhb:speed><gpxhb:course>142.681753</gpxhb:course></extensions></trkpt><trkpt lat="24.716907018997716" lon="121.34673123088359"><ele>525.1931677311571</ele><time>2023-10-07T00:40:20Z</time><src>Hikingbook</src><extensions><gpxhb:speed>0.440886</gpxhb:speed><gpxhb:course>142.681714</gpxhb:course></extensions></trkpt><trkpt lat="24.71685164844538" lon="121.34668954585028"><ele>527.6560663208165</ele><time>2023-10-07T00:40:30Z</time><src>Hikingbook</src><extensions><gpxhb:speed>0.957363</gpxhb:speed><gpxhb:course>142.681759</gpxhb:course></extensions></trkpt><trkpt lat="24.716808136608854" lon="121.34684651545783"><ele>546.6196518727921</ele><time>2023-10-07T00:41:09Z</time><src>Hikingbook</src><extensions><gpxhb:speed>0.858568</gpxhb:speed><gpxhb:course>142.681781</gpxhb:course></extensions></trkpt><trkpt lat="24.71677980383895" lon="121.34671487188709"><ele>545.925831410123</ele><time>2023-10-07T00:41:21Z</time><src>Hikingbook</src><extensions><gpxhb:speed>0.000000</gpxhb:speed><gpxhb:course>142.681745</gpxhb:course></extensions></trkpt><trkpt lat="24.716965140622317" lon="121.34659427042351"><ele>545.7109635872754</ele><time>2023-10-07T00:41:42Z</time><src>Hikingbook</src><extensions><gpxhb:speed>0.621773</gpxhb:speed><gpxhb:course>142.681696</gpxhb:course></extensions></trkpt><trkpt lat="24.716803644485132" lon="121.34660606586418"><ele>546.9213377428134</ele><time>2023-10-07T00:41:54Z</time><src>Hikingbook</src><extensions><gpxhb:speed>0.823899</gpxhb:speed><gpxhb:course>142.681719</gpxhb:course></extensions></trkpt><trkpt lat="24.716846160059045" lon="121.34653460726945"><ele>554.6982463677824</ele><time>2023-10-07T00:42:19Z</time><src>Hikingbook</src><extensions><gpxhb:speed>0.571464</gpxhb:speed><gpxhb:course>142.681690</gpxhb:course></extensions></trkpt><trkpt lat="24.716682720335555" lon="121.34643052880185"><ele>556.0559397234725</ele><time>2023-10-07T00:42:40Z</time><src>Hikingbook</src><extensions><gpxhb:speed>0.906705</gpxhb:speed><gpxhb:course>144.024993</gpxhb:course></extensions></trkpt><trkpt lat="24.71684903075956" lon="121.34621510112888"><ele>567.4064289326568</ele><time>2023-10-07T00:44:03Z</time><src>Hikingbook</src><extensions><gpxhb:speed>0.065020</gpxhb:speed><gpxhb:course>329.183371</gpxhb:course></extensions></trkpt><trkpt lat="24.716854320025192" lon="121.34637963168659"><ele>565.7414028653803</ele><time>2023-10-07T00:44:48Z</time><src>Hikingbook</src><extensions><gpxhb:speed>0.075522</gpxhb:speed><gpxhb:course>336.004558</gpxhb:course></extensions></trkpt><trkpt lat="24.716740849681198" lon="121.34641158833199"><ele>561.8068923992934</ele><time>2023-10-07T00:45:45Z</time><src>Hikingbook</src><extensions><gpxhb:speed>0.274267</gpxhb:speed><gpxhb:course>325.497236</gpxhb:course></extensions></trkpt><trkpt lat="24.716925838081753" lon="121.34637947582455"><ele>560.7761340175114</ele><time>2023-10-07T00:48:16Z</time><src>Hikingbook</src><extensions><gpxhb:speed>0.615768</gpxhb:speed><gpxhb:course>341.616485</gpxhb:course></extensions></trkpt><trkpt lat="24.716879732259045" lon="121.34642702626635"><ele>560.2229601477051</ele><time>2023-10-07T00:48:28Z</time><src>Hikingbook</src><extensions><gpxhb:speed>0.078454</gpxhb:speed><gpxhb:course>341.616493</gpxhb:course></extensions></trkpt><trkpt lat="24.716863916659364" lon="121.34604064830872"><ele>567.4612086332108</ele><time>2023-10-07T00:49:24Z</time><src>Hikingbook</src><extensions><gpxhb:speed>1.235988</gpxhb:speed><gpxhb:course>269.254931</gpxhb:course></extensions></trkpt><trkpt lat="24.716681591126285" lon="121.34601440390068"><ele>574.0172032792672</ele><time>2023-10-07T00:49:40Z</time><src>Hikingbook</src><extensions><gpxhb:speed>0.000000</gpxhb:speed><gpxhb:course>249.895579</gpxhb:course></extensions></trkpt><trkpt lat="24.716647976807348" lon="121.34611087791495"><ele>576.6824438887706</ele><time>2023-10-07T00:49:47Z</time><src>Hikingbook</src><extensions><gpxhb:speed>0.549353</gpxhb:speed><gpxhb:course>283.684732</gpxhb:course></extensions></trkpt><trkpt lat="24.716734711693313" lon="121.34632504684005"><ele>576.4557861768044</ele><time>2023-10-07T00:49:55Z</time><src>Hikingbook</src><extensions><gpxhb:speed>0.000000</gpxhb:speed><gpxhb:course>343.448216</gpxhb:course></extensions></trkpt><trkpt lat="24.71682805644214" lon="121.34632835552532"><ele>573.6364086833277</ele><time>2023-10-07T00:49:59Z</time><src>Hikingbook</src><extensions><gpxhb:speed>1.045492</gpxhb:speed><gpxhb:course>343.448202</gpxhb:course></extensions></trkpt><trkpt lat="24.716822029209307" lon="121.34620056826988"><ele>571.1773137539446</ele><time>2023-10-07T00:50:07Z</time><src>Hikingbook</src><extensions><gpxhb:speed>0.069330</gpxhb:speed><gpxhb:course>301.852676</gpxhb:course></extensions></trkpt><trkpt lat="24.716652753857684" lon="121.3461527949227"><ele>571.4566972888003</ele><time>2023-10-07T00:50:15Z</time><src>Hikingbook</src><extensions><gpxhb:speed>0.136950</gpxhb:speed><gpxhb:course>254.313494</gpxhb:course></extensions></trkpt><trkpt lat="24.716633622919595" lon="121.34622240173805"><ele>570.6888449567424</ele><time>2023-10-07T00:50:31Z</time><src>Hikingbook</src><extensions><gpxhb:speed>0.000000</gpxhb:speed><gpxhb:course>80.221158</gpxhb:course></extensions></trkpt><trkpt lat="24.716555736870145" lon="121.34610876362727"><ele>571.0856902921864</ele><time>2023-10-07T00:50:43Z</time><src>Hikingbook</src><extensions><gpxhb:speed>2.488872</gpxhb:speed><gpxhb:course>213.233404</gpxhb:course></extensions></trkpt><trkpt lat="24.71652652580398" lon="121.34619481296647"><ele>571.8869025373951</ele><time>2023-10-07T00:50:49Z</time><src>Hikingbook</src><extensions><gpxhb:speed>1.281891</gpxhb:speed><gpxhb:course>193.198764</gpxhb:course></extensions></trkpt><trkpt lat="24.71690021592657" lon="121.345967631583"><ele>573.0539545093146</ele><time>2023-10-07T00:51:03Z</time><src>Hikingbook</src><extensions><gpxhb:speed>2.748246</gpxhb:speed><gpxhb:course>320.220380</gpxhb:course></extensions></trkpt><trkpt lat="24.71659475879218" lon="121.34596056619336"><ele>573.7781505385396</ele><time>2023-10-07T00:51:13Z</time><src>Hikingbook</src><extensions><gpxhb:speed>1.902990</gpxhb:speed><gpxhb:course>194.678182</gpxhb:course></extensions></trkpt><trkpt lat="24.716631960004484" lon="121.3458354243992"><ele>574.8910094065409</ele><time>2023-10-07T00:51:46Z</time><src>Hikingbook</src><extensions><gpxhb:speed>0.691178</gpxhb:speed><gpxhb:course>249.546934</gpxhb:course></extensions></trkpt><trkpt lat="24.7165419688437" lon="121.34581667414258"><ele>579.2155502799295</ele><time>2023-10-07T00:51:58Z</time><src>Hikingbook</src><extensions><gpxhb:speed>1.986807</gpxhb:speed><gpxhb:course>177.636169</gpxhb:course></extensions></trkpt><trkpt lat="24.716486691988255" lon="121.34582438452293"><ele>580.1038874865592</ele><time>2023-10-07T00:51:59Z</time><src>Hikingbook</src><extensions><gpxhb:speed>1.895690</gpxhb:speed><gpxhb:course>173.975225</gpxhb:course></extensions></trkpt><trkpt lat="24.716337414979748" lon="121.34581368156842"><ele>585.1410298893678</ele><time>2023-10-07T00:52:23Z</time><src>Hikingbook</src><extensions><gpxhb:speed>0.300352</gpxhb:speed><gpxhb:course>159.386969</gpxhb:course></extensions></trkpt><trkpt lat="24.716549740890088" lon="121.34580835266947"><ele>591.1387693154209</ele><time>2023-10-07T00:52:45Z</time><src>Hikingbook</src><extensions><gpxhb:speed>0.105287</gpxhb:speed><gpxhb:course>115.840263</gpxhb:course></extensions></trkpt><trkpt lat="24.716522540927862" lon="121.34573640502964"><ele>591.3880431752937</ele><time>2023-10-07T00:52:51Z</time><src>Hikingbook</src><extensions><gpxhb:speed>1.352329</gpxhb:speed><gpxhb:course>235.994275</gpxhb:course></extensions></trkpt><trkpt lat="24.716641668446666" lon="121.34573743171347"><ele>590.272348483304</ele><time>2023-10-07T00:53:05Z</time><src>Hikingbook</src><extensions><gpxhb:speed>0.000000</gpxhb:speed><gpxhb:course>292.182434</gpxhb:course></extensions></trkpt><trkpt lat="24.71662763393947" lon="121.34566507156059"><ele>589.9352391618661</ele><time>2023-10-07T00:53:13Z</time><src>Hikingbook</src><extensions><gpxhb:speed>0.000000</gpxhb:speed><gpxhb:course>290.598114</gpxhb:course></extensions></trkpt><trkpt lat="24.71670823024741" lon="121.34574067662604"><ele>588.0921875401039</ele><time>2023-10-07T00:53:35Z</time><src>Hikingbook</src><extensions><gpxhb:speed>0.000000</gpxhb:speed><gpxhb:course>290.598150</gpxhb:course></extensions></trkpt></trkseg><trkseg><trkpt lat="24.71670598258863" lon="121.3451019768802"><ele>566.1862137047574</ele><time>2023-10-07T01:04:05Z</time><src>Hikingbook</src><extensions><gpxhb:speed>0.000000</gpxhb:speed><gpxhb:course>-1.000000</gpxhb:course></extensions></trkpt><trkpt lat="24.716767142140153" lon="121.34482598152053"><ele>604.4734388149974</ele><time>2023-10-07T01:06:32Z</time><src>Hikingbook</src><extensions><gpxhb:speed>0.293207</gpxhb:speed><gpxhb:course>288.812546</gpxhb:course></extensions></trkpt><trkpt lat="24.716704505264875" lon="121.34485376830972"><ele>602.5241492577675</ele><time>2023-10-07T01:06:56Z</time><src>Hikingbook</src><extensions><gpxhb:speed>0.328445</gpxhb:speed><gpxhb:course>276.899808</gpxhb:course></extensions></trkpt><trkpt lat="24.716659829872505" lon="121.34473709998862"><ele>603.7425531386807</ele><time>2023-10-07T01:07:30Z</time><src>Hikingbook</src><extensions><gpxhb:speed>0.362867</gpxhb:speed><gpxhb:course>241.918979</gpxhb:course></extensions></trkpt><trkpt lat="24.71685711747366" lon="121.34486800257321"><ele>610.600489559514</ele><time>2023-10-07T01:08:12Z</time><src>Hikingbook</src><extensions><gpxhb:speed>0.000000</gpxhb:speed><gpxhb:course>44.263977</gpxhb:course></extensions></trkpt><trkpt lat="24.716749867280917" lon="121.34481764268469"><ele>615.7569749755023</ele><time>2023-10-07T01:09:02Z</time><src>Hikingbook</src><extensions><gpxhb:speed>0.498542</gpxhb:speed><gpxhb:course>37.643903</gpxhb:course></extensions></trkpt><trkpt lat="24.716806774499005" lon="121.34485639049282"><ele>614.935841107899</ele><time>2023-10-07T01:09:12Z</time><src>Hikingbook</src><extensions><gpxhb:speed>0.042319</gpxhb:speed><gpxhb:course>21.315385</gpxhb:course></extensions></trkpt><trkpt lat="24.716900871421686" lon="121.34460773359655"><ele>626.7475420324481</ele><time>2023-10-07T01:11:13Z</time><src>Hikingbook</src><extensions><gpxhb:speed>0.048153</gpxhb:speed><gpxhb:course>50.010523</gpxhb:course></extensions></trkpt><trkpt lat="24.717095421776552" lon="121.3447656838589"><ele>617.8397282233343</ele><time>2023-10-07T01:12:05Z</time><src>Hikingbook</src><extensions><gpxhb:speed>0.000000</gpxhb:speed><gpxhb:course>37.219230</gpxhb:course></extensions></trkpt><trkpt lat="24.71702251484763" lon="121.34469598254701"><ele>609.0707037546257</ele><time>2023-10-07T01:12:31Z</time><src>Hikingbook</src><extensions><gpxhb:speed>0.000000</gpxhb:speed><gpxhb:course>193.918566</gpxhb:course></extensions></trkpt></trkseg><trkseg><trkpt lat="24.717135151479923" lon="121.34475478291937"><ele>638.0739090628922</ele><time>2023-10-07T01:29:05Z</time><src>Hikingbook</src><extensions><gpxhb:speed>0.810000</gpxhb:speed><gpxhb:course>76.289066</gpxhb:course></extensions></trkpt><trkpt lat="24.717100277403702" lon="121.3448221688952"><ele>634.4003638475167</ele><time>2023-10-07T01:29:14Z</time><src>Hikingbook</src><extensions><gpxhb:speed>0.000000</gpxhb:speed><gpxhb:course>-1.000000</gpxhb:course></extensions></trkpt><trkpt lat="24.71699473859154" lon="121.34459169991494"><ele>584.275018261258</ele><time>2023-10-07T01:29:38Z</time><src>Hikingbook</src><extensions><gpxhb:speed>0.863741</gpxhb:speed><gpxhb:course>-1.000000</gpxhb:course></extensions></trkpt><trkpt lat="24.717213711328885" lon="121.34461570041222"><ele>584.2050250491753</ele><time>2023-10-07T01:30:51Z</time><src>Hikingbook</src><extensions><gpxhb:speed>0.071477</gpxhb:speed><gpxhb:course>13.057928</gpxhb:course></extensions></trkpt><trkpt lat="24.71725641661585" lon="121.34438535516108"><ele>581.185137571335</ele><time>2023-10-07T01:31:14Z</time><src>Hikingbook</src><extensions><gpxhb:speed>0.000000</gpxhb:speed><gpxhb:course>339.995690</gpxhb:course></extensions></trkpt><trkpt lat="24.717127537079037" lon="121.34437213658559"><ele>592.6773011582723</ele><time>2023-10-07T01:31:22Z</time><src>Hikingbook</src><extensions><gpxhb:speed>0.111624</gpxhb:speed><gpxhb:course>339.995695</gpxhb:course></extensions></trkpt><trkpt lat="24.71726511309668" lon="121.3442876011104"><ele>597.371569214253</ele><time>2023-10-07T01:32:07Z</time><src>Hikingbook</src><extensions><gpxhb:speed>0.000000</gpxhb:speed><gpxhb:course>161.660819</gpxhb:course></extensions></trkpt><trkpt lat="24.717302969848514" lon="121.34433857350855"><ele>600.5678078075857</ele><time>2023-10-07T01:32:19Z</time><src>Hikingbook</src><extensions><gpxhb:speed>0.124944</gpxhb:speed><gpxhb:course>161.660843</gpxhb:course></extensions></trkpt><trkpt lat="24.7171783688713" lon="121.34442147114784"><ele>588.5306317704378</ele><time>2023-10-07T01:32:56Z</time><src>Hikingbook</src><extensions><gpxhb:speed>0.062608</gpxhb:speed><gpxhb:course>189.093908</gpxhb:course></extensions></trkpt><trkpt lat="24.717216942129426" lon="121.34436143068967"><ele>589.6079587813817</ele><time>2023-10-07T01:33:14Z</time><src>Hikingbook</src><extensions><gpxhb:speed>0.000000</gpxhb:speed><gpxhb:course>44.711043</gpxhb:course></extensions></trkpt><trkpt lat="24.717224005376437" lon="121.34447415620349"><ele>580.1921226285885</ele><time>2023-10-07T01:33:59Z</time><src>Hikingbook</src><extensions><gpxhb:speed>0.000000</gpxhb:speed><gpxhb:course>131.921274</gpxhb:course></extensions></trkpt><trkpt lat="24.717050098998442" lon="121.34449243350925"><ele>585.7970327753351</ele><time>2023-10-07T01:35:35Z</time><src>Hikingbook</src><extensions><gpxhb:speed>0.112358</gpxhb:speed><gpxhb:course>175.284291</gpxhb:course></extensions></trkpt><trkpt lat="24.716959966051558" lon="121.34430634450085"><ele>597.2561276059855</ele><time>2023-10-07T01:36:36Z</time><src>Hikingbook</src><extensions><gpxhb:speed>0.769203</gpxhb:speed><gpxhb:course>219.053750</gpxhb:course></extensions></trkpt><trkpt lat="24.717015428923137" lon="121.34420963143077"><ele>599.7789732140577</ele><time>2023-10-07T01:37:27Z</time><src>Hikingbook</src><extensions><gpxhb:speed>0.000000</gpxhb:speed><gpxhb:course>252.422721</gpxhb:course></extensions></trkpt><trkpt lat="24.717027689582032" lon="121.34432790758049"><ele>606.7450189322237</ele><time>2023-10-07T01:38:50Z</time><src>Hikingbook</src><extensions><gpxhb:speed>0.130983</gpxhb:speed><gpxhb:course>237.022816</gpxhb:course></extensions></trkpt><trkpt lat="24.71701867606429" lon="121.34426295385177"><ele>603.4443374456487</ele><time>2023-10-07T01:40:07Z</time><src>Hikingbook</src><extensions><gpxhb:speed>0.126901</gpxhb:speed><gpxhb:course>187.316913</gpxhb:course></extensions></trkpt><trkpt lat="24.717116273469767" lon="121.34434381589567"><ele>609.7015969049315</ele><time>2023-10-07T01:42:00Z</time><src>Hikingbook</src><extensions><gpxhb:speed>0.000000</gpxhb:speed><gpxhb:course>69.299678</gpxhb:course></extensions></trkpt><trkpt lat="24.71704208365235" lon="121.3442259021464"><ele>610.0997271399056</ele><time>2023-10-07T01:42:41Z</time><src>Hikingbook</src><extensions><gpxhb:speed>0.260455</gpxhb:speed><gpxhb:course>69.299629</gpxhb:course></extensions></trkpt><trkpt lat="24.717591161574756" lon="121.3449980624656"><ele>648.0884602610712</ele><time>2023-10-07T01:45:50Z</time><src>Hikingbook</src><extensions><gpxhb:speed>1.247706</gpxhb:speed><gpxhb:course>98.018544</gpxhb:course></extensions></trkpt><trkpt lat="24.717261134873134" lon="121.34470380412766"><ele>649.1831113831364</ele><time>2023-10-07T01:45:57Z</time><src>Hikingbook</src><extensions><gpxhb:speed>1.528864</gpxhb:speed><gpxhb:course>187.919702</gpxhb:course></extensions></trkpt><trkpt lat="24.717151230156205" lon="121.3444011449495"><ele>649.939079686976</ele><time>2023-10-07T01:46:28Z</time><src>Hikingbook</src><extensions><gpxhb:speed>0.000000</gpxhb:speed><gpxhb:course>208.979468</gpxhb:course></extensions></trkpt><trkpt lat="24.717119248846515" lon="121.34447303523595"><ele>653.4916166954938</ele><time>2023-10-07T01:46:42Z</time><src>Hikingbook</src><extensions><gpxhb:speed>0.315813</gpxhb:speed><gpxhb:course>208.258377</gpxhb:course></extensions></trkpt><trkpt lat="24.717074053985346" lon="121.34419945220787"><ele>645.6679375651125</ele><time>2023-10-07T01:47:46Z</time><src>Hikingbook</src><extensions><gpxhb:speed>0.000000</gpxhb:speed><gpxhb:course>155.405772</gpxhb:course></extensions></trkpt><trkpt lat="24.717200742552336" lon="121.34413491631055"><ele>650.8050728001369</ele><time>2023-10-07T01:47:54Z</time><src>Hikingbook</src><extensions><gpxhb:speed>0.453918</gpxhb:speed><gpxhb:course>192.745245</gpxhb:course></extensions></trkpt><trkpt lat="24.717071356742654" lon="121.34419860352466"><ele>662.5678219989402</ele><time>2023-10-07T01:48:08Z</time><src>Hikingbook</src><extensions><gpxhb:speed>0.142343</gpxhb:speed><gpxhb:course>206.832703</gpxhb:course></extensions></trkpt><trkpt lat="24.71725512716905" lon="121.34411794321551"><ele>673.6373562650465</ele><time>2023-10-07T01:48:36Z</time><src>Hikingbook</src><extensions><gpxhb:speed>0.000000</gpxhb:speed><gpxhb:course>206.832657</gpxhb:course></extensions></trkpt><trkpt lat="24.717349679262973" lon="121.34422300940005"><ele>675.8740234566621</ele><time>2023-10-07T01:48:57Z</time><src>Hikingbook</src><extensions><gpxhb:speed>0.000000</gpxhb:speed><gpxhb:course>206.832699</gpxhb:course></extensions></trkpt><trkpt lat="24.717259339461087" lon="121.3441250905844"><ele>675.3055989386761</ele><time>2023-10-07T01:49:36Z</time><src>Hikingbook</src><extensions><gpxhb:speed>0.185482</gpxhb:speed><gpxhb:course>206.832657</gpxhb:course></extensions></trkpt><trkpt lat="24.717307087296373" lon="121.34386801387937"><ele>687.802436904907</ele><time>2023-10-07T01:50:14Z</time><src>Hikingbook</src><extensions><gpxhb:speed>0.050953</gpxhb:speed><gpxhb:course>168.304457</gpxhb:course></extensions></trkpt><trkpt lat="24.717316715336008" lon="121.34401943797832"><ele>688.3089117409376</ele><time>2023-10-07T01:50:50Z</time><src>Hikingbook</src><extensions><gpxhb:speed>0.000000</gpxhb:speed><gpxhb:course>132.107444</gpxhb:course></extensions></trkpt><trkpt lat="24.71718236841225" lon="121.34409768635429"><ele>688.6572918750417</ele><time>2023-10-07T01:51:07Z</time><src>Hikingbook</src><extensions><gpxhb:speed>0.173543</gpxhb:speed><gpxhb:course>137.107293</gpxhb:course></extensions></trkpt><trkpt lat="24.717339483839226" lon="121.34392264421336"><ele>690.3205331945941</ele><time>2023-10-07T01:52:41Z</time><src>Hikingbook</src><extensions><gpxhb:speed>0.484190</gpxhb:speed><gpxhb:course>141.045180</gpxhb:course></extensions></trkpt><trkpt lat="24.717240604377835" lon="121.3440840902932"><ele>690.8530093875482</ele><time>2023-10-07T01:53:03Z</time><src>Hikingbook</src><extensions><gpxhb:speed>1.333832</gpxhb:speed><gpxhb:course>130.549761</gpxhb:course></extensions></trkpt><trkpt lat="24.717311191782606" lon="121.34410357274889"><ele>689.0558410591347</ele><time>2023-10-07T01:53:17Z</time><src>Hikingbook</src><extensions><gpxhb:speed>0.637576</gpxhb:speed><gpxhb:course>70.769633</gpxhb:course></extensions></trkpt><trkpt lat="24.71739219668151" lon="121.34386170530793"><ele>693.9609628974549</ele><time>2023-10-07T01:54:18Z</time><src>Hikingbook</src><extensions><gpxhb:speed>0.257424</gpxhb:speed><gpxhb:course>79.389011</gpxhb:course></extensions></trkpt><trkpt lat="24.717354697610055" lon="121.34399155507292"><ele>693.4020541007482</ele><time>2023-10-07T01:54:38Z</time><src>Hikingbook</src><extensions><gpxhb:speed>0.000000</gpxhb:speed><gpxhb:course>81.388148</gpxhb:course></extensions></trkpt></trkseg><trkseg></trkseg><trkseg><trkpt lat="24.717081585838578" lon="121.34395415310001"><ele>681.2276814142242</ele><time>2023-10-07T02:00:50Z</time><src>Hikingbook</src><extensions><gpxhb:speed>0.305645</gpxhb:speed><gpxhb:course>-1.000000</gpxhb:course></extensions></trkpt><trkpt lat="24.717396804787313" lon="121.3440096886774"><ele>614.8369994964451</ele><time>2023-10-07T02:09:18Z</time><src>Hikingbook</src><extensions><gpxhb:speed>0.404904</gpxhb:speed><gpxhb:course>-1.000000</gpxhb:course></extensions></trkpt><trkpt lat="24.717284189255793" lon="121.34392865651336"><ele>631.9849736195573</ele><time>2023-10-07T02:09:36Z</time><src>Hikingbook</src><extensions><gpxhb:speed>0.328893</gpxhb:speed><gpxhb:course>295.536608</gpxhb:course></extensions></trkpt><trkpt lat="24.717506413986648" lon="121.34405546239087"><ele>625.5269499239924</ele><time>2023-10-07T02:11:51Z</time><src>Hikingbook</src><extensions><gpxhb:speed>0.000000</gpxhb:speed><gpxhb:course>-1.000000</gpxhb:course></extensions></trkpt><trkpt lat="24.717109589253997" lon="121.34377858867073"><ele>630.094444134708</ele><time>2023-10-07T02:13:55Z</time><src>Hikingbook</src><extensions><gpxhb:speed>0.456519</gpxhb:speed><gpxhb:course>203.861679</gpxhb:course></extensions></trkpt><trkpt lat="24.717567497887895" lon="121.34414106636176"><ele>633.387090862923</ele><time>2023-10-07T02:15:02Z</time><src>Hikingbook</src><extensions><gpxhb:speed>0.271610</gpxhb:speed><gpxhb:course>209.306881</gpxhb:course></extensions></trkpt><trkpt lat="24.717426385422602" lon="121.34402120199839"><ele>633.3515525649118</ele><time>2023-10-07T02:15:35Z</time><src>Hikingbook</src><extensions><gpxhb:speed>1.491068</gpxhb:speed><gpxhb:course>190.854749</gpxhb:course></extensions></trkpt><trkpt lat="24.71758744590888" lon="121.34402418125921"><ele>634.2088461227941</ele><time>2023-10-07T02:15:55Z</time><src>Hikingbook</src><extensions><gpxhb:speed>0.382032</gpxhb:speed><gpxhb:course>207.345179</gpxhb:course></extensions></trkpt><trkpt lat="24.717439570443034" lon="121.34395711085456"><ele>635.7605546994226</ele><time>2023-10-07T02:16:09Z</time><src>Hikingbook</src><extensions><gpxhb:speed>0.000000</gpxhb:speed><gpxhb:course>205.688210</gpxhb:course></extensions></trkpt><trkpt lat="24.71748962611836" lon="121.34392025570006"><ele>639.8207146633356</ele><time>2023-10-07T02:16:41Z</time><src>Hikingbook</src><extensions><gpxhb:speed>0.000000</gpxhb:speed><gpxhb:course>230.010068</gpxhb:course></extensions></trkpt><trkpt lat="24.717439068903676" lon="121.34399920625897"><ele>639.4493715891316</ele><time>2023-10-07T02:16:51Z</time><src>Hikingbook</src><extensions><gpxhb:speed>0.295255</gpxhb:speed><gpxhb:course>230.010112</gpxhb:course></extensions></trkpt><trkpt lat="24.717349208414593" lon="121.34390141596339"><ele>657.0454920936135</ele><time>2023-10-07T02:17:23Z</time><src>Hikingbook</src><extensions><gpxhb:speed>1.360357</gpxhb:speed><gpxhb:course>235.028146</gpxhb:course></extensions></trkpt><trkpt lat="24.717402993663136" lon="121.34386164509682"><ele>673.6938638201524</ele><time>2023-10-07T02:17:35Z</time><src>Hikingbook</src><extensions><gpxhb:speed>1.450665</gpxhb:speed><gpxhb:course>235.028123</gpxhb:course></extensions></trkpt><trkpt lat="24.717295988175895" lon="121.34419216696324"><ele>683.4442654341017</ele><time>2023-10-07T02:17:55Z</time><src>Hikingbook</src><extensions><gpxhb:speed>0.547208</gpxhb:speed><gpxhb:course>60.757210</gpxhb:course></extensions></trkpt><trkpt lat="24.717426190036146" lon="121.34407635808402"><ele>683.2395584016078</ele><time>2023-10-07T02:18:13Z</time><src>Hikingbook</src><extensions><gpxhb:speed>0.778005</gpxhb:speed><gpxhb:course>8.670012</gpxhb:course></extensions></trkpt><trkpt lat="24.71738138705043" lon="121.34394161938849"><ele>685.3752648928794</ele><time>2023-10-07T02:18:27Z</time><src>Hikingbook</src><extensions><gpxhb:speed>0.814577</gpxhb:speed><gpxhb:course>301.169074</gpxhb:course></extensions></trkpt><trkpt lat="24.7177124158698" lon="121.34408657003777"><ele>682.3518667870932</ele><time>2023-10-07T02:18:50Z</time><src>Hikingbook</src><extensions><gpxhb:speed>2.178671</gpxhb:speed><gpxhb:course>44.101729</gpxhb:course></extensions></trkpt><trkpt lat="24.71744997131145" lon="121.34389162765602"><ele>675.6360445356679</ele><time>2023-10-07T02:19:01Z</time><src>Hikingbook</src><extensions><gpxhb:speed>0.220786</gpxhb:speed><gpxhb:course>94.933893</gpxhb:course></extensions></trkpt><trkpt lat="24.717336735307242" lon="121.34396584527231"><ele>678.4089944327828</ele><time>2023-10-07T02:19:23Z</time><src>Hikingbook</src><extensions><gpxhb:speed>0.195985</gpxhb:speed><gpxhb:course>104.215310</gpxhb:course></extensions></trkpt><trkpt lat="24.717870437779307" lon="121.34424481373377"><ele>678.5983964741658</ele><time>2023-10-07T02:19:43Z</time><src>Hikingbook</src><extensions><gpxhb:speed>0.636043</gpxhb:speed><gpxhb:course>318.630079</gpxhb:course></extensions></trkpt><trkpt lat="24.71784126129917" lon="121.34392725998751"><ele>680.8196817380357</ele><time>2023-10-07T02:19:51Z</time><src>Hikingbook</src><extensions><gpxhb:speed>2.859037</gpxhb:speed><gpxhb:course>289.290363</gpxhb:course></extensions></trkpt><trkpt lat="24.717941519800227" lon="121.34368435148559"><ele>684.4629289289179</ele><time>2023-10-07T02:19:57Z</time><src>Hikingbook</src><extensions><gpxhb:speed>2.906664</gpxhb:speed><gpxhb:course>272.267024</gpxhb:course></extensions></trkpt><trkpt lat="24.717866049384238" lon="121.34355784461322"><ele>686.3864457136794</ele><time>2023-10-07T02:20:05Z</time><src>Hikingbook</src><extensions><gpxhb:speed>0.673072</gpxhb:speed><gpxhb:course>254.932290</gpxhb:course></extensions></trkpt><trkpt lat="24.717781998210064" lon="121.34359040262112"><ele>686.2391295530304</ele><time>2023-10-07T02:20:11Z</time><src>Hikingbook</src><extensions><gpxhb:speed>1.533410</gpxhb:speed><gpxhb:course>212.334125</gpxhb:course></extensions></trkpt><trkpt lat="24.717809938476098" lon="121.34364703536004"><ele>688.4773274626627</ele><time>2023-10-07T02:20:25Z</time><src>Hikingbook</src><extensions><gpxhb:speed>0.000000</gpxhb:speed><gpxhb:course>259.878451</gpxhb:course></extensions></trkpt><trkpt lat="24.71795371203246" lon="121.3435537195253"><ele>689.0005879164531</ele><time>2023-10-07T02:20:46Z</time><src>Hikingbook</src><extensions><gpxhb:speed>1.718301</gpxhb:speed><gpxhb:course>289.598317</gpxhb:course></extensions></trkpt><trkpt lat="24.717958616997183" lon="121.34354486090432"><ele>689.1830053377192</ele><time>2023-10-07T02:20:47Z</time><src>Hikingbook</src><extensions><gpxhb:speed>0.412403</gpxhb:speed><gpxhb:course>290.596371</gpxhb:course></extensions></trkpt><trkpt lat="24.71793237519363" lon="121.3436855955969"><ele>689.1220546450501</ele><time>2023-10-07T02:20:50Z</time><src>Hikingbook</src><extensions><gpxhb:speed>0.452317</gpxhb:speed><gpxhb:course>349.654715</gpxhb:course></extensions></trkpt><trkpt lat="24.71796011076252" lon="121.3435151827841"><ele>689.9927020203849</ele><time>2023-10-07T02:20:58Z</time><src>Hikingbook</src><extensions><gpxhb:speed>0.045997</gpxhb:speed><gpxhb:course>273.483619</gpxhb:course></extensions></trkpt><trkpt lat="24.717712560290906" lon="121.34332018162762"><ele>692.1713280546095</ele><time>2023-10-07T02:21:08Z</time><src>Hikingbook</src><extensions><gpxhb:speed>0.000000</gpxhb:speed><gpxhb:course>254.988534</gpxhb:course></extensions></trkpt><trkpt lat="24.717846782103944" lon="121.34338151181475"><ele>685.0318134988039</ele><time>2023-10-07T02:21:33Z</time><src>Hikingbook</src><extensions><gpxhb:speed>0.105443</gpxhb:speed><gpxhb:course>337.260366</gpxhb:course></extensions></trkpt><trkpt lat="24.717673657806294" lon="121.34345189080513"><ele>690.9796225503338</ele><time>2023-10-07T02:21:43Z</time><src>Hikingbook</src><extensions><gpxhb:speed>0.440371</gpxhb:speed><gpxhb:course>266.443564</gpxhb:course></extensions></trkpt><trkpt lat="24.717591835270774" lon="121.34379146755867"><ele>687.1534977670718</ele><time>2023-10-07T02:22:17Z</time><src>Hikingbook</src><extensions><gpxhb:speed>0.119215</gpxhb:speed><gpxhb:course>190.335942</gpxhb:course></extensions></trkpt><trkpt lat="24.71757143710686" lon="121.34371002305062"><ele>686.9247883077265</ele><time>2023-10-07T02:22:27Z</time><src>Hikingbook</src><extensions><gpxhb:speed>1.038645</gpxhb:speed><gpxhb:course>249.670631</gpxhb:course></extensions></trkpt><trkpt lat="24.717712095727425" lon="121.34373490058903"><ele>689.7622880314715</ele><time>2023-10-07T02:22:46Z</time><src>Hikingbook</src><extensions><gpxhb:speed>1.318308</gpxhb:speed><gpxhb:course>340.229948</gpxhb:course></extensions></trkpt><trkpt lat="24.717759022289084" lon="121.34350050139388"><ele>691.9143290749794</ele><time>2023-10-07T02:23:02Z</time><src>Hikingbook</src><extensions><gpxhb:speed>0.280904</gpxhb:speed><gpxhb:course>278.336702</gpxhb:course></extensions></trkpt><trkpt lat="24.717714891826137" lon="121.34355456157985"><ele>687.8643486755562</ele><time>2023-10-07T02:23:25Z</time><src>Hikingbook</src><extensions><gpxhb:speed>0.628049</gpxhb:speed><gpxhb:course>345.133980</gpxhb:course></extensions></trkpt><trkpt lat="24.71787616657008" lon="121.34372328183211"><ele>683.1907908314715</ele><time>2023-10-07T02:23:41Z</time><src>Hikingbook</src><extensions><gpxhb:speed>1.849361</gpxhb:speed><gpxhb:course>76.768970</gpxhb:course></extensions></trkpt><trkpt lat="24.717871856417343" lon="121.34401807585296"><ele>685.4114633702934</ele><time>2023-10-07T02:23:51Z</time><src>Hikingbook</src><extensions><gpxhb:speed>0.062402</gpxhb:speed><gpxhb:course>85.781930</gpxhb:course></extensions></trkpt><trkpt lat="24.71791332620912" lon="121.3438433012123"><ele>685.9716088314225</ele><time>2023-10-07T02:24:05Z</time><src>Hikingbook</src><extensions><gpxhb:speed>0.000000</gpxhb:speed><gpxhb:course>93.517656</gpxhb:course></extensions></trkpt></trkseg><trkseg><trkpt lat="24.71787858709419" lon="121.34376587592911"><ele>639.4834983325029</ele><time>2023-10-07T05:03:18Z</time><src>Hikingbook</src><extensions><gpxhb:speed>0.260000</gpxhb:speed><gpxhb:course>254.882812</gpxhb:course></extensions></trkpt><trkpt lat="24.717953174298184" lon="121.34363813800788"><ele>657.6439590829427</ele><time>2023-10-07T05:03:26Z</time><src>Hikingbook</src><extensions><gpxhb:speed>0.820000</gpxhb:speed><gpxhb:course>256.992184</gpxhb:course></extensions></trkpt><trkpt lat="24.717910842331058" lon="121.34380886489922"><ele>689.3102062172385</ele><time>2023-10-07T05:03:50Z</time><src>Hikingbook</src><extensions><gpxhb:speed>0.738434</gpxhb:speed><gpxhb:course>264.446843</gpxhb:course></extensions></trkpt><trkpt lat="24.71764412965571" lon="121.34370457515912"><ele>677.2686157450321</ele><time>2023-10-07T05:05:17Z</time><src>Hikingbook</src><extensions><gpxhb:speed>1.025590</gpxhb:speed><gpxhb:course>-1.000000</gpxhb:course></extensions></trkpt><trkpt lat="24.71751726338953" lon="121.34381411725158"><ele>685.3486400647085</ele><time>2023-10-07T05:06:22Z</time><src>Hikingbook</src><extensions><gpxhb:speed>1.398583</gpxhb:speed><gpxhb:course>-1.000000</gpxhb:course></extensions></trkpt><trkpt lat="24.717488510125513" lon="121.34368559594387"><ele>684.244643751576</ele><time>2023-10-07T05:06:52Z</time><src>Hikingbook</src><extensions><gpxhb:speed>0.279412</gpxhb:speed><gpxhb:course>-1.000000</gpxhb:course></extensions></trkpt><trkpt lat="24.717375180952814" lon="121.34385733080379"><ele>685.5972198454372</ele><time>2023-10-07T05:08:05Z</time><src>Hikingbook</src><extensions><gpxhb:speed>1.858262</gpxhb:speed><gpxhb:course>-1.000000</gpxhb:course></extensions></trkpt><trkpt lat="24.717481978450884" lon="121.34380128223464"><ele>688.5080896231242</ele><time>2023-10-07T05:08:35Z</time><src>Hikingbook</src><extensions><gpxhb:speed>1.875251</gpxhb:speed><gpxhb:course>-1.000000</gpxhb:course></extensions></trkpt><trkpt lat="24.71743579214679" lon="121.3436392324803"><ele>679.7368248123117</ele><time>2023-10-07T05:09:38Z</time><src>Hikingbook</src><extensions><gpxhb:speed>0.930260</gpxhb:speed><gpxhb:course>-1.000000</gpxhb:course></extensions></trkpt><trkpt lat="24.7174421386853" lon="121.34383040427531"><ele>692.4131690399648</ele><time>2023-10-07T05:09:57Z</time><src>Hikingbook</src><extensions><gpxhb:speed>0.632366</gpxhb:speed><gpxhb:course>91.896020</gpxhb:course></extensions></trkpt><trkpt lat="24.717292035912262" lon="121.3438647932196"><ele>685.650750942128</ele><time>2023-10-07T05:11:25Z</time><src>Hikingbook</src><extensions><gpxhb:speed>0.115054</gpxhb:speed><gpxhb:course>-1.000000</gpxhb:course></extensions></trkpt><trkpt lat="24.71727509158509" lon="121.344020584725"><ele>685.1029634554819</ele><time>2023-10-07T05:12:36Z</time><src>Hikingbook</src><extensions><gpxhb:speed>1.422092</gpxhb:speed><gpxhb:course>67.152445</gpxhb:course></extensions></trkpt><trkpt lat="24.717459936277884" lon="121.34429686379582"><ele>682.638784269775</ele><time>2023-10-07T05:12:49Z</time><src>Hikingbook</src><extensions><gpxhb:speed>1.306087</gpxhb:speed><gpxhb:course>60.005273</gpxhb:course></extensions></trkpt><trkpt lat="24.71730412030579" lon="121.34409649968622"><ele>675.413623648421</ele><time>2023-10-07T05:13:13Z</time><src>Hikingbook</src><extensions><gpxhb:speed>0.051947</gpxhb:speed><gpxhb:course>306.418363</gpxhb:course></extensions></trkpt><trkpt lat="24.71723934116057" lon="121.34412836393815"><ele>683.4738204211628</ele><time>2023-10-07T05:14:01Z</time><src>Hikingbook</src><extensions><gpxhb:speed>0.000000</gpxhb:speed><gpxhb:course>84.848387</gpxhb:course></extensions></trkpt><trkpt lat="24.717199705631188" lon="121.34398388310973"><ele>674.5294998767965</ele><time>2023-10-07T05:17:26Z</time><src>Hikingbook</src><extensions><gpxhb:speed>0.000000</gpxhb:speed><gpxhb:course>-1.000000</gpxhb:course></extensions></trkpt><trkpt lat="24.71727188233579" lon="121.34404379660442"><ele>676.5950387599462</ele><time>2023-10-07T05:20:08Z</time><src>Hikingbook</src><extensions><gpxhb:speed>0.000000</gpxhb:speed><gpxhb:course>-1.000000</gpxhb:course></extensions></trkpt><trkpt lat="24.717312410558716" lon="121.3438678963536"><ele>685.3205816120612</ele><time>2023-10-07T05:22:06Z</time><src>Hikingbook</src><extensions><gpxhb:speed>0.000000</gpxhb:speed><gpxhb:course>-1.000000</gpxhb:course></extensions></trkpt><trkpt lat="24.717538953234378" lon="121.34383442046493"><ele>673.5755271218751</ele><time>2023-10-07T05:25:52Z</time><src>Hikingbook</src><extensions><gpxhb:speed>0.000000</gpxhb:speed><gpxhb:course>-1.000000</gpxhb:course></extensions></trkpt><trkpt lat="24.717469972162075" lon="121.34381448913463"><ele>673.5815374933541</ele><time>2023-10-07T05:26:48Z</time><src>Hikingbook</src><extensions><gpxhb:speed>0.027117</gpxhb:speed><gpxhb:course>41.195611</gpxhb:course></extensions></trkpt><trkpt lat="24.717466217466594" lon="121.34396027237035"><ele>670.7389454462294</ele><time>2023-10-07T05:38:29Z</time><src>Hikingbook</src><extensions><gpxhb:speed>0.000000</gpxhb:speed><gpxhb:course>-1.000000</gpxhb:course></extensions></trkpt><trkpt lat="24.71780030395176" lon="121.34415345265712"><ele>673.0450358766881</ele><time>2023-10-07T05:46:45Z</time><src>Hikingbook</src><extensions><gpxhb:speed>0.385580</gpxhb:speed><gpxhb:course>19.195289</gpxhb:course></extensions></trkpt><trkpt lat="24.717821993618383" lon="121.34397203482946"><ele>681.7106244526067</ele><time>2023-10-07T05:47:40Z</time><src>Hikingbook</src><extensions><gpxhb:speed>0.054361</gpxhb:speed><gpxhb:course>317.446146</gpxhb:course></extensions></trkpt><trkpt lat="24.717107343679068" lon="121.34421528269318"><ele>685.0216326466359</ele><time>2023-10-07T05:50:01Z</time><src>Hikingbook</src><extensions><gpxhb:speed>1.476202</gpxhb:speed><gpxhb:course>-1.000000</gpxhb:course></extensions></trkpt><trkpt lat="24.71710493776487" lon="121.34401925638122"><ele>672.4578785919326</ele><time>2023-10-07T05:50:39Z</time><src>Hikingbook</src><extensions><gpxhb:speed>0.153889</gpxhb:speed><gpxhb:course>216.545230</gpxhb:course></extensions></trkpt><trkpt lat="24.717299058845864" lon="121.3441083197286"><ele>674.9952095813414</ele><time>2023-10-07T05:50:59Z</time><src>Hikingbook</src><extensions><gpxhb:speed>1.222907</gpxhb:speed><gpxhb:course>-1.000000</gpxhb:course></extensions></trkpt><trkpt lat="24.717267848489914" lon="121.34401034255198"><ele>670.7090010289085</ele><time>2023-10-07T05:51:05Z</time><src>Hikingbook</src><extensions><gpxhb:speed>1.827428</gpxhb:speed><gpxhb:course>252.926311</gpxhb:course></extensions></trkpt><trkpt lat="24.71708808344815" lon="121.34432087213605"><ele>672.8357772740035</ele><time>2023-10-07T05:51:45Z</time><src>Hikingbook</src><extensions><gpxhb:speed>2.187855</gpxhb:speed><gpxhb:course>114.847796</gpxhb:course></extensions></trkpt><trkpt lat="24.71707681093174" lon="121.34435524004215"><ele>678.6824373515655</ele><time>2023-10-07T05:51:46Z</time><src>Hikingbook</src><extensions><gpxhb:speed>2.290612</gpxhb:speed><gpxhb:course>-1.000000</gpxhb:course></extensions></trkpt><trkpt lat="24.717062475449687" lon="121.34441243521694"><ele>685.9842475396727</ele><time>2023-10-07T05:52:03Z</time><src>Hikingbook</src><extensions><gpxhb:speed>1.253139</gpxhb:speed><gpxhb:course>-1.000000</gpxhb:course></extensions></trkpt><trkpt lat="24.717175088605725" lon="121.34435990994844"><ele>662.5593085025555</ele><time>2023-10-07T05:53:56Z</time><src>Hikingbook</src><extensions><gpxhb:speed>0.363500</gpxhb:speed><gpxhb:course>88.279097</gpxhb:course></extensions></trkpt><trkpt lat="24.71716245613968" lon="121.3442042443999"><ele>660.6647157507696</ele><time>2023-10-07T05:55:00Z</time><src>Hikingbook</src><extensions><gpxhb:speed>0.789205</gpxhb:speed><gpxhb:course>330.315679</gpxhb:course></extensions></trkpt><trkpt lat="24.717164341955037" lon="121.34455892334051"><ele>658.1032450050892</ele><time>2023-10-07T06:29:32Z</time><src>Hikingbook</src><extensions><gpxhb:speed>0.857228</gpxhb:speed><gpxhb:course>71.024260</gpxhb:course></extensions></trkpt><trkpt lat="24.717217644385446" lon="121.34445154546562"><ele>595.3038496609524</ele><time>2023-10-07T06:30:23Z</time><src>Hikingbook</src><extensions><gpxhb:speed>0.439275</gpxhb:speed><gpxhb:course>177.897422</gpxhb:course></extensions></trkpt><trkpt lat="24.71728550478034" lon="121.3444858192932"><ele>645.2395962756094</ele><time>2023-10-07T06:43:32Z</time><src>Hikingbook</src><extensions><gpxhb:speed>0.000000</gpxhb:speed><gpxhb:course>-1.000000</gpxhb:course></extensions></trkpt><trkpt lat="24.717187727227373" lon="121.34457758024513"><ele>660.0948138492757</ele><time>2023-10-07T06:52:41Z</time><src>Hikingbook</src><extensions><gpxhb:speed>0.000000</gpxhb:speed><gpxhb:course>-1.000000</gpxhb:course></extensions></trkpt><trkpt lat="24.717118977102437" lon="121.34448870119633"><ele>625.6911023228715</ele><time>2023-10-07T07:14:02Z</time><src>Hikingbook</src><extensions><gpxhb:speed>0.000000</gpxhb:speed><gpxhb:course>-1.000000</gpxhb:course></extensions></trkpt><trkpt lat="24.71717985945105" lon="121.3443751452027"><ele>576.8111820785168</ele><time>2023-10-07T07:29:38Z</time><src>Hikingbook</src><extensions><gpxhb:speed>0.029748</gpxhb:speed><gpxhb:course>-1.000000</gpxhb:course></extensions></trkpt><trkpt lat="24.717049761329037" lon="121.3446347332685"><ele>582.1889374698383</ele><time>2023-10-07T07:35:09Z</time><src>Hikingbook</src><extensions><gpxhb:speed>0.173762</gpxhb:speed><gpxhb:course>205.305828</gpxhb:course></extensions></trkpt><trkpt lat="24.716732096878346" lon="121.3446361964235"><ele>546.7776072292927</ele><time>2023-10-07T07:39:13Z</time><src>Hikingbook</src><extensions><gpxhb:speed>0.540000</gpxhb:speed><gpxhb:course>272.109375</gpxhb:course></extensions></trkpt><trkpt lat="24.71650784364591" lon="121.34574359579238"><ele>565.2101326807831</ele><time>2023-10-07T07:48:15Z</time><src>Hikingbook</src><extensions><gpxhb:speed>0.000000</gpxhb:speed><gpxhb:course>140.625000</gpxhb:course></extensions></trkpt><trkpt lat="24.716507063130255" lon="121.34574479300714"><ele>565.4115848232829</ele><time>2023-10-07T07:48:16Z</time><src>Hikingbook</src><extensions><gpxhb:speed>0.000000</gpxhb:speed><gpxhb:course>140.625000</gpxhb:course></extensions></trkpt><trkpt lat="24.71673544344443" lon="121.34567279019983"><ele>579.5762863812932</ele><time>2023-10-07T07:48:26Z</time><src>Hikingbook</src><extensions><gpxhb:speed>0.200000</gpxhb:speed><gpxhb:course>185.976562</gpxhb:course></extensions></trkpt><trkpt lat="24.71682581081963" lon="121.34640266891947"><ele>546.9562247431192</ele><time>2023-10-07T08:04:45Z</time><src>Hikingbook</src><extensions><gpxhb:speed>0.203047</gpxhb:speed><gpxhb:course>79.464800</gpxhb:course></extensions></trkpt><trkpt lat="24.716962210542" lon="121.34660093651014"><ele>544.5526321197736</ele><time>2023-10-07T08:07:38Z</time><src>Hikingbook</src><extensions><gpxhb:speed>2.208702</gpxhb:speed><gpxhb:course>-1.000000</gpxhb:course></extensions></trkpt><trkpt lat="24.71696779729456" lon="121.34660467054084"><ele>545.9144021656292</ele><time>2023-10-07T08:07:39Z</time><src>Hikingbook</src><extensions><gpxhb:speed>1.187687</gpxhb:speed><gpxhb:course>26.927046</gpxhb:course></extensions></trkpt><trkpt lat="24.717442702756404" lon="121.3467934969178"><ele>550.367240511231</ele><time>2023-10-07T08:13:00Z</time><src>Hikingbook</src><extensions><gpxhb:speed>1.015776</gpxhb:speed><gpxhb:course>37.490937</gpxhb:course></extensions></trkpt><trkpt lat="24.717630580159287" lon="121.34728744647697"><ele>550.7120734130867</ele><time>2023-10-07T08:13:48Z</time><src>Hikingbook</src><extensions><gpxhb:speed>1.343537</gpxhb:speed><gpxhb:course>68.878065</gpxhb:course></extensions></trkpt><trkpt lat="24.71763469956785" lon="121.34729941258254"><ele>550.606961035328</ele><time>2023-10-07T08:13:49Z</time><src>Hikingbook</src><extensions><gpxhb:speed>1.373753</gpxhb:speed><gpxhb:course>73.105076</gpxhb:course></extensions></trkpt><trkpt lat="24.71774552559932" lon="121.34756159074128"><ele>557.6186639784086</ele><time>2023-10-07T08:15:11Z</time><src>Hikingbook</src><extensions><gpxhb:speed>0.000000</gpxhb:speed><gpxhb:course>153.744504</gpxhb:course></extensions></trkpt><trkpt lat="24.71775232195576" lon="121.34750484737124"><ele>561.2858644556115</ele><time>2023-10-07T08:19:34Z</time><src>Hikingbook</src><extensions><gpxhb:speed>0.000000</gpxhb:speed><gpxhb:course>-1.000000</gpxhb:course></extensions></trkpt><trkpt lat="24.716902182195028" lon="121.3481137582694"><ele>555.6669474777108</ele><time>2023-10-07T08:22:37Z</time><src>Hikingbook</src><extensions><gpxhb:speed>-1.000000</gpxhb:speed><gpxhb:course>-1.000000</gpxhb:course></extensions></trkpt></trkseg></trk></gpx>